uri,geo_long,geo_lat,schema_name,schema_telephone,rdfs_label,schema_description,om_situadoEnVia,schema_fax,schema_address_streetAddress,schema_address_addressLocality,schema_address_addressCountry,schema_address_postalCode,Horario_de_manana_Opens,Horario_de_manana_Closes,Horario_de_tarde_invierno_Opens,Horario_de_tarde_invierno_Closes,Horario_de_tarde_verano_Opens,Horario_de_tarde_verano_Closes,Horario_Sabado_Opens,Horario_Sabado_Closes,Horario_Extendido_Opens,Horario_Extendido_Closes
http://opendata.caceres.es/recurso/salud/farmacias/Farmacia/117-obdulia-andrade-iglesias,-6.36674241245,39.482366687,Obdulia Andrade Iglesias,927-246044,Farmacia Obdulia Andrade Iglesias en la avda Heroes De Baler,Farmacia Obdulia Andrade Iglesias en la avda Heroes De Baler,http://opendata.caceres.es/recurso/urbanismo-infraestructuras/vias/Via/avda-239,927-246044,"Avda Heroes De Baler, 9",Cáceres,ES,10004,9:30,14:00,17:00,20:00,17:30,20:30,9:30,14:00,,
http://opendata.caceres.es/recurso/salud/farmacias/Farmacia/166-maria-isabel-torres-perez,-6.37429677863,39.4699384639,Maria Isabel Torres Perez,927-226591,Farmacia Maria Isabel Torres Perez en la avda Virgen De La Montaña,Farmacia Maria Isabel Torres Perez en la avda Virgen De La Montaña,http://opendata.caceres.es/recurso/urbanismo-infraestructuras/vias/Via/avda-541,927-240178,"Avda Virgen De La Montaña, 23",Cáceres,ES,10004,9:30,14:00,17:00,20:00,17:30,20:30,9:30,14:00,,
http://opendata.caceres.es/recurso/salud/farmacias/Farmacia/181-francisco-javier-mateos-vicente-y-elvira-mateos-gonzalez,-6.37974692855,39.472693921,Francisco Javier Mateos Vicente Y Elvira Mateos Gonzalez,927-224295,Farmacia Francisco Javier Mateos Vicente Y Elvira Mateos Gonzalez en la calle Doctor Fleming,Farmacia Francisco Javier Mateos Vicente Y Elvira Mateos Gonzalez en la calle Doctor Fleming,http://opendata.caceres.es/recurso/urbanismo-infraestructuras/vias/Via/calle-165,927-224295,"Calle Doctor Fleming, 3",Cáceres,ES,10001,9:30,14:00,17:00,20:00,17:30,20:30,9:30,14:00,,
http://opendata.caceres.es/recurso/salud/farmacias/Farmacia/200-maria-antonia-sanchez-gundin-y-maria-cristina-gonzalez-sanchez,-6.39033505614,39.4522053902,Maria Antonia Sanchez Gundin Y Maria Cristina Gonzalez Sanchez,927-234936,Farmacia Maria Antonia Sanchez Gundin Y Maria Cristina Gonzalez Sanchez en la calle Rio Danubio,Farmacia Maria Antonia Sanchez Gundin Y Maria Cristina Gonzalez Sanchez en la calle Rio Danubio,http://opendata.caceres.es/recurso/urbanismo-infraestructuras/vias/Via/calle-1391,927-234936,"Calle Rio Danubio, 14",Cáceres,ES,10005,9:30,14:00,17:00,20:00,17:30,20:30,9:30,14:00,,
http://opendata.caceres.es/recurso/salud/farmacias/Farmacia/29-julia-campos-acedo,-6.37166432446,39.4600455167,Julia Campos Acedo,927-220667,Farmacia Julia Campos Acedo en la avda De Cervantes,Farmacia Julia Campos Acedo en la avda De Cervantes,http://opendata.caceres.es/recurso/urbanismo-infraestructuras/vias/Via/avda-3071,927-220667,"Avda De Cervantes, 8",Cáceres,ES,10005,9:30,14:00,17:00,20:00,17:30,20:30,9:30,14:00,,
http://opendata.caceres.es/recurso/salud/farmacias/Farmacia/294-mercedes-romano-garcia,-6.36968286174,39.4610615047,Mercedes Romano Garcia,927-212123,Farmacia Mercedes Romano Garcia en la calle La Roche Sur Yon,Farmacia Mercedes Romano Garcia en la calle La Roche Sur Yon,http://opendata.caceres.es/recurso/urbanismo-infraestructuras/vias/Via/calle-1962,927-212123,"Calle La Roche Sur Yon, 7",Cáceres,ES,10005,9:30,14:00,17:00,20:00,17:30,20:30,9:30,14:00,,
http://opendata.caceres.es/recurso/salud/farmacias/Farmacia/305-inmaculada-cepeda-casares,-6.38335813635,39.4684364403,Inmaculada Cepeda Casares,927-210315,Farmacia Inmaculada Cepeda Casares en la calle Argentina,Farmacia Inmaculada Cepeda Casares en la calle Argentina,http://opendata.caceres.es/recurso/urbanismo-infraestructuras/vias/Via/calle-57,927-210315,"Calle Argentina, 22",Cáceres,ES,10001,9:30,14:00,17:00,20:00,17:30,20:30,9:30,14:00,,
http://opendata.caceres.es/recurso/salud/farmacias/Farmacia/306-paloma-sanchez-iglesias,-6.39289254115,39.4713036718,Paloma Sanchez Iglesias,927-230607,Farmacia Paloma Sanchez Iglesias en la calle Monfragüe,Farmacia Paloma Sanchez Iglesias en la calle Monfragüe,http://opendata.caceres.es/recurso/urbanismo-infraestructuras/vias/Via/calle-3123,927-230607,"Calle Monfragüe, 5",Cáceres,ES,10005,9:30,14:00,17:00,20:00,17:30,20:30,9:30,14:00,,
http://opendata.caceres.es/recurso/salud/farmacias/Farmacia/32-juan-jose-delgado-cumella,-6.37466649221,39.4733284487,Juan Jose Delgado Cumella,927-249532,Farmacia Juan Jose Delgado Cumella en la calle San Pedro,Farmacia Juan Jose Delgado Cumella en la calle San Pedro,http://opendata.caceres.es/recurso/urbanismo-infraestructuras/vias/Via/calle-1556,927-249532,"Calle San Pedro, 12",Cáceres,ES,10003,9:30,14:00,17:00,20:00,17:30,20:30,9:30,14:00,,
http://opendata.caceres.es/recurso/salud/farmacias/Farmacia/331-maria-elena-garcia-de-casasola-garcia,-6.37985158033,39.458513771,Maria Elena Garcia De Casasola Garcia,927-238465,Farmacia Maria Elena Garcia De Casasola Garcia en la calle Avila,Farmacia Maria Elena Garcia De Casasola Garcia en la calle Avila,http://opendata.caceres.es/recurso/urbanismo-infraestructuras/vias/Via/calle-3629,927-238465,"Calle Avila, 4",Cáceres,ES,10005,9:30,14:00,17:00,20:00,17:30,20:30,9:30,14:00,,
http://opendata.caceres.es/recurso/salud/farmacias/Farmacia/335-luis-conde-garcia,-6.39110901667,39.4730768996,Luis Conde Garcia,927-239243,Farmacia Luis Conde Garcia en la calle Islas Azores,Farmacia Luis Conde Garcia en la calle Islas Azores,http://opendata.caceres.es/recurso/urbanismo-infraestructuras/vias/Via/calle-3589,927-232827,"Calle Islas Azores, 15",Cáceres,ES,10001,9:30,14:00,17:00,20:00,17:30,20:30,9:30,14:00,,
http://opendata.caceres.es/recurso/salud/farmacias/Farmacia/34-maria-san-pedro-ledesma,-6.3753797339,39.4730349313,Maria San Pedro Ledesma,927-226829,Farmacia Maria San Pedro Ledesma en la calle San Anton,Farmacia Maria San Pedro Ledesma en la calle San Anton,http://opendata.caceres.es/recurso/urbanismo-infraestructuras/vias/Via/calle-1161,927-226829,"Calle San Anton, 7",Cáceres,ES,10004,9:30,14:00,17:00,20:00,17:30,20:30,9:30,14:00,,
http://opendata.caceres.es/recurso/salud/farmacias/Farmacia/38-josefina-becerra-muñoz,-6.38643733964,39.4693444736,Josefina Becerra Muñoz,927-236279,Farmacia Josefina Becerra Muñoz en la calle Amberes,Farmacia Josefina Becerra Muñoz en la calle Amberes,http://opendata.caceres.es/recurso/urbanismo-infraestructuras/vias/Via/calle-3445,927-236279,"Calle Amberes, 6",Cáceres,ES,10003,9:30,14:00,17:00,20:00,17:30,20:30,9:30,14:00,,
http://opendata.caceres.es/recurso/salud/farmacias/Farmacia/39-jose-javier-mogollon-carrasco,-6.38016314589,39.4674057,Jose Javier Mogollon Carrasco,927-220387,Farmacia Jose Javier Mogollon Carrasco en la avda De Alemania,Farmacia Jose Javier Mogollon Carrasco en la avda De Alemania,http://opendata.caceres.es/recurso/urbanismo-infraestructuras/vias/Via/avda-1219,927-220387,"Avda De Alemania, 8",Cáceres,ES,10001,9:30,14:00,17:00,20:00,17:30,20:30,9:30,14:00,,
http://opendata.caceres.es/recurso/salud/farmacias/Farmacia/42-jose-lopez-garcia,-6.37139232454,39.4754745624,Jose Lopez Garcia,927-245097,Farmacia Jose Lopez Garcia en la plaza Mayor,Farmacia Jose Lopez Garcia en la plaza Mayor,http://opendata.caceres.es/recurso/urbanismo-infraestructuras/vias/Via/plaza-215,927-245097,"Plaza Mayor, 28",Cáceres,ES,10003,9:30,14:00,17:00,20:00,17:30,20:30,9:30,14:00,,
http://opendata.caceres.es/recurso/salud/farmacias/Farmacia/45-angeles-acedo-fernandez,-6.39024071575,39.4696010997,Angeles Acedo Fernandez,927-245526,Farmacia Angeles Acedo Fernandez en la calle Oporto,Farmacia Angeles Acedo Fernandez en la calle Oporto,http://opendata.caceres.es/recurso/urbanismo-infraestructuras/vias/Via/calle-3442,927-245526,"Calle Oporto, 2",Cáceres,ES,10005,9:30,14:00,17:00,20:00,17:30,20:30,9:30,14:00,,
http://opendata.caceres.es/recurso/salud/farmacias/Farmacia/60-maria-jose-diaz-martin,-6.37817133176,39.4676628608,Maria Jose Diaz Martin,927-222771,Farmacia Maria Jose Diaz Martin en la avda Antonio Hurtado,Farmacia Maria Jose Diaz Martin en la avda Antonio Hurtado,http://opendata.caceres.es/recurso/urbanismo-infraestructuras/vias/Via/avda-1390,927-222771,"Avda Antonio Hurtado, 7",Cáceres,ES,10002,9:30,14:00,17:00,20:00,17:30,20:30,9:30,14:00,,
http://opendata.caceres.es/recurso/salud/farmacias/Farmacia/147-jose-luis-rufo-ruiz,-6.3814095088,39.4688743705,Jose Luis Rufo Ruiz,927-222339,Farmacia Jose Luis Rufo Ruiz en la calle Gil Cordero,Farmacia Jose Luis Rufo Ruiz en la calle Gil Cordero,http://opendata.caceres.es/recurso/urbanismo-infraestructuras/vias/Via/calle-222,,"Calle Gil Cordero, 10",Cáceres,ES,10001,9:30,14:00,17:00,20:00,17:30,20:30,9:30,14:00,,
http://opendata.caceres.es/recurso/salud/farmacias/Farmacia/183-julian-saavedra-pavon,-6.37933481866,39.4707371295,Julian Saavedra Pavon,927-222621,Farmacia Julian Saavedra Pavon en la avda San Pedro De Alcantara,Farmacia Julian Saavedra Pavon en la avda San Pedro De Alcantara,http://opendata.caceres.es/recurso/urbanismo-infraestructuras/vias/Via/avda-2499,,"Avda San Pedro De Alcantara, 5",Cáceres,ES,10001,9:30,14:00,17:00,20:00,17:30,20:30,9:30,14:00,,
http://opendata.caceres.es/recurso/salud/farmacias/Farmacia/189-maria-concepcion-murillo-gomez,-6.37438361817,39.4560150717,Maria Concepcion Murillo Gomez,927-221855,Farmacia Maria Concepcion Murillo Gomez en la calle Cueva De Santa Ana,Farmacia Maria Concepcion Murillo Gomez en la calle Cueva De Santa Ana,http://opendata.caceres.es/recurso/urbanismo-infraestructuras/vias/Via/calle-4059,,"Calle Cueva De Santa Ana, 1",Cáceres,ES,10005,9:30,14:00,17:00,20:00,17:30,20:30,9:30,14:00,,
http://opendata.caceres.es/recurso/salud/farmacias/Farmacia/30-magdalena-bonilla-arjona,-6.38910633146,39.4497409288,Magdalena Bonilla Arjona,927-233032,Farmacia Magdalena Bonilla Arjona en la avda De La Constitucion,Farmacia Magdalena Bonilla Arjona en la avda De La Constitucion,http://opendata.caceres.es/recurso/urbanismo-infraestructuras/vias/Via/avda-3561,,"Avda De La Constitucion, 30",Cáceres,ES,10005,9:30,14:00,17:00,20:00,17:30,20:30,9:30,14:00,,
http://opendata.caceres.es/recurso/salud/farmacias/Farmacia/305-maria-del-carmen-bonilla-pavon,-6.38308466196,39.465804191,Maria Del Carmen Bonilla Pavon,927-233570,Farmacia Maria Del Carmen Bonilla Pavon en la calle Sanguino Michel,Farmacia Maria Del Carmen Bonilla Pavon en la calle Sanguino Michel,http://opendata.caceres.es/recurso/urbanismo-infraestructuras/vias/Via/calle-465,,"Calle Sanguino Michel, 25",Cáceres,ES,10001,9:30,14:00,17:00,20:00,17:30,20:30,9:30,14:00,,
http://opendata.caceres.es/recurso/salud/farmacias/Farmacia/307-maria-dolores-candela-cepeda,-6.36872057481,39.4884817184,Maria Dolores Candela Cepeda,927-180060,Farmacia Maria Dolores Candela Cepeda en la calle Arroyo De La Madre,Farmacia Maria Dolores Candela Cepeda en la calle Arroyo De La Madre,http://opendata.caceres.es/recurso/urbanismo-infraestructuras/vias/Via/calle-3946,,"Calle Arroyo De La Madre, 4",Cáceres,ES,10004,9:30,14:00,17:00,20:00,17:30,20:30,9:30,14:00,,
http://opendata.caceres.es/recurso/salud/farmacias/Farmacia/330-jose-gallego-caboblanco-y-jose-gallego-rodriguez,-6.38036755328,39.4554639128,Jose Gallego Caboblanco Y Jose Gallego Rodriguez,927-232876,Farmacia Jose Gallego Caboblanco Y Jose Gallego Rodriguez en la avda Juan Solano Pedrero,Farmacia Jose Gallego Caboblanco Y Jose Gallego Rodriguez en la avda Juan Solano Pedrero,http://opendata.caceres.es/recurso/urbanismo-infraestructuras/vias/Via/avda-3643,,"Avda Juan Solano Pedrero, 13",Cáceres,ES,10005,9:30,14:00,17:00,20:00,17:30,20:30,9:30,14:00,,
http://opendata.caceres.es/recurso/salud/farmacias/Farmacia/333-maria-jose-serrano-mena,-6.36988151912,39.4795126613,Maria Jose Serrano Mena,927-214252,Farmacia Maria Jose Serrano Mena en la calle Ceclavin,Farmacia Maria Jose Serrano Mena en la calle Ceclavin,http://opendata.caceres.es/recurso/urbanismo-infraestructuras/vias/Via/calle-104,,"Calle Ceclavin, 41",Cáceres,ES,10004,9:30,14:00,17:00,20:00,17:30,20:30,9:30,14:00,,
http://opendata.caceres.es/recurso/salud/farmacias/Farmacia/180-juan-jose-hernandez-rincon,-6.37890451534,39.4630037574,Juan Jose Hernandez Rincon,927-247661,Farmacia Juan Jose Hernandez Rincon en la calle Atahualpa,Farmacia Juan Jose Hernandez Rincon en la calle Atahualpa con servicio de urgencias 12 horas,http://opendata.caceres.es/recurso/urbanismo-infraestructuras/vias/Via/calle-65,927-247661,"Calle Atahualpa, S/N",Cáceres,ES,10005,,,,,,,,,9:30,22:00
http://opendata.caceres.es/recurso/salud/farmacias/Farmacia/196-diego-lanchares-gonzalez,-6.37032150773,39.4693427513,Diego Lanchares Gonzalez,927-244123,Farmacia Diego Lanchares Gonzalez en la calle San Ignacio,Farmacia Diego Lanchares Gonzalez en la calle San Ignacio con servicio de urgencias 12 horas,http://opendata.caceres.es/recurso/urbanismo-infraestructuras/vias/Via/calle-1394,927-244123,"Calle San Ignacio, 4",Cáceres,ES,10003,,,,,,,,,9:30,22:00
http://opendata.caceres.es/recurso/salud/farmacias/Farmacia/274-pedro-antonio-claros-vicario,-6.38845666527,39.4719795594,Pedro Antonio Claros Vicario,927-230049,Farmacia Pedro Antonio Claros Vicario en la calle Alfonso Diaz De Bustamante,Farmacia Pedro Antonio Claros Vicario en la calle Alfonso Diaz De Bustamante con servicio de urgencias 12 horas,http://opendata.caceres.es/recurso/urbanismo-infraestructuras/vias/Via/calle-3611,927-236268,"Calle Alfonso Diaz De Bustamante, 1",Cáceres,ES,10001,,,,,,,,,9:30,22:00
http://opendata.caceres.es/recurso/salud/farmacias/Farmacia/31-pedro-francisco-carretero-acevedo,-6.36601879953,39.4950306232,Pedro Francisco Carretero Acevedo,927-245236,Farmacia Pedro Francisco Carretero Acevedo en la calle Emilio Cardenal Hernández,Farmacia Pedro Francisco Carretero Acevedo en la calle Emilio Cardenal Hernández con servicio de urgencias 12 horas,http://opendata.caceres.es/recurso/urbanismo-infraestructuras/vias/Via/calle-4049,927-245236,"Calle Emilio Cardenal Hernández, 134",Cáceres,ES,10004,,,,,,,,,9:30,22:00
http://opendata.caceres.es/recurso/salud/farmacias/Farmacia/33-maria-luisa-picado-dominguez,-6.3816747877,39.4646461866,Maria Luisa Picado Dominguez,927-237327,Farmacia Maria Luisa Picado Dominguez en la avda De Alemania,Farmacia Maria Luisa Picado Dominguez en la avda De Alemania con servicio de urgencias 12 horas,http://opendata.caceres.es/recurso/urbanismo-infraestructuras/vias/Via/avda-1219,927-237327,"Avda De Alemania, 29",Cáceres,ES,10001,,,,,,,,,9:30,22:00
http://opendata.caceres.es/recurso/salud/farmacias/Farmacia/332-jose-maria-gomez-delgado,-6.37350863394,39.464236942,Jose Maria Gomez Delgado,927-223148,Farmacia Jose Maria Gomez Delgado en la avda Pablo Naranjo Porras,Farmacia Jose Maria Gomez Delgado en la avda Pablo Naranjo Porras con servicio de urgencias 12 horas,http://opendata.caceres.es/recurso/urbanismo-infraestructuras/vias/Via/avda-3809,927-223148,"Avda Pablo Naranjo Porras, 2",Cáceres,ES,10002,,,,,,,,,9:30,22:00
http://opendata.caceres.es/recurso/salud/farmacias/Farmacia/35-angel-garcia-casillas-moreno-de-acevedo,-6.37790398424,39.4699798059,Angel Garcia-Casillas Moreno De Acevedo,927-223171,Farmacia Angel Garcia-Casillas Moreno De Acevedo en la avda De España,Farmacia Angel Garcia-Casillas Moreno De Acevedo en la avda De España con servicio de urgencias 12 horas,http://opendata.caceres.es/recurso/urbanismo-infraestructuras/vias/Via/avda-3048,927-223171,"Avda De España, 21",Cáceres,ES,10002,,,,,,,,,9:30,22:00
http://opendata.caceres.es/recurso/salud/farmacias/Farmacia/36-juan-francisco-garcia-de-casasola-garcia,-6.37711394035,39.4660395749,Juan Francisco Garcia De Casasola Garcia,927-221135,Farmacia Juan Francisco Garcia De Casasola Garcia en la avda Antonio Hurtado,Farmacia Juan Francisco Garcia De Casasola Garcia en la avda Antonio Hurtado con servicio de urgencias 12 horas,http://opendata.caceres.es/recurso/urbanismo-infraestructuras/vias/Via/avda-1390,927-221135,"Avda Antonio Hurtado, 22",Cáceres,ES,10002,,,,,,,,,9:30,22:00
http://opendata.caceres.es/recurso/salud/farmacias/Farmacia/40-matilde-torres-muñoz,-6.37639068986,39.4710611891,Matilde Torres Muñoz,927-626660,Farmacia Matilde Torres Muñoz en la avda Virgen De La Montaña,Farmacia Matilde Torres Muñoz en la avda Virgen De La Montaña con servicio de urgencias 12 horas,http://opendata.caceres.es/recurso/urbanismo-infraestructuras/vias/Via/avda-541,927-626690,"Avda Virgen De La Montaña, 6",Cáceres,ES,10004,,,,,,,,,9:30,22:00
http://opendata.caceres.es/recurso/salud/farmacias/Farmacia/44-jose-pablo-torres-asensio,-6.36816648043,39.4850212888,Jose Pablo Torres Asensio,927-625008,Farmacia Jose Pablo Torres Asensio en la calle Cerro Del Royo,Farmacia Jose Pablo Torres Asensio en la calle Cerro Del Royo con servicio de urgencias 12 horas,http://opendata.caceres.es/recurso/urbanismo-infraestructuras/vias/Via/calle-3937,927-625008,"Calle Cerro Del Royo, 1",Cáceres,ES,10004,,,,,,,,,9:30,22:00
http://opendata.caceres.es/recurso/salud/farmacias/Farmacia/37-maria-pilar-hernandez-rincon,-6.37882074522,39.4656511231,Maria Pilar Hernandez Rincon,927-216540,Farmacia Maria Pilar Hernandez Rincon en la avda Isabel De Moctezuma,Farmacia Maria Pilar Hernandez Rincon en la avda Isabel De Moctezuma con servicio de urgencias 24 horas,http://opendata.caceres.es/recurso/urbanismo-infraestructuras/vias/Via/avda-1635,927-216540,"Avda Isabel De Moctezuma, 1",Cáceres,ES,10005,,,,,,,,,,
http://opendata.caceres.es/recurso/salud/farmacias/Farmacia/43-francisco-javier-sanguino-sanchez,-6.37570072316,39.4790533744,Francisco Javier Sanguino Sanchez,927-244961,Farmacia Francisco Javier Sanguino Sanchez en la calle Padre Bayle,Farmacia Francisco Javier Sanguino Sanchez en la calle Padre Bayle con servicio de urgencias 24 horas,http://opendata.caceres.es/recurso/urbanismo-infraestructuras/vias/Via/calle-361,927-244961,"Calle Padre Bayle, 9",Cáceres,ES,10004,,,,,,,,,,
http://opendata.caceres.es/recurso/salud/farmacias/Farmacia/41-angela-jimenez-robledo,-6.37330801236,39.4739085008,Angela Jimenez Robledo,927-245528,Farmacia Angela Jimenez Robledo en la calle Pintores,Farmacia Angela Jimenez Robledo en la calle Pintores con servicio de urgencias 12 horas,http://opendata.caceres.es/recurso/urbanismo-infraestructuras/vias/Via/calle-1205,,"Calle Pintores, 27",Cáceres,ES,10003,,,,,,,,,9:30,22:00
