ID_ENTITAT,DESCRIPCIO,NOM,TELEFON,EMAIL,SIGLA,CARRER,NRO,BIS,ESCALA,PIS,PORTA,CODI_POSTAL,CIUTAT,X,Y,X_ETRS89,Y_ETRS89,LONGITUD,LATITUD,ATENCIO_CIUTADANA,URL,SECTOR,LOCALITZACIO
8149,Sector público,010 Informació i Tràmits per Telèfon,010 -  - 900 922 010,010infotramits@terrassa.cat,PL,DIDÓ,5,,,,,8221,TERRASSA,417559.2813,4602032.7500,417465.2979,4601828.5314,2.0101523,41.5638740,T,https://aoberta.terrassa.cat/oficines/infoEntitat.jsp?id=8149,sector-publico,"(41.56387403706012, 2.0101523132364787)"
14237,Transport,Aparcament Avinguda Barcelona,937 369 025 -  - 937 880 106 (oficines),,AV,"BARCELONA, DE",245,,,SO,1  ,8222,TERRASSA,418934.9399,4602323.3720,418840.9608,4602119.1435,2.0266092,41.5666321,F,https://aoberta.terrassa.cat/oficines/infoEntitat.jsp?id=14237,transporte,"(41.56663213845659, 2.02660919498854)"
15218,Transport,Aparcament Plaça Lluís Companys,937 368 817 -  - 937 880 106 (oficines),,PL,DE LLUÍS COMPANYS,1,,,BA,1  ,8225,TERRASSA,416955.3744,4602823.5004,416861.3961,4602619.2877,2.0028012,41.5709330,F,https://aoberta.terrassa.cat/oficines/infoEntitat.jsp?id=15218,transporte,"(41.57093300019605, 2.0028011936397023)"
15186,Transport,Aparcament Plaça Progrés,937 338 554     -  - 937 880 106 (oficines),,PL,DEL PROGRÉS,1,,,,,8224,TERRASSA,417203.2813,4601676.0625,417109.2946,4601471.8461,2.0059326,41.5606249,F,https://aoberta.terrassa.cat/oficines/infoEntitat.jsp?id=15186,transporte,"(41.56062489782059, 2.005932580909501)"
59,Transport,Aparcament Plaça Vella,937 803 989      - 902 283 080 (Atenció al client - 24 hores) - ,,PL,VELLA,20,,,SO,1  ,8221,TERRASSA,417639.0940,4601807.7166,417545.1090,4601603.4971,2.0111403,41.5618556,F,https://aoberta.terrassa.cat/oficines/infoEntitat.jsp?id=59,transporte,"(41.561855610588694, 2.0111402607133853)"
4393,Transport,Aparcament Plaça del Dr Robert,937 318 508      - 902 283 080 (Atenció al client - 24 hores) - ,,PL,"DOCTOR ROBERT, DEL",10,,,,,8221,TERRASSA,418131.3079,4601974.5113,418037.3249,4601770.2883,2.0170197,41.5634083,F,https://aoberta.terrassa.cat/oficines/infoEntitat.jsp?id=4393,transporte,"(41.563408347349046, 2.0170196716408957)"
16610,Transport,Aparcament Plaça del Primer de Maig,937 352 684 -  - 937 880 106 (oficines),,CA,DEL DOCTOR CALSINA,370,,,,,8226,TERRASSA,418548.3750,4603514.1250,418454.4044,4603309.9012,2.0218118,41.5773168,F,https://aoberta.terrassa.cat/oficines/infoEntitat.jsp?id=16610,transporte,"(41.57731679511724, 2.0218118475337765)"
12969,Transport,Aparcament Rambla - Cervantes,937 397 700,,RM,D ÈGARA,352,,,BA,1  ,8221,TERRASSA,417199.4596,4602452.7936,417105.4788,4602248.5784,2.0057796,41.5676197,F,https://aoberta.terrassa.cat/oficines/infoEntitat.jsp?id=12969,transporte,"(41.56761974952059, 2.0057795915885586)"
16087,Transport,Aparcament Sant Leopold,937 894 430 -  - 937 880 106 (oficines),,CA,"SANT LEOPOLD, DE",33,,,SO,,8221,TERRASSA,417791.1033,4602384.2399,417697.1229,4602180.0201,2.0128840,41.5670634,F,https://aoberta.terrassa.cat/oficines/infoEntitat.jsp?id=16087,transporte,"(41.5670634475072, 2.0128840354345883)"
4038,Transport,Aparcament Vapor Universitari,937 843 885     -  - 937 880 106 (oficines),,CA,"MENÉNDEZ Y PELAYO, DE",41,,,BA,1  ,8222,TERRASSA,418619.7503,4601446.7762,418525.7641,4601242.5487,2.0229483,41.5587054,F,https://aoberta.terrassa.cat/oficines/infoEntitat.jsp?id=4038,transporte,"(41.55870542540869, 2.0229483120423937)"
12649,Transport,Aparcament Vapor Ventalló SL,937 899 146 - 937 880 106 (oficines),,CA,DEL PANTÀ,40,,,,,8221,TERRASSA,417603.0050,4602217.1539,417509.0231,4602012.9353,2.0106513,41.5655393,F,https://aoberta.terrassa.cat/oficines/infoEntitat.jsp?id=12649,transporte,"(41.565539292288, 2.0106513032867994)"
10510,Transport,Aparcament del Raval,937 801 539       - 902 283 080 (Atenció al client - 24 hores) - ,,RV,"MONTSERRAT, DE",27,,,SO,1  ,8221,TERRASSA,417517.0994,4601928.7853,417423.1151,4601724.5669,2.0096608,41.5629334,F,https://aoberta.terrassa.cat/oficines/infoEntitat.jsp?id=10510,transporte,"(41.56293337584382, 2.0096607812678395)"
10510,Transport,Aparcament del Raval,937 801 539       - 902 283 080 (Atenció al client - 24 hores) - ,,RV,"MONTSERRAT, DE",27,,,SO,1  ,8221,TERRASSA,417517.6013,4601932.6259,417423.6171,4601728.4075,2.0096663,41.5629680,F,https://aoberta.terrassa.cat/oficines/infoEntitat.jsp?id=10510,transporte,"(41.56296801617575, 2.0096662718524456)"
4867,Transport,"Aparcamientos Subterráneos de Terrassa, SA - ASTASA",937 330 019,,PR,DE SANT ROC,1,,,,,8221,TERRASSA,417404.6422,4601704.5600,417310.6561,4601500.3421,2.0083431,41.5609024,F,https://aoberta.terrassa.cat/oficines/infoEntitat.jsp?id=4867,transporte,"(41.56090238290069, 2.0083431372656437)"
13983,Cultura i lleure,Auditori Municipal de Terrassa,937 832 711 (Cultura)    -  - 937 361 762 (Auditori),,PS,"ERNEST LLUCH, D ",1,,,,,8222,TERRASSA,418336.8908,4601895.3391,418242.9076,4601691.1144,2.0194957,41.5627164,F,https://aoberta.terrassa.cat/oficines/infoEntitat.jsp?id=13983,cultura-ocio,"(41.5627163544712, 2.019495661244324)"
17271,Cultura i lleure,BaumannLab,937 848 390,info@baumannlab.cat,AV,"JACQUARD, DE",1,,,,,8222,TERRASSA,418296.8265,4602005.4055,418202.8440,4601801.1813,2.0190003,41.5637035,F,https://aoberta.terrassa.cat/oficines/infoEntitat.jsp?id=17271,cultura-ocio,"(41.56370352237213, 2.0190002573779395)"
10132,Cultura i lleure,Biblioteca Central de Terrassa - BCT,937 894 589,bct@terrassa.cat,PS,"LLETRES, DE LES",1,,,,,8221,TERRASSA,417541.0011,4602607.8482,417447.0220,4602403.6307,2.0098541,41.5690515,F,https://aoberta.terrassa.cat/oficines/infoEntitat.jsp?id=10132,cultura-ocio,"(41.56905149500609, 2.0098540804792115)"
3712,Cultura i lleure,Biblioteca Districte 2 - BD2,937 869 162,bd2@terrassa.cat,CA,"SANT COSME, DE",157,,,,,8222,TERRASSA,419161.9672,4602096.3650,419067.9868,4601892.1344,2.0293623,41.5646107,F,https://aoberta.terrassa.cat/oficines/infoEntitat.jsp?id=3712,cultura-ocio,"(41.564610698772015, 2.0293622826613005)"
17237,Cultura i lleure,Biblioteca Districte 3 - BD3,937 397 014,bd3@terrassa.cat,CA,"GERMÀ JOAQUIM, DEL",66,,,,,8223,TERRASSA,418412.8125,4601133.0625,418318.8236,4600928.8361,2.0205097,41.5558590,F,https://aoberta.terrassa.cat/oficines/infoEntitat.jsp?id=17237,cultura-ocio,"(41.55585900311468, 2.02050966003612)"
15126,Cultura i lleure,Biblioteca Districte 4 - BD4,937 397 423,bd4@terrassa.cat,CA,"INFANT MARTÍ, DE L ",183,,,,,8224,TERRASSA,416598.3321,4601276.4798,416504.3415,4601072.2674,1.9987343,41.5569634,F,https://aoberta.terrassa.cat/oficines/infoEntitat.jsp?id=15126,cultura-ocio,"(41.55696335418124, 1.998734287761978)"
3689,Cultura i lleure,Biblioteca Districte 5 - BD5,937 350 927,bd5@terrassa.cat,CA,"JOCS OLÍMPICS, DELS",7,,,,,8225,TERRASSA,417563.7066,4603383.9827,417469.7334,4603179.7662,2.0100197,41.5760437,F,https://aoberta.terrassa.cat/oficines/infoEntitat.jsp?id=3689,cultura-ocio,"(41.576043711465374, 2.0100197166697047)"
14518,Cultura i lleure,Biblioteca Districte 6 - BD6,937 397 420,bd6@terrassa.cat,RM,"FRANCESC MACIÀ, DE",193,,,,,8226,TERRASSA,418878.4684,4603502.4622,418784.4982,4603298.2359,2.0257725,41.5772454,F,https://aoberta.terrassa.cat/oficines/infoEntitat.jsp?id=14518,cultura-ocio,"(41.57724535389211, 2.025772547231101)"
735,Seguretat,Bombers,112 (emergències) - 937 838 080 (Urgències Terrassa trucada directa al Parc de Bombers) - 937 834 444 (Oficines del Parc de Bombers) -  - ,,AV,DE BARCELONA,287,,,,,8222,TERRASSA,418895.2875,4602496.6366,418801.3097,4602292.4086,2.0261103,41.5681885,F,https://aoberta.terrassa.cat/oficines/infoEntitat.jsp?id=735,seguridad,"(41.56818854568474, 2.026110264842385)"
923,Esports,CD Can Parellada,937 844 442 -  - 696 155 253,cdcanparellada@yahoo.es,CA,D AMÈRICA,2,,,,,8228,TERRASSA,420162.1563,4599268.8125,420068.1560,4599064.5699,2.0417321,41.5392460,F,https://aoberta.terrassa.cat/oficines/infoEntitat.jsp?id=923,deporte,"(41.53924596927248, 2.0417321236270203)"
14134,Societat i benestar,CEDIAP - Centre d atenció i estimulació precoç,937 858 300,,CA,"PRAT DE LA RIBA, DE",32,,,BA,1  ,8222,TERRASSA,418485.6875,4602137.8750,418391.7063,4601933.6496,2.0212470,41.5649158,F,https://aoberta.terrassa.cat/oficines/infoEntitat.jsp?id=14134,sociedad-bienestar,"(41.564915837262014, 2.0212469746429798)"
12190,Justícia,"CMAC - Centre de Mediació, Arbitratge i Conciliació",937 336 594,,CA,"EDISON, D ",15,,,,,8224,TERRASSA,417041.3741,4601125.0600,416947.3830,4600920.8440,2.0040673,41.5556458,F,https://aoberta.terrassa.cat/oficines/infoEntitat.jsp?id=12190,legislacion-justicia,"(41.55564577137252, 2.0040673291234374)"
16586,Esports,Camp Municipal de Futbol Les Fonts,937 852 305,,DS,CAN GUITARD DE LA RIERA,4,,,,,8228,TERRASSA,419335.8951,4598560.7033,419241.8881,4598356.4659,2.0319228,41.5327857,F,https://aoberta.terrassa.cat/oficines/infoEntitat.jsp?id=16586,deporte,"(41.53278574057144, 2.0319228188458562)"
16662,Esports,Camp Municipal de Futbol de La Maurina,937 800 068,,CA,"CALDERÓN DE LA BARCA, DE",108,,,,,8224,TERRASSA,416463.7188,4601427.8125,416369.7291,4601223.6013,1.9970992,41.5583122,F,https://aoberta.terrassa.cat/oficines/infoEntitat.jsp?id=16662,deporte,"(41.55831219830376, 1.997099205468121)"
16671,Esports,Camp Municipal de Futbol de Sant Pere Nord,,,AV,DE BÉJAR,424,,,,,8226,TERRASSA,418869.6518,4603822.9643,418775.6840,4603618.7386,2.0256234,41.5801309,F,https://aoberta.terrassa.cat/oficines/infoEntitat.jsp?id=16671,deporte,"(41.580130913169654, 2.0256234419622734)"
16585,Esports,Camp Municipal del Futbol de Can Jofresa,937 840 444,,CA,DE BADALONA,3,,,,,8223,TERRASSA,418450.9574,4600297.6063,418356.9622,4600093.3783,2.0210805,41.5483387,F,https://aoberta.terrassa.cat/oficines/infoEntitat.jsp?id=16585,deporte,"(41.54833871908706, 2.021080472186486)"
15134,Educació,Campus Professional Vallparadís,937 847 613,,CA,"BADALONA, DE",1,,,,,8223,TERRASSA,418059.7188,4600488.5625,417965.7244,4600284.3378,2.0163640,41.5500185,F,https://aoberta.terrassa.cat/oficines/infoEntitat.jsp?id=15134,educacion,"(41.55001848136075, 2.016364030977288)"
15134,Educació,Campus Professional Vallparadís,937 847 613,,CA,"BADALONA, DE",1,,,,,8223,TERRASSA,418210.2949,4600504.0500,418116.3009,4600299.8241,2.0181672,41.5501734,F,https://aoberta.terrassa.cat/oficines/infoEntitat.jsp?id=15134,educacion,"(41.55017338156993, 2.0181671595291135)"
12020,Cultura i lleure,Casa Soler i Palet,937 832 711,,CA,DE LA FONT VELLA,28,,,,,8221,TERRASSA,417747.9688,4601899.0000,417653.9847,4601694.7798,2.0124333,41.5626889,F,https://aoberta.terrassa.cat/oficines/infoEntitat.jsp?id=12020,cultura-ocio,"(41.56268892500676, 2.012433273213841)"
18205,Societat i benestar,Casal Cívic Ca n Aurell,937 397 083,,PL,"TINT, DEL",4,,,,,8224,TERRASSA,417037.6013,4602235.1327,416943.6186,4602030.9184,2.0038687,41.5656427,F,https://aoberta.terrassa.cat/oficines/infoEntitat.jsp?id=18205,sociedad-bienestar,"(41.56564270538545, 2.0038686668974335)"
18080,Societat i benestar,Casal Cívic Montserrat - Torre-Sana i Vilardell,937 397 417,,CA,"SALAMANCA, DE",35,,,,,8227,TERRASSA,419950.2916,4601642.5607,419856.3089,4601438.3234,2.0388761,41.5606031,F,https://aoberta.terrassa.cat/oficines/infoEntitat.jsp?id=18080,sociedad-bienestar,"(41.56060305498911, 2.0388761091472656)"
9248,Societat i benestar,Casal Cívic d Ègara,937 855 661,,PL,"IMMACULADA, DE LA",4,,,BA,L1 ,8226,TERRASSA,419081.3438,4603005.6875,418987.3701,4602801.4589,2.0282728,41.5727920,F,https://aoberta.terrassa.cat/oficines/infoEntitat.jsp?id=9248,sociedad-bienestar,"(41.57279195412406, 2.0282728422078975)"
8673,Societat i benestar,Casal Cívic de Can Boada,937 894 249,,CA,"JOAN D ÀUSTRIA, DE",11,,,,,8225,TERRASSA,416815.4375,4602637.1250,416721.4575,4602432.9130,2.0011488,41.5692399,F,https://aoberta.terrassa.cat/oficines/infoEntitat.jsp?id=8673,sociedad-bienestar,"(41.56923994715904, 2.0011488158731887)"
15131,Societat i benestar,Casal Cívic de Can Gonteres,937 888 172,,PL,"PI,DEL",4,,,,,8225,TERRASSA,414812.7220,4603191.7320,414718.7431,4602987.5361,1.9770529,41.5740237,F,https://aoberta.terrassa.cat/oficines/infoEntitat.jsp?id=15131,sociedad-bienestar,"(41.57402366579535, 1.9770528940089258)"
13652,Societat i benestar,Casal Cívic de Can Palet II,937 869 844,,CA,"TÚRIA, DEL",3,,,,,8223,TERRASSA,419206.7520,4600903.7528,419112.7626,4600699.5200,2.0300598,41.5538745,F,https://aoberta.terrassa.cat/oficines/infoEntitat.jsp?id=13652,sociedad-bienestar,"(41.55387446458482, 2.03005984094687)"
9734,Societat i benestar,Casal Cívic de Can Palet de Vista Alegre,937 886 540,,PL,"PAU, DE LA",1,,,,,8224,TERRASSA,415813.6127,4599859.1134,415719.6101,4599654.9047,1.9895241,41.5441163,F,https://aoberta.terrassa.cat/oficines/infoEntitat.jsp?id=9734,sociedad-bienestar,"(41.54411630641371, 1.9895241384584368)"
5194,Societat i benestar,Casal Cívic de Can Parellada,937 869 150,canparellada@terra.es,CA,"AMÈRICA, D ",33,,,,,8228,TERRASSA,420159.3438,4599033.5625,420065.3417,4598829.3196,2.0417297,41.5371270,F,https://aoberta.terrassa.cat/oficines/infoEntitat.jsp?id=5194,sociedad-bienestar,"(41.537126992538724, 2.041729666712798)"
16462,Societat i benestar,Casal Cívic de Can Tusell,937 342 435,,CA,DE TARRAGONA,101,,,,,8226,TERRASSA,418361.5105,4603902.7723,418267.5425,4603698.5506,2.0195177,41.5807979,F,https://aoberta.terrassa.cat/oficines/infoEntitat.jsp?id=16462,sociedad-bienestar,"(41.58079788362882, 2.0195176992130057)"
13568,Societat i benestar,Casal Cívic de Sant Pere,937 351 257,,PS,"VINT-I-DOS DE JULIOL, DEL",337,,,,,8225,TERRASSA,417712.2044,4602782.2054,417618.2269,4602577.9868,2.0118833,41.5706394,F,https://aoberta.terrassa.cat/oficines/infoEntitat.jsp?id=13568,sociedad-bienestar,"(41.570639410426296, 2.011883299749656)"
6478,Societat i benestar,Casal Cívic de Torresana,,,CA,DE BISCAIA,6,,,,,8227,TERRASSA,420241.3754,4601736.3722,420147.3939,4601532.1328,2.0423540,41.5614770,F,https://aoberta.terrassa.cat/oficines/infoEntitat.jsp?id=6478,sociedad-bienestar,"(41.561477035716216, 2.0423540040063957)"
15767,Societat i benestar,Casal Cívic de Xúquer,937 363 929,,CA,"XÚQUER, DEL",17,,,,,8223,TERRASSA,419523.8576,4601172.5199,419429.8707,4600968.2851,2.0338258,41.5563270,F,https://aoberta.terrassa.cat/oficines/infoEntitat.jsp?id=15767,sociedad-bienestar,"(41.55632699549516, 2.03382579829915)"
13151,Societat i benestar,Casal Cívic del Cementiri Vell,937 864 260,,CA,DE SANTIAGO RUSIÑOL,2,,,,,8222,TERRASSA,418587.7806,4601649.5011,418493.7959,4601445.2741,2.0225375,41.5605279,F,https://aoberta.terrassa.cat/oficines/infoEntitat.jsp?id=13151,sociedad-bienestar,"(41.5605279224928, 2.022537484854207)"
8253,Societat i benestar,Casal Cívic del Segle XX,937 839 612,casal@barriseglexx.org,PL,"SEGLE XX, DEL",11,,,,,8223,TERRASSA,417718.5690,4600850.3266,417624.5769,4600646.1050,2.0122245,41.5532415,F,https://aoberta.terrassa.cat/oficines/infoEntitat.jsp?id=8253,sociedad-bienestar,"(41.55324150763224, 2.0122244666748945)"
17181,Societat i benestar,Casal Cívic del Vapor Gran,937 846 306,,PS,"VAPOR GRAN, DEL",41,,,BA,L19,8221,TERRASSA,417853.0289,4601594.0162,417759.0426,4601389.7947,2.0137348,41.5599530,F,https://aoberta.terrassa.cat/oficines/infoEntitat.jsp?id=17181,sociedad-bienestar,"(41.55995303685226, 2.0137348100044243)"
2451,Societat i benestar,Casal d Avis de Can Jofresa,937 836 545,avv_canjofresa@hotmail.com,CA,"IGUALADA, D ",8,,,,,8223,TERRASSA,418101.9675,4600413.1065,418007.9726,4600208.8813,2.0168808,41.5493432,F,https://aoberta.terrassa.cat/oficines/infoEntitat.jsp?id=2451,sociedad-bienestar,"(41.549343249, 2.0168808347466256)"
820,Societat i benestar,Casal de Sant Pere,937 830 729,casaldesantpere@gmail.com,CA,MAJOR DE SANT PERE,59,,,,,8222,TERRASSA,418255.2501,4602537.0716,418161.2716,4602332.8485,2.0184293,41.5684875,F,https://aoberta.terrassa.cat/oficines/infoEntitat.jsp?id=820,sociedad-bienestar,"(41.568487476828516, 2.0184292724894086)"
6933,Societat i benestar,Casal de la Gent Gran Anna Murià,937 883 333,,CA,DE SANT ILDEFONS,8,,,BA,LO ,8221,TERRASSA,417769.5867,4602404.5788,417675.6064,4602200.3592,2.0126232,41.5672444,F,https://aoberta.terrassa.cat/oficines/infoEntitat.jsp?id=6933,sociedad-bienestar,"(41.56724440598633, 2.012623221007893)"
1655,Societat i benestar,Cementiri Municipal,937 854 243   -  - 900 268 268 (Gratuït),recepcionfunesa@telefonica.net,CR,"MONTCADA, DE",779,,,,,8227,TERRASSA,420248.1411,4601332.9938,420154.1565,4601128.7538,2.0424887,41.5578448,F,https://aoberta.terrassa.cat/oficines/infoEntitat.jsp?id=1655,sociedad-bienestar,"(41.557844838790395, 2.0424887253727473)"
1655,Societat i benestar,Cementiri Municipal,937 854 243   -  - 900 268 268 (Gratuït),recepcionfunesa@telefonica.net,CR,"MONTCADA, DE",779,,,,,8227,TERRASSA,420252.6250,4601229.1875,420158.6397,4601024.9473,2.0425563,41.5569104,F,https://aoberta.terrassa.cat/oficines/infoEntitat.jsp?id=1655,sociedad-bienestar,"(41.556910394356336, 2.042556278622158)"
7905,Societat i benestar,Centre Cívic Municipal Alcalde Morera,937 869 159,cc.alcalde.morera@terrassa.cat,PL,DE CAN PALET,1,,,,,8223,TERRASSA,418734.5561,4601126.5615,418640.5676,4600922.3326,2.0243682,41.5558332,F,https://aoberta.terrassa.cat/oficines/infoEntitat.jsp?id=7905,sociedad-bienestar,"(41.55583323098013, 2.024368236921313)"
8888,Societat i benestar,Centre Cívic Municipal Avel.lí Estrenjer,937 342 603,cc.avelli.estrenjer@terrassa.cat,PL,"CULTURA, DE LA",5,,,,,8225,TERRASSA,417257.8125,4603485.7500,417163.8396,4603281.5360,2.0063369,41.5769286,F,https://aoberta.terrassa.cat/oficines/infoEntitat.jsp?id=8888,sociedad-bienestar,"(41.576928598112545, 2.0063368911843744)"
4591,Societat i benestar,Centre Cívic Municipal Maria Aurèlia Capmany,937 333 098,ccm.aurelia.capmany@terrassa.cat,AV,"ÀNGEL SALLENT, D ",55,,,,,8224,TERRASSA,416707.3125,4601333.9375,416613.3225,4601129.7243,2.0000330,41.5574922,F,https://aoberta.terrassa.cat/oficines/infoEntitat.jsp?id=4591,sociedad-bienestar,"(41.557492182599404, 2.0000330010473077)"
8014,Societat i benestar,Centre Cívic Municipal Montserrat Roig,937 397 411,cc.montserrat.roig@terrassa.cat,AV,"BARCELONA, DE",180,,,,,8222,TERRASSA,418993.4901,4602089.4776,418899.5093,4601885.2483,2.0273429,41.5645316,F,https://aoberta.terrassa.cat/oficines/infoEntitat.jsp?id=8014,sociedad-bienestar,"(41.56453160843294, 2.0273429012024735)"
4830,Societat i benestar,Centre Cívic Municipal President Macià,937 357 438,cc.president.macia@terrassa.cat,RM,"FRANCESC MACIÀ, DE",189,,,,,8226,TERRASSA,418810.6276,4603495.5026,418716.6572,4603291.2768,2.0249598,41.5771758,F,https://aoberta.terrassa.cat/oficines/infoEntitat.jsp?id=4830,sociedad-bienestar,"(41.57717578227284, 2.0249598113124114)"
6449,Societat i benestar,Centre Social Guadalhorce,937 857 002,,CA,DEL GUADALHORCE,2,,,BA,,8223,TERRASSA,418960.3125,4600886.5625,418866.3226,4600682.3315,2.0271074,41.5536947,F,https://aoberta.terrassa.cat/oficines/infoEntitat.jsp?id=6449,sociedad-bienestar,"(41.55369470112947, 2.0271074444790282)"
6642,Salut,Centre d Atenció Primària - CAP Antoni Creus i Querol,937 360 020    - 937 284 444 (sol.licitud hora de visita metge i pediatre)     - ,,CA,"ITÀLIA, D ",5,,,,,8228,TERRASSA,420189.2188,4598914.3750,420095.2158,4598710.1317,2.0421036,41.5360566,F,https://aoberta.terrassa.cat/oficines/infoEntitat.jsp?id=6642,salud,"(41.536056553687224, 2.0421035943733497)"
2711,Salut,Centre d Atenció Primària - CAP Rambla,937 384 030 (cita prèvia) - 937 365 900,,RM,"ÈGARA, D ",388,,,,,8221,TERRASSA,417131.8133,4602559.4306,417037.8332,4602355.2161,2.0049536,41.5685731,F,https://aoberta.terrassa.cat/oficines/infoEntitat.jsp?id=2711,salud,"(41.56857310926608, 2.0049536441828106)"
8049,Salut,Centre d Atenció Primària - CAP Salut Mental - Ambulatori Seguretat Social,937 365 903     - ,,RM,"ÈGARA, D ",388,,,6 ,,8221,TERRASSA,417131.8133,4602559.4306,417037.8332,4602355.2161,2.0049536,41.5685731,F,https://aoberta.terrassa.cat/oficines/infoEntitat.jsp?id=8049,salud,"(41.56857310926608, 2.0049536441828106)"
3796,Salut,Centre d Atenció Primària - CAP Sant Llàtzer,937 310 137,,CA,DE LA RIBA,62,,,,,8221,TERRASSA,418131.2127,4601838.9274,418037.2287,4601634.7042,2.0170370,41.5621873,F,https://aoberta.terrassa.cat/oficines/infoEntitat.jsp?id=3796,salud,"(41.56218726330166, 2.017037024702172)"
13630,Salut,Centre d Atenció Primària - CAP Terrassa Est,937 848 283,atencioalciutadaest@cst.cat,CA,"CIUDAD REAL, DE",31,,,,,8227,TERRASSA,420118.7361,4602288.4353,420024.7586,4602084.1977,2.0408099,41.5664367,F,https://aoberta.terrassa.cat/oficines/infoEntitat.jsp?id=13630,salud,"(41.566436723803605, 2.040809944363892)"
8087,Salut,Centre d Atenció Primària - CAP Terrassa Nord,937 317 700 (visites concertades),,CA,"VINT-I-CINC DE SETEMBRE, DEL",26,,,,,8226,TERRASSA,419204.8438,4603262.5000,419110.8723,4603058.2709,2.0297194,41.5751173,F,https://aoberta.terrassa.cat/oficines/infoEntitat.jsp?id=8087,salud,"(41.57511732306508, 2.029719401645459)"
13530,Economía,Centre d Atenció Primària - CAP Terrassa Oest (La Maurina),937 384 030 (cita prèvia) - 937 455 200     - ,,AV,D ÀNGEL SALLENT,171,,,,,8224,TERRASSA,416559.2788,4601751.0621,416465.2917,4601546.8507,1.9982001,41.5612334,F,https://aoberta.terrassa.cat/oficines/infoEntitat.jsp?id=13530,economia,"(41.56123336476118, 1.9982000689068757)"
1621,Salut,Centre d Atenció Primària - CAP Terrassa Sud,937 384 030 (cita prèvia)     -  - 937 855 161,,AV,DE SANTA EULÀLIA,84,,,,,8223,TERRASSA,418485.7482,4600581.1185,418391.7552,4600376.8907,2.0214591,41.5508956,F,https://aoberta.terrassa.cat/oficines/infoEntitat.jsp?id=1621,salud,"(41.55089559895408, 2.0214590842123052)"
13022,Salut,Centre d Atenció Primària - CAP de Can Trias - Ernest Lluch,937 384 030 (cita prèvia) - 937 336 888,,CA,PINTOR CASAS,0,,,,,8232,VILADECAVALLS,,,,,,,F,https://aoberta.terrassa.cat/oficines/infoEntitat.jsp?id=13022,salud,
13149,Salut,Centre d Atenció d Animals Domèstics de Terrassa - CAADC,937 275 059     -  - 937 276 841,caadc@terrassa.cat,CM,"CAN CONILLER, DE",30,,,,,8227,TERRASSA,421967.0112,4600293.4570,421873.0214,4600089.2023,2.0632339,41.5486523,F,https://aoberta.terrassa.cat/oficines/infoEntitat.jsp?id=13149,salud,"(41.548652254116256, 2.0632338632040135)"
1383,Cultura i lleure,Centre de Documentació i Museu Tèxtil - CDMT,937 315 202     -  - 937 314 980,info@cdmt.es,CA,DE SALMERÓN,25,,,,,8222,TERRASSA,418355.8750,4602149.2500,418261.8937,4601945.0256,2.0196888,41.5650050,F,https://aoberta.terrassa.cat/oficines/infoEntitat.jsp?id=1383,cultura-ocio,"(41.56500502790254, 2.0196887629231477)"
824,Cultura i lleure,Cinema Catalunya,937 885 376   -  - 937 361 414 (Societat Municipal de Comunicació SA),,CA,"SANT PERE, DE",9,,,,,8221,TERRASSA,417629.2002,4601958.6767,417535.2163,4601754.4575,2.0110009,41.5632141,F,https://aoberta.terrassa.cat/oficines/infoEntitat.jsp?id=824,cultura-ocio,"(41.56321414145927, 2.011000905809993)"
2818,Esports,Circuit Municipal BMX Les Arenes,937 145 251,,CA,"REUS, DE",90,,,,,8227,TERRASSA,420074.1150,4603278.6853,419980.1449,4603074.4496,2.0401429,41.5753505,F,https://aoberta.terrassa.cat/oficines/infoEntitat.jsp?id=2818,deporte,"(41.57535054327463, 2.040142921098638)"
13175,Esports,Circuit Municipal de Ciclisme,667 073 288 (Penya Ciclista Nicky s),,CA,"MIÑO, DEL",96,,,,,8223,TERRASSA,419269.0622,4600740.9221,419175.0716,4600536.6886,2.0308288,41.5524143,F,https://aoberta.terrassa.cat/oficines/infoEntitat.jsp?id=13175,deporte,"(41.552414291386796, 2.030828809409992)"
11675,Esports,Club Catalunya,937 885 376   -  - 937 361 414 (Societat Municipal de Comunicació SA),,CA,"SANT PERE, DE",9,,,,,8221,TERRASSA,417629.2002,4601958.6767,417535.2163,4601754.4575,2.0110009,41.5632141,F,https://aoberta.terrassa.cat/oficines/infoEntitat.jsp?id=11675,deporte,"(41.56321414145927, 2.011000905809993)"
1671,Societat i benestar,Club Petanca La Maurina,626 564 849,,CA,"CALDERÓN DE LA BARCA, DE",3,,,BA,,8224,TERRASSA,416393.5795,4601169.5991,416299.5877,4600965.3881,1.9962942,41.5559794,F,https://aoberta.terrassa.cat/oficines/infoEntitat.jsp?id=1671,sociedad-bienestar,"(41.555979396021755, 1.9962941712571558)"
903,Esports,Club de Futbol Joan XXIII,937 837 148,cfxxiii@hotmail.com,CA,"MONTNEGRE, DEL",22,,,,,8227,TERRASSA,419890.2878,4602736.3096,419796.3133,4602532.0745,2.0380106,41.5704474,F,https://aoberta.terrassa.cat/oficines/infoEntitat.jsp?id=903,deporte,"(41.57044744775233, 2.038010597751546)"
1454,Esports,Club de Fútbol Pueblo Nuevo 2002,937 888 770 -  - 695 576 228,pueblonuevo2002.cf@gmail.com,CA,"BLANCA DE CENTELLES, DE",31,,,,,8225,TERRASSA,416742.5505,4603792.6742,416648.5792,4603588.4646,2.0001143,41.5796392,F,https://aoberta.terrassa.cat/oficines/infoEntitat.jsp?id=1454,deporte,"(41.579639205442966, 2.0001143366985983)"
16440,Esports,Complex Esportiu del Districte 2,937 317 988,,AV,DEL VALLÈS,522,,,,,8227,TERRASSA,419596.1976,4602394.2894,419502.2201,4602190.0560,2.0345295,41.5673376,F,https://aoberta.terrassa.cat/oficines/infoEntitat.jsp?id=16440,deporte,"(41.56733764251239, 2.0345294921747774)"
1729,Sector público,Consell Comarcal del Vallès Occidental,937 273 534   -  - 937 267 599,ciutadania@ccvoc.cat,DS,MANCOMUNITAT,2,,,,,8227,TERRASSA,421667.0625,4601040.6250,421573.0779,4600836.3737,2.0595404,41.5553520,F,https://aoberta.terrassa.cat/oficines/infoEntitat.jsp?id=1729,sector-publico,"(41.55535204497248, 2.0595403799180985)"
18290,Economía,Consorci per l Ocupació i la Promoció Econòmica del Vallès Occidental - Copevo,937 070 707,copevo@copevo.cat,DS,MANCOMUNITAT,2,,,,,8227,TERRASSA,421667.0625,4601040.6250,421573.0779,4600836.3737,2.0595404,41.5553520,F,https://aoberta.terrassa.cat/oficines/infoEntitat.jsp?id=18290,economia,"(41.55535204497248, 2.0595403799180985)"
976,Transport,Correus I,937 880 187 -  - 902 197 197,atclient@correos.es,PL,DE MOSSÈN J. VERDAGUER,16,,,,,8221,TERRASSA,417807.1978,4602295.7261,417713.2168,4602091.5061,2.0130892,41.5662679,F,https://aoberta.terrassa.cat/oficines/infoEntitat.jsp?id=976,transporte,"(41.56626794578926, 2.01308916484801)"
15494,Transport,Correus II,937 861 843 -  - 902 197 197,,AV,DE SANTA EULÀLIA,273,,,,,8223,TERRASSA,418574.4680,4600651.2199,418480.4757,4600446.9915,2.0225132,41.5515360,F,https://aoberta.terrassa.cat/oficines/infoEntitat.jsp?id=15494,transporte,"(41.55153597865422, 2.0225132454337342)"
15495,Transport,Correus III,937 349 687 -  - 902 197 197,,PS,"LLUÍS MUNCUNILL, DE",57,,,LO,30 ,8225,TERRASSA,418112.4898,4603655.5344,418018.5196,4603451.3142,2.0165646,41.5785458,F,https://aoberta.terrassa.cat/oficines/infoEntitat.jsp?id=15495,transporte,"(41.57854576059824, 2.0165645662220633)"
10089,Transport,Correus IV,937 851 656  -  - 902 197 197,,CA,"ITÀLIA, D ",3,,,,,8228,TERRASSA,420178.0313,4598915.8125,420084.0283,4598711.5692,2.0419693,41.5360684,F,https://aoberta.terrassa.cat/oficines/infoEntitat.jsp?id=10089,transporte,"(41.53606838364044, 2.041969305806933)"
15896,Transport,Correus V,937 368 884     -  - 902 197 197,,AV,D ÀNGEL SALLENT,186,,,,,8224,TERRASSA,416617.0938,4601711.1250,416523.1065,4601506.9131,1.9988989,41.5608797,F,https://aoberta.terrassa.cat/oficines/infoEntitat.jsp?id=15896,transporte,"(41.56087972575852, 1.998898869369874)"
16270,Transport,Correus VI,937 363 744 -  - 902 197 197,,CA,DE PAU MARSAL,36,,,SO,1  ,8222,TERRASSA,418856.8262,4602121.5329,418762.8455,4601917.3046,2.0256998,41.5648064,F,https://aoberta.terrassa.cat/oficines/infoEntitat.jsp?id=16270,transporte,"(41.5648064342444, 2.025699750039456)"
7432,Medi ambient,Deixalleria - Terrassa Neta,937 315 424,,CR,DE MONTCADA,870,,,,,8227,TERRASSA,421482.7751,4600774.1194,421388.7882,4600569.8691,2.0573656,41.5529338,F,https://aoberta.terrassa.cat/oficines/infoEntitat.jsp?id=7432,medio-ambiente,"(41.55293377063773, 2.0573656245371748)"
12813,Medi ambient,Deixalleria Can Casanovas,937 860 899,,CR,"RUBÍ, DE",341,,,,,8228,TERRASSA,418834.6029,4599267.4644,418740.6005,4599063.2319,2.0258190,41.5391002,F,https://aoberta.terrassa.cat/oficines/infoEntitat.jsp?id=12813,medio-ambiente,"(41.539100201832234, 2.025819017858964)"
1162,Hisenda,Delegació d Hisenda de Terrassa,937 802 322     -  - 901 200 345  (confirmar esborrany) -  - 901 335 533 (informació tributària)  -  - 901 223 344 (cita prèvia renda. a partir del 4 de maig) -  - 901 121 224 (demanar esborrany),,CA,DE VINYALS,17,,,,,8221,TERRASSA,417401.0391,4601632.6558,417307.0524,4601428.4378,2.0083098,41.5602544,F,https://aoberta.terrassa.cat/oficines/infoEntitat.jsp?id=1162,hacienda,"(41.56025443971735, 2.008309827607731)"
769,Educació,EMEE El Pi,937 837 544,escpi@xtec.net,DS,TORRE MOSSÈN HOMS,2,,,,,8227,TERRASSA,420213.6250,4604100.8125,420119.6614,4603896.5770,2.0417068,41.5827686,F,https://aoberta.terrassa.cat/oficines/infoEntitat.jsp?id=769,educacion,"(41.58276863619054, 2.041706770663725)"
12588,Educació,EMEE Fàtima,937 342 620,fatima@terrassa.cat,CA,"VACARISSES, DE",2,,,,,8225,TERRASSA,417996.4632,4603957.2586,417902.4951,4603753.0397,2.0151317,41.5812512,F,https://aoberta.terrassa.cat/oficines/infoEntitat.jsp?id=12588,educacion,"(41.58125118727859, 2.0151316662220906)"
2111,Educació,Equip d Assessorament Psicopedagògic - EAP,937 342 116,se-vallesoccidental2@xtec.cat,CA,"ALCOI, D ",57,,,,,8225,TERRASSA,417589.0566,4603715.7170,417495.0860,4603511.5008,2.0102782,41.5790339,F,https://aoberta.terrassa.cat/oficines/infoEntitat.jsp?id=2111,educacion,"(41.57903392664248, 2.0102781714706963)"
15577,Educació,Equip d Assessorament en Llengua i Cohesió Social - ELIC,937 353 056     - 937 342 116,se_vallesoccidental2@xtec.cat,CA,"ALCOI, D ",57,,,,,8225,TERRASSA,417589.0566,4603715.7170,417495.0860,4603511.5008,2.0102782,41.5790339,F,https://aoberta.terrassa.cat/oficines/infoEntitat.jsp?id=15577,educacion,"(41.57903392664248, 2.0102781714706963)"
1037,Esports,Equipament Socio-Esportiu de La Cogullada,937 330 254,,AV,"JOAQUIM DE SAGRERA, DE",15,,,LO,21 ,8224,TERRASSA,416903.0843,4601008.9809,416809.0921,4600804.7657,2.0024253,41.5545860,F,https://aoberta.terrassa.cat/oficines/infoEntitat.jsp?id=1037,deporte,"(41.554585996831264, 2.002425319055159)"
14265,Educació,Escola Bressol Coloraines,937 364 973,coloraines@terrassa.cat,CA,"JOCS OLÍMPICS, DELS",56,,,,,8225,TERRASSA,417558.0696,4603781.7635,417464.0995,4603577.5477,2.0098974,41.5796255,F,https://aoberta.terrassa.cat/oficines/infoEntitat.jsp?id=14265,educacion,"(41.57962554318936, 2.0098974270376697)"
1075,Educació,Escola Bressol Espígol,937 887 394,espigol@terrassa.cat,CA,"CEPS, DELS",3,,,BA,1  ,8225,TERRASSA,416372.9144,4602669.5199,416278.9340,4602465.3113,1.9958374,41.5694855,F,https://aoberta.terrassa.cat/oficines/infoEntitat.jsp?id=1075,educacion,"(41.56948549770862, 1.9958374077605021)"
1114,Educació,Escola Bressol Ginesta,937 850 736,ginesta@terrassa.cat,CA,DE BADALONA,5,,,,,8223,TERRASSA,418462.2047,4600298.8266,418368.2095,4600094.5985,2.0212151,41.5483509,F,https://aoberta.terrassa.cat/oficines/infoEntitat.jsp?id=1114,educacion,"(41.548350856320035, 2.021215145627271)"
1115,Educació,Escola Bressol Giravolt,937 892 229,giravolt@terrassa.cat,CA,DE MARIA AUXILIADORA,245,,,,,8224,TERRASSA,416449.2813,4601915.8750,416355.2953,4601711.6647,1.9968582,41.5627062,F,https://aoberta.terrassa.cat/oficines/infoEntitat.jsp?id=1115,educacion,"(41.56270617548494, 1.9968581607003837)"
13462,Educació,Escola Bressol La Casona,937 886 973,lacasona@terrassa.cat,CA,D ICÀRIA,44,,,,,8224,TERRASSA,416131.9877,4601458.1251,416037.9977,4601253.9165,1.9931174,41.5585505,F,https://aoberta.terrassa.cat/oficines/infoEntitat.jsp?id=13462,educacion,"(41.5585504524011, 1.993117408431073)"
1369,Educació,Escola Bressol Moisès,937 838 548,moises@terrassa.cat,CA,"CAMÍ FONT DE LES CANYES, DEL",27,,,,,8227,TERRASSA,419325.1250,4603799.9375,419231.1577,4603595.7083,2.0310897,41.5799697,F,https://aoberta.terrassa.cat/oficines/infoEntitat.jsp?id=1369,educacion,"(41.57996967298544, 2.0310897056310195)"
1568,Educació,Escola Bressol Soleia,937 839 759,soleia@terrassa.cat,CA,DE JACINT ELIAS,141,,,,,8222,TERRASSA,419418.5625,4602386.1250,419324.5847,4602181.8929,2.0324004,41.5672462,F,https://aoberta.terrassa.cat/oficines/infoEntitat.jsp?id=1568,educacion,"(41.56724621765727, 2.0324003655470158)"
15410,Educació,Escola Bressol Somriures,937 858 944     -  - 608 212 358,somriures@terrassa.cat,CA,DEL CAMÍ DELS MONJOS,112,,,,,8227,TERRASSA,420131.1588,4601764.7993,420037.1773,4601560.5608,2.0410286,41.5617220,F,https://aoberta.terrassa.cat/oficines/infoEntitat.jsp?id=15410,educacion,"(41.561722045447496, 2.041028605700421)"
1575,Educació,Escola Bressol Tabalet,937 853 346,tabalet@terrassa.cat,CR,DE CASTELLAR,410,,,,,8227,TERRASSA,419416.5313,4603313.8125,419322.5605,4603109.5818,2.0322514,41.5756008,F,https://aoberta.terrassa.cat/oficines/infoEntitat.jsp?id=1575,educacion,"(41.575600830800674, 2.032251395029029)"
15169,Educació,Escola Bressol Vallparadís,937 363 470,ebvallparadis@terrassa.cat,PL,"MARTA MATA, DE",5,,,,,8221,TERRASSA,418055.3956,4602526.8349,417961.4167,4602322.6133,2.0160340,41.5683748,F,https://aoberta.terrassa.cat/oficines/infoEntitat.jsp?id=15169,educacion,"(41.56837481186269, 2.016033958708205)"
1234,Educació,Escola Bressol l Esquitx,937 851 449,esquitx@terrassa.cat,CA,D ALEMANYA,110,,,,,8228,TERRASSA,420303.3438,4599456.5000,420209.3451,4599252.2566,2.0433996,41.5409504,F,https://aoberta.terrassa.cat/oficines/infoEntitat.jsp?id=1234,educacion,"(41.540950392517985, 2.0433996398987717)"
1046,Educació,Escola Municipal La Llar,937 881 886,llar@terrassa.cat,PC,"ROSA PUIG, DE",1,,,,,8221,TERRASSA,417789.1595,4602322.1545,417695.1786,4602117.9347,2.0128692,41.5665041,F,https://aoberta.terrassa.cat/oficines/infoEntitat.jsp?id=1046,educacion,"(41.56650410487827, 2.0128692313519374)"
4022,Educació,Escola Municipal d Art,937 850 070,artidisseny@terrassa.cat,CA,"COLOM, DE",114,,,BA,L5 ,8222,TERRASSA,418674.9429,4601454.1485,418580.9568,4601249.9206,2.0236091,41.5587774,F,https://aoberta.terrassa.cat/oficines/infoEntitat.jsp?id=4022,educacion,"(41.55877743882776, 2.023609100110125)"
1047,Educació,Escola Municipal de Música - Conservatori de Terrassa,937 361 760,conservatori@terrassa.cat,CA,"MIQUEL VIVES, DE",2,,,,,8222,TERRASSA,418333.7983,4601924.2632,418239.8153,4601720.0386,2.0194546,41.5629765,F,https://aoberta.terrassa.cat/oficines/infoEntitat.jsp?id=1047,educacion,"(41.562976530283954, 2.0194546426651976)"
15077,Cultura i lleure,Esp@i Bit_d2,937 862 615,,CA,DE LA MARE DE DÉU DE LES NEUS,35,,,,,8222,TERRASSA,419207.6875,4601670.3750,419113.7039,4601466.1434,2.0299679,41.5607788,F,https://aoberta.terrassa.cat/oficines/infoEntitat.jsp?id=15077,cultura-ocio,"(41.56077882416989, 2.029967887086001)"
1837,Medi ambient,Estació Transvassament de Residus de Can Barba,937 315 424     - 900 720 135 (Eco Equip SAM) - 937 360 322 (Departament de Residus Industrials d Empreses),,CR,DE MONTCADA,870,,,,,8227,TERRASSA,421482.7751,4600774.1194,421388.7882,4600569.8691,2.0573656,41.5529338,F,https://aoberta.terrassa.cat/oficines/infoEntitat.jsp?id=1837,medio-ambiente,"(41.55293377063773, 2.0573656245371748)"
8727,Transport,Estació d Autobusos Interurbans,937 331 112,,CR,"MONTCADA, DE",2,,,BA,ES ,8223,TERRASSA,417357.0044,4601250.3759,417263.0147,4601046.1577,2.0078344,41.5568071,F,https://aoberta.terrassa.cat/oficines/infoEntitat.jsp?id=8727,transporte,"(41.55680706556427, 2.0078344466876965)"
15613,Transport,Estació de Renfe Terrassa - Est,"902 432 343 (estacions)     - 902 320 320 (informació al client)     - 902 109 420 (atenció al client venda Internet)     - 902 240 505 (servei ATENDO, viatges amb discapacitat)",,PS,"CAMP DEL ROURE, DEL",16,,,,,8227,TERRASSA,420007.4602,4602394.4328,419913.4833,4602190.1962,2.0394614,41.5673802,F,https://aoberta.terrassa.cat/oficines/infoEntitat.jsp?id=15613,transporte,"(41.56738021474167, 2.039461394649746)"
1078,Esports,Estadi Olímpic Municipal de Futbol,937 350 541,,AV,DE L ABAT MARCET,120,,,,,8225,TERRASSA,417701.0055,4603285.6396,417607.0318,4603081.4219,2.0116799,41.5751722,F,https://aoberta.terrassa.cat/oficines/infoEntitat.jsp?id=1078,deporte,"(41.57517219113875, 2.0116799270774264)"
2176,Infraestructures i urbanisme,Gestió de l Espai Públic,937 363 460,gestio.espai.public@terrassa.cat,CA,"IGUALTAT, DE LA",52,,,,,8222,TERRASSA,418350.0000,4601722.5625,418256.0155,4601518.3375,2.0196764,41.5611617,F,https://aoberta.terrassa.cat/oficines/infoEntitat.jsp?id=2176,urbanismo-infraestructuras,"(41.56116165923906, 2.01967636066474)"
3271,Infraestructures i urbanisme,Gestió de l Espai Públic - Viver,937 363 460 (Gestió de l Espai Públic),,DS,TORRE MOSSÈN HOMS,10,,,,,8227,TERRASSA,420063.3955,4604048.8000,419969.4313,4603844.5656,2.0399117,41.5822852,F,https://aoberta.terrassa.cat/oficines/infoEntitat.jsp?id=3271,urbanismo-infraestructuras,"(41.58228518366563, 2.039911700773726)"
4965,Salut,Hospital Mútua de Terrassa - Consultes Externes,937 365 000,,CA,DEL CASTELL,25,,,,,8221,TERRASSA,418200.1851,4602108.1076,418106.2033,4601903.8843,2.0178274,41.5646186,F,https://aoberta.terrassa.cat/oficines/infoEntitat.jsp?id=4965,salud,"(41.56461857484823, 2.017827392800614)"
1165,Salut,Hospital de Terrassa,937 310 007   - 937 313 488 (urgències),,CR,"TORREBONICA, DE",1,,,,,8227,TERRASSA,421080.4063,4601164.3125,420986.4218,4600960.0659,2.0524901,41.5564083,F,https://aoberta.terrassa.cat/oficines/infoEntitat.jsp?id=1165,salud,"(41.55640828454646, 2.052490119936439)"
3292,Salut,Institut Català d Avaluacions Mèdiques i Sanitàries - ICAMS,937 885 352,icam.terrassa.salut@gencat.cat,CA,"GUTENBERG, DE",3,,,1 ,6  ,8224,TERRASSA,417314.4751,4601677.7013,417220.4886,4601473.4841,2.0072657,41.5606512,F,https://aoberta.terrassa.cat/oficines/infoEntitat.jsp?id=3292,salud,"(41.560651169018634, 2.00726565714403)"
2088,Societat i benestar,Institut Nacional de la Seguretat Social - CAISS,901 106 570 (cita prèvia) -  - 901 166 565 (Servei d atenció telefònica de l Institut Nacional de la Seguretat Social / Informació),,AV,DE L ABAT MARCET,366,,,BA,1  ,8225,TERRASSA,416972.7500,4603201.5000,416878.7745,4602997.2877,2.0029573,41.5743391,F,https://aoberta.terrassa.cat/oficines/infoEntitat.jsp?id=2088,sociedad-bienestar,"(41.57433906615758, 2.002957256649809)"
4626,Transport,Inversiones Privadas SL,937 836 116,,CA,DE SANT ANTONI,64,,,,,8221,TERRASSA,418086.0625,4602203.5625,417992.0812,4601999.3402,2.0164459,41.5654666,F,https://aoberta.terrassa.cat/oficines/infoEntitat.jsp?id=4626,transporte,"(41.56546655440967, 2.0164458544099104)"
1227,Justícia,Jutjat Deganat,936 932 919     - 902 007 214 (telèfon d atenció al ciutadà del Ministerio de Justicia),,RB,DEL PARE ALEGRE,112,,,,,8224,TERRASSA,417442.5793,4600564.0600,417348.5846,4600359.8401,2.0089549,41.5506349,F,https://aoberta.terrassa.cat/oficines/infoEntitat.jsp?id=1227,legislacion-justicia,"(41.55063492459233, 2.0089548600969827)"
1225,Justícia,Jutjat Penal núm. 1 de Terrassa,936 932 995     - 902 007 214 (telèfon d atenció al ciutadà del Ministerio de Justicia) - ,,RB,DEL PARE ALEGRE,112,,,,,8224,TERRASSA,417442.5793,4600564.0600,417348.5846,4600359.8401,2.0089549,41.5506349,F,https://aoberta.terrassa.cat/oficines/infoEntitat.jsp?id=1225,legislacion-justicia,"(41.55063492459233, 2.0089548600969827)"
10930,Justícia,Jutjat Penal núm. 2 de Terrassa,936 932 998     - 902 007 214 (telèfon d atenció al ciutadà del Ministerio de Justicia),,RB,DEL PARE ALEGRE,112,,,,,8224,TERRASSA,417442.5793,4600564.0600,417348.5846,4600359.8401,2.0089549,41.5506349,F,https://aoberta.terrassa.cat/oficines/infoEntitat.jsp?id=10930,legislacion-justicia,"(41.55063492459233, 2.0089548600969827)"
16383,Justícia,Jutjat Penal núm. 3 de Terrassa,936 932 520     - 902 007 214 (telèfon d atenció al ciutadà del Ministerio de Justicia),,RB,DEL PARE ALEGRE,112,,,,,8224,TERRASSA,417442.5793,4600564.0600,417348.5846,4600359.8401,2.0089549,41.5506349,F,https://aoberta.terrassa.cat/oficines/infoEntitat.jsp?id=16383,legislacion-justicia,"(41.55063492459233, 2.0089548600969827)"
12140,Justícia,Jutjat Social núm. 1,936 932 571     - 902 007 214 (telèfon d atenció al ciutadà del Ministerio de Justicia) -  - ,,RB,DEL PARE ALEGRE,112,,,,,8224,TERRASSA,417442.5793,4600564.0600,417348.5846,4600359.8401,2.0089549,41.5506349,F,https://aoberta.terrassa.cat/oficines/infoEntitat.jsp?id=12140,legislacion-justicia,"(41.55063492459233, 2.0089548600969827)"
13006,Justícia,Jutjat Social núm. 2,936 932 574     - 902 007 214 (telèfon d atenció al ciutadà del Ministerio de Justicia) -    - ,,RB,DEL PARE ALEGRE,112,,,,,8224,TERRASSA,417442.5793,4600564.0600,417348.5846,4600359.8401,2.0089549,41.5506349,F,https://aoberta.terrassa.cat/oficines/infoEntitat.jsp?id=13006,legislacion-justicia,"(41.55063492459233, 2.0089548600969827)"
1222,Justícia,Jutjat d Instrucció núm. 1,936 932 983     - 902 007 214 (telèfon d atenció al ciutadà del Ministerio de Justicia) - ,,RB,DEL PARE ALEGRE,112,,,,,8224,TERRASSA,417442.5793,4600564.0600,417348.5846,4600359.8401,2.0089549,41.5506349,F,https://aoberta.terrassa.cat/oficines/infoEntitat.jsp?id=1222,legislacion-justicia,"(41.55063492459233, 2.0089548600969827)"
1223,Justícia,Jutjat d Instrucció núm. 2,936 932 986     - 902 007 214 (telèfon d atenció al ciutadà del Ministerio de Justicia) - ,,RB,DEL PARE ALEGRE,112,,,,,8224,TERRASSA,417442.5793,4600564.0600,417348.5846,4600359.8401,2.0089549,41.5506349,F,https://aoberta.terrassa.cat/oficines/infoEntitat.jsp?id=1223,legislacion-justicia,"(41.55063492459233, 2.0089548600969827)"
13005,Justícia,Jutjat d Instrucció núm. 3,936 932 989     - 902 007 214 (telèfon d atenció al ciutadà del Ministerio de Justicia)     - ,,RB,DEL PARE ALEGRE,112,,,,,8224,TERRASSA,417442.5793,4600564.0600,417348.5846,4600359.8401,2.0089549,41.5506349,F,https://aoberta.terrassa.cat/oficines/infoEntitat.jsp?id=13005,legislacion-justicia,"(41.55063492459233, 2.0089548600969827)"
1219,Justícia,Jutjat d Instrucció núm. 4,936 932 992    - 902 007 214 (telèfon d atenció al ciutadà del Ministerio de Justicia)     - ,,RB,DEL PARE ALEGRE,112,,,,,8224,TERRASSA,417442.5793,4600564.0600,417348.5846,4600359.8401,2.0089549,41.5506349,F,https://aoberta.terrassa.cat/oficines/infoEntitat.jsp?id=1219,legislacion-justicia,"(41.55063492459233, 2.0089548600969827)"
1215,Justícia,Jutjat de Guàrdia,936 932 922     - 902 007 214 (telèfon d atenció al ciutadà del Ministerio de Justicia),,RB,DEL PARE ALEGRE,112,,,,,8224,TERRASSA,417442.5793,4600564.0600,417348.5846,4600359.8401,2.0089549,41.5506349,F,https://aoberta.terrassa.cat/oficines/infoEntitat.jsp?id=1215,legislacion-justicia,"(41.55063492459233, 2.0089548600969827)"
1216,Justícia,Jutjat de Primera Instància núm. 1,936 932 961     - 902 007 214 (telèfon d atenció al ciutadà del Ministerio de Justicia) - ,,RB,DEL PARE ALEGRE,112,,,,,8224,TERRASSA,417442.5793,4600564.0600,417348.5846,4600359.8401,2.0089549,41.5506349,F,https://aoberta.terrassa.cat/oficines/infoEntitat.jsp?id=1216,legislacion-justicia,"(41.55063492459233, 2.0089548600969827)"
1217,Justícia,Jutjat de Primera Instància núm. 2,936 932 964     - 902 007 214 (telèfon d atenció al ciutadà del Ministerio de Justicia) - ,,RB,DEL PARE ALEGRE,112,,,,,8224,TERRASSA,417442.5793,4600564.0600,417348.5846,4600359.8401,2.0089549,41.5506349,F,https://aoberta.terrassa.cat/oficines/infoEntitat.jsp?id=1217,legislacion-justicia,"(41.55063492459233, 2.0089548600969827)"
1218,Justícia,Jutjat de Primera Instància núm. 3,936 932 967     - 902 007 214 (telèfon d atenció al ciutadà del Ministerio de Justicia),,RB,DEL PARE ALEGRE,112,,,,,8224,TERRASSA,417442.5793,4600564.0600,417348.5846,4600359.8401,2.0089549,41.5506349,F,https://aoberta.terrassa.cat/oficines/infoEntitat.jsp?id=1218,legislacion-justicia,"(41.55063492459233, 2.0089548600969827)"
1224,Justícia,Jutjat de Primera Instància núm. 4,936 932 970     - 902 007 214 (telèfon d atenció al ciutadà del Ministerio de Justicia) - ,,RB,DEL PARE ALEGRE,112,,,,,8224,TERRASSA,417442.5793,4600564.0600,417348.5846,4600359.8401,2.0089549,41.5506349,F,https://aoberta.terrassa.cat/oficines/infoEntitat.jsp?id=1224,legislacion-justicia,"(41.55063492459233, 2.0089548600969827)"
1221,Justícia,Jutjat de Primera Instància núm. 5,936 932 973    - 902 007 214 (telèfon d atenció al ciutadà del Ministerio de Justicia)     - ,,RB,DEL PARE ALEGRE,112,,,,,8224,TERRASSA,417442.5793,4600564.0600,417348.5846,4600359.8401,2.0089549,41.5506349,F,https://aoberta.terrassa.cat/oficines/infoEntitat.jsp?id=1221,legislacion-justicia,"(41.55063492459233, 2.0089548600969827)"
14462,Justícia,Jutjat de Primera Instància núm. 6 (família),936 932 976     - 902 007 214 (telèfon d atenció al ciutadà del Ministerio de Justicia) - ,,RB,DEL PARE ALEGRE,112,,,,,8224,TERRASSA,417442.5793,4600564.0600,417348.5846,4600359.8401,2.0089549,41.5506349,F,https://aoberta.terrassa.cat/oficines/infoEntitat.jsp?id=14462,legislacion-justicia,"(41.55063492459233, 2.0089548600969827)"
15953,Justícia,Jutjat de Primera Instància núm. 7,936 932 979     - 902 007 214 (telèfon d atenció al ciutadà del Ministerio de Justicia)     - ,,RB,DEL PARE ALEGRE,112,,,,,8224,TERRASSA,417442.5793,4600564.0600,417348.5846,4600359.8401,2.0089549,41.5506349,F,https://aoberta.terrassa.cat/oficines/infoEntitat.jsp?id=15953,legislacion-justicia,"(41.55063492459233, 2.0089548600969827)"
17657,Justícia,Jutjat de Primera Instància núm. 8,936 932 563     - 902 007 214 (telèfon d atenció al ciutadà del Ministerio de Justicia),,RB,"PARE ALEGRE, DEL",112,,,,,8224,TERRASSA,417442.5793,4600564.0600,417348.5846,4600359.8401,2.0089549,41.5506349,F,https://aoberta.terrassa.cat/oficines/infoEntitat.jsp?id=17657,legislacion-justicia,"(41.55063492459233, 2.0089548600969827)"
15954,Justícia,Jutjat de Violència sobre la Dona - VIDO,936 932 583     - 902 007 214 (telèfon d atenció al ciutadà del Ministerio de Justicia)     - ,,RB,DEL PARE ALEGRE,112,,,,,8224,TERRASSA,417442.5793,4600564.0600,417348.5846,4600359.8401,2.0089549,41.5506349,F,https://aoberta.terrassa.cat/oficines/infoEntitat.jsp?id=15954,legislacion-justicia,"(41.55063492459233, 2.0089548600969827)"
1822,Societat i benestar,Local Social de Ca n Aurell,937 807 817,avvcanaurell@gmail.com,CA,"BLASCO DE GARAY, DE",51,,,,,8224,TERRASSA,417145.1075,4601561.2323,417051.1199,4601357.0162,2.0052509,41.5595847,F,https://aoberta.terrassa.cat/oficines/infoEntitat.jsp?id=1822,sociedad-bienestar,"(41.559584706393515, 2.0052508812275485)"
17231,Societat i benestar,Masia de Ca n Anglada,937 397 000,,CA,"MARE DE DÉU DEL MAR, DE LA",49,,,BA,,8222,TERRASSA,419219.0313,4601687.4375,419125.0478,4601483.2058,2.0301016,41.5609336,F,https://aoberta.terrassa.cat/oficines/infoEntitat.jsp?id=17231,sociedad-bienestar,"(41.56093363713965, 2.0301016132093386)"
6447,Comerç,Mercat Municipal de Sant Pere,937 353 098,,CA,"FRANCESC SALVANS, DE",25,,,,,8225,TERRASSA,417832.5938,4602983.0000,417738.6180,4602778.7808,2.0132996,41.5724602,F,https://aoberta.terrassa.cat/oficines/infoEntitat.jsp?id=6447,comercio,"(41.57246016143684, 2.0132995879668782)"
2307,Comerç,Mercat Municipal de la Independència,607 853 094 -  - 937 331 400,info@mercatdelaindependencia.cat,RV,"MONTSERRAT, DE",41,,,,,8221,TERRASSA,417451.7500,4601951.8125,417357.7658,4601747.5946,2.0088740,41.5631340,F,https://aoberta.terrassa.cat/oficines/infoEntitat.jsp?id=2307,comercio,"(41.56313401138133, 2.008873994473205)"
14895,Seguretat,Mossos d Esquadra - Terrassa,937 346 500    - 112 (emergències),,CR,"MATADEPERA, DE",272,,,,,8226,TERRASSA,418304.4928,4604227.6035,418210.5272,4604023.3827,2.0187895,41.5837175,F,https://aoberta.terrassa.cat/oficines/infoEntitat.jsp?id=14895,seguridad,"(41.5837174879979, 2.0187895373441704)"
814,Cultura i lleure,Museu de Terrassa - Casa Alegre Sagrera,937 316 646    -  - 937 397 072 (Direcció del Museu de Terrassa),museudeterrassa@terrassa.cat,CA,"FONT VELLA, DE LA",29,,,,,8221,TERRASSA,417740.8627,4601903.0094,417646.8786,4601698.7893,2.0123475,41.5627243,F,https://aoberta.terrassa.cat/oficines/infoEntitat.jsp?id=814,cultura-ocio,"(41.56272430233345, 2.0123475130626063)"
1381,Cultura i lleure,Museu de Terrassa - Castell Cartoixa Vallparadís,937 857 144     -  - 937 397 072 (Direcció del Museu de Terrassa),museudeterrassa@terrassa.cat,CA,"SALMERÓN, DE",17,,,,,8222,TERRASSA,418312.5082,4602121.5125,418218.5266,4601917.2884,2.0191725,41.5647508,F,https://aoberta.terrassa.cat/oficines/infoEntitat.jsp?id=1381,cultura-ocio,"(41.56475079052467, 2.0191724991004683)"
14141,Cultura i lleure,Museu de Terrassa - Claustre del Convent de Sant Francesc,937 397 072,museudeterrassa@terrassa.cat,PL,"DOCTOR ROBERT, DEL",2,,,,,8221,TERRASSA,418102.9056,4601877.1154,418008.9219,4601672.8925,2.0166924,41.5625283,F,https://aoberta.terrassa.cat/oficines/infoEntitat.jsp?id=14141,cultura-ocio,"(41.562528285550854, 2.016692380091564)"
1074,Cultura i lleure,Museu de Terrassa - Seu d Ègara. Esglésies de Sant Pere de Terrassa,937 833 702     -  - 937 397 072 (Direcció del Museu de Terrassa),museudeterrassa@terrassa.cat,PL,DEL RECTOR HOMS,1,,,,,8222,TERRASSA,418240.8005,4602365.3248,418146.8207,4602161.1016,2.0182794,41.5669392,F,https://aoberta.terrassa.cat/oficines/infoEntitat.jsp?id=1074,cultura-ocio,"(41.56693924016049, 2.0182793906980367)"
2052,Educació,Oficina Gestora d Ensenyament de la Generalitat,937 339 914,,CA,"RASA, DE LA",24,,,,,8221,TERRASSA,417683.1986,4602121.4508,417589.2161,4601917.2314,2.0116261,41.5646857,F,https://aoberta.terrassa.cat/oficines/infoEntitat.jsp?id=2052,educacion,"(41.56468565340679, 2.011626089943924)"
15695,Societat i benestar,Oficina d Afers Socials i Famílies de Terrassa - Ca n Aurell,936 932 502     -  - 012 (informació) -  - 900 400 012 ( cita prèvia),,CA,DEL DOCTOR ULLÉS,98,,,,,8224,TERRASSA,417043.7356,4601823.4151,416949.7498,4601619.2001,2.0039991,41.5619354,F,https://aoberta.terrassa.cat/oficines/infoEntitat.jsp?id=15695,sociedad-bienestar,"(41.56193541154506, 2.003999137359236)"
1994,Societat i benestar,Oficina d Afers Socials i Famílies de Terrassa - Les Arenes,937 851 113     -  - 012 (informació) -  - 900 400 012 (cita prèvia),obs_terrassa.benestar@gencat.net,CA,DEL MATAGALLS,1,,,,,8227,TERRASSA,419584.1530,4602973.9328,419490.1799,4602769.7003,2.0343074,41.5725567,F,https://aoberta.terrassa.cat/oficines/infoEntitat.jsp?id=1994,sociedad-bienestar,"(41.572556743500286, 2.034307358451843)"
11054,Sector público,Oficina d Atenció Ciutadana de Can Parellada - OAC,937 869 150     -  - 937 397 000,,CA,D AMÈRICA,33,,,,,8228,TERRASSA,420159.3438,4599033.5625,420065.3417,4598829.3196,2.0417297,41.5371270,T,https://aoberta.terrassa.cat/oficines/infoEntitat.jsp?id=11054,sector-publico,"(41.537126992538724, 2.041729666712798)"
15492,Sector público,Oficina d Atenció Ciutadana de Plaça Didó - OAC,937 397 000,,PL,DIDÓ,5,,,,,8221,TERRASSA,417559.2813,4602032.7500,417465.2979,4601828.5314,2.0101523,41.5638740,T,https://aoberta.terrassa.cat/oficines/infoEntitat.jsp?id=15492,sector-publico,"(41.56387403706012, 2.0101523132364787)"
136,Sector público,Oficina d Atenció Ciutadana del Districte 2 - OAC,937 397 411     -  - 937 397 000,,AV,"BARCELONA, DE",180,,,,,8222,TERRASSA,418993.4901,4602089.4776,418899.5093,4601885.2483,2.0273429,41.5645316,T,https://aoberta.terrassa.cat/oficines/infoEntitat.jsp?id=136,sector-publico,"(41.56453160843294, 2.0273429012024735)"
137,Sector público,Oficina d Atenció Ciutadana del Districte 3 - OAC,937 869 159     -  - 937 397 000,,PL,DE CAN PALET,1,,,,,8223,TERRASSA,418734.5561,4601126.5615,418640.5676,4600922.3326,2.0243682,41.5558332,T,https://aoberta.terrassa.cat/oficines/infoEntitat.jsp?id=137,sector-publico,"(41.55583323098013, 2.024368236921313)"
138,Sector público,Oficina d Atenció Ciutadana del Districte 4 - OAC,937 333 098     -  - 937 397 000,,AV,"ÀNGEL SALLENT, D ",55,,,,,8224,TERRASSA,416707.3125,4601333.9375,416613.3225,4601129.7243,2.0000330,41.5574922,T,https://aoberta.terrassa.cat/oficines/infoEntitat.jsp?id=138,sector-publico,"(41.557492182599404, 2.0000330010473077)"
139,Sector público,Oficina d Atenció Ciutadana del Districte 5 - OAC,937 342 603       -  - 937 397 000,,PL,"CULTURA, DE LA",5,,,,,8225,TERRASSA,417257.8125,4603485.7500,417163.8396,4603281.5360,2.0063369,41.5769286,T,https://aoberta.terrassa.cat/oficines/infoEntitat.jsp?id=139,sector-publico,"(41.576928598112545, 2.0063368911843744)"
134,Sector público,Oficina d Atenció Ciutadana del Districte 6 - OAC,937 357 438     -  - 937 397 000,,RM,DE FRANCESC MACIÀ,189,,,,,8226,TERRASSA,418810.6276,4603495.5026,418716.6572,4603291.2768,2.0249598,41.5771758,T,https://aoberta.terrassa.cat/oficines/infoEntitat.jsp?id=134,sector-publico,"(41.57717578227284, 2.0249598113124114)"
16095,Justícia,Oficina d Atenció al Ciutadà dels Jutjats de Terrassa,936 932 900    - 902 007 214 (telèfon d atenció al ciutadà del Ministerio de Justicia),,RB,"PARE ALEGRE, DEL",112,,,,,8224,TERRASSA,417442.5793,4600564.0600,417348.5846,4600359.8401,2.0089549,41.5506349,F,https://aoberta.terrassa.cat/oficines/infoEntitat.jsp?id=16095,legislacion-justicia,"(41.55063492459233, 2.0089548600969827)"
11588,Sector público,Oficina d Intervenció d armes de la Guàrdia Civil,937 805 555,b-pto-terrasa-ia@guardiacivil.org,AV,DE LES GLÒRIES CATALANES,3,,,,,8223,TERRASSA,419053.9544,4601412.4940,418959.9686,4601208.2631,2.0281593,41.5584408,F,https://aoberta.terrassa.cat/oficines/infoEntitat.jsp?id=11588,sector-publico,"(41.558440771551574, 2.0281592636943304)"
12974,Educació,Oficina de Gestió Empresarial - OGE Terrassa,937 339 833,tramitacions@cambraterrassa.es,CA,"BLASCO DE GARAY, DE",29,,,,,8224,TERRASSA,417226.1781,4601554.8212,417132.1905,4601350.6044,2.0062239,41.5595354,F,https://aoberta.terrassa.cat/oficines/infoEntitat.jsp?id=12974,educacion,"(41.55953536844682, 2.006223850288348)"
2715,Transport,Parc de Carreteres de la Generalitat de Catalunya,937 860 045,mcosu@gencat.net,DS,MANCOMUNITAT,4,,,,,8227,TERRASSA,421555.0146,4600861.9391,421461.0285,4600657.6884,2.0582203,41.5537318,F,https://aoberta.terrassa.cat/oficines/infoEntitat.jsp?id=2715,transporte,"(41.55373178177485, 2.0582202708464084)"
4624,Transport,Parking Inversiones Privadas SA,937 850 964     - ,,CA,DE TOPETE                               ,35,,,,,8221,TERRASSA                                ,418121.4723,4601738.3912,418027.4875,4601534.1679,2.0169339,41.5612808,F,https://aoberta.terrassa.cat/oficines/infoEntitat.jsp?id=4624,transporte,"(41.56128083199155, 2.016933941168718)"
2996,Transport,Parking La Rasa,937 806 737,,CA,"RASA, DE LA",69,,,BA,,8221,TERRASSA,417514.5103,4602044.3768,417420.5269,4601840.1586,2.0096138,41.5639741,F,https://aoberta.terrassa.cat/oficines/infoEntitat.jsp?id=2996,transporte,"(41.563974128058796, 2.0096138480137724)"
3729,Transport,Parking Passeig,937 841 634,,PS,DEL COMTE D ÈGARA,11,,,,,8221,TERRASSA,418007.1812,4601965.3153,417913.1980,4601761.0932,2.0155325,41.5633128,F,https://aoberta.terrassa.cat/oficines/infoEntitat.jsp?id=3729,transporte,"(41.563312801284816, 2.0155324823066865)"
4642,Esports,Pavelló Municipal d Halterofilia,937 317 615,,AV,"VALLÈS, DEL",453,,,,,8226,TERRASSA,419191.7438,4603313.2312,419097.7726,4603109.0022,2.0295555,41.5755729,F,https://aoberta.terrassa.cat/oficines/infoEntitat.jsp?id=4642,deporte,"(41.57557288591798, 2.029555451213411)"
6383,Transport,Pesmo SL,937 892 268     - ,,CA,DE GIRALT I SERRÀ,18,,,BA,L3 ,8221,TERRASSA,417249.1250,4602570.5625,417155.1452,4602366.3471,2.0063589,41.5686855,F,https://aoberta.terrassa.cat/oficines/infoEntitat.jsp?id=6383,transporte,"(41.56868552214586, 2.0063589413684877)"
14158,Esports,Piscina Municipal de Les Arenes,937 316 786,,CA,"TIBIDABO, DEL",60,,,,,8227,TERRASSA,419977.4878,4602779.4537,419883.5138,4602575.2180,2.0390506,41.5708447,F,https://aoberta.terrassa.cat/oficines/infoEntitat.jsp?id=14158,deporte,"(41.57084474663201, 2.0390506085253013)"
18334,Esports,Piscina Municipal del Parc de Vallparadís,937 397 419,,P ,EL LLAC DE VALLPARADÍS,5,,,,,8222,TERRASSA,418403.5519,4601350.9185,418309.5646,4601146.6925,2.0203690,41.5578201,F,https://aoberta.terrassa.cat/oficines/infoEntitat.jsp?id=18334,deporte,"(41.55782008210402, 2.020369016349816)"
16661,Esports,Pista Poliesportiva Can Jofresa,,,CA,DE VIC,15,,,,,8223,TERRASSA,418194.2715,4600370.6089,418100.2765,4600166.3830,2.0179932,41.5489700,F,https://aoberta.terrassa.cat/oficines/infoEntitat.jsp?id=16661,deporte,"(41.54896996287031, 2.0179932327185965)"
799,Esports,Pista Poliesportiva Can Parellada - Les Fonts,,,CA,"SANT ANDREU, DE",2,,,,,8228,TERRASSA,419743.6250,4598724.3750,419649.6199,4598520.1347,2.0367879,41.5343008,F,https://aoberta.terrassa.cat/oficines/infoEntitat.jsp?id=799,deporte,"(41.534300801218706, 2.036787914924037)"
14998,Esports,Pista Poliesportiva Coberta de Can Parellada,937 844 442 -  - 696 155 253,cdcanparellada@yahoo.es,CA,D EUROPA,8,,,,,8228,TERRASSA,420265.3750,4599366.4375,420171.3756,4599162.1943,2.0429564,41.5401355,F,https://aoberta.terrassa.cat/oficines/infoEntitat.jsp?id=14998,deporte,"(41.54013549175605, 2.0429564486132605)"
1461,Esports,Pista Poliesportiva Montserrat,937 314 552 (AV Montserrat),,CA,"BADAJOZ, DE",2,,,,,8227,TERRASSA,419553.0028,4601569.9387,419459.0190,4601365.7043,2.0341220,41.5599091,F,https://aoberta.terrassa.cat/oficines/infoEntitat.jsp?id=1461,deporte,"(41.559909120973934, 2.0341219947547597)"
4718,Esports,Pista Poliesportiva Vallparadís,,,CA,"SALMERÓN, DE",43,,,,,8222,TERRASSA,418374.7154,4602204.2942,418280.7346,4602000.0697,2.0199072,41.5655027,F,https://aoberta.terrassa.cat/oficines/infoEntitat.jsp?id=4718,deporte,"(41.56550268330709, 2.0199072033807073)"
6482,Esports,Pista Poliesportiva Vilardell,,,CA,"PAMPLONA, DE",2,,,,,8227,TERRASSA,419893.4267,4601489.9290,419799.4428,4601285.6919,2.0382146,41.5592227,F,https://aoberta.terrassa.cat/oficines/infoEntitat.jsp?id=6482,deporte,"(41.55922274019256, 2.038214616866911)"
2151,Esports,Pista Poliesportiva de Can Tusell,937 352 876,,AV,"BÉJAR, DE",245,,,,,8226,TERRASSA,418293.9278,4603849.3079,418199.9593,4603645.0866,2.0187144,41.5803095,F,https://aoberta.terrassa.cat/oficines/infoEntitat.jsp?id=2151,deporte,"(41.580309470730306, 2.0187143588504357)"
6484,Esports,Pistes Poliesportives de Can Palet II,,,CA,"TÚRIA, DEL",3,,,,,8223,TERRASSA,419206.7520,4600903.7528,419112.7626,4600699.5200,2.0300598,41.5538745,F,https://aoberta.terrassa.cat/oficines/infoEntitat.jsp?id=6484,deporte,"(41.55387446458482, 2.03005984094687)"
16667,Esports,Pistes de Petanca de Can Boada,,,CM,DE CAN BOADA,20,,,,,8225,TERRASSA,416323.7774,4602708.7456,416229.7972,4602504.5375,1.9952427,41.5698336,F,https://aoberta.terrassa.cat/oficines/infoEntitat.jsp?id=16667,deporte,"(41.56983361845114, 1.9952426670393306)"
16663,Esports,Pistes de Petanca de Can Jofresa,,,CR,DE RUBÍ,299,,,,,8223,TERRASSA,418090.2894,4600264.9134,417996.2934,4600060.6881,2.0167610,41.5480074,F,https://aoberta.terrassa.cat/oficines/infoEntitat.jsp?id=16663,deporte,"(41.54800741618373, 2.016761039276222)"
16691,Esports,Pistes de Petanca de Sant Llorenç,,,CA,DEL MONTCAU,18,,,,,8227,TERRASSA,419249.9356,4603803.9953,419155.9682,4603599.7667,2.0301873,41.5799986,F,https://aoberta.terrassa.cat/oficines/infoEntitat.jsp?id=16691,deporte,"(41.579998618833926, 2.0301873032010724)"
16670,Esports,Pistes de Petanca del Pla del Bonaire,,,CA,DE SABADELL,6,,,,,8225,TERRASSA,418067.3813,4604148.2643,417973.4147,4603944.0452,2.0159562,41.5829787,F,https://aoberta.terrassa.cat/oficines/infoEntitat.jsp?id=16670,deporte,"(41.5829786652722, 2.015956203034512)"
16670,Esports,Pistes de Petanca del Pla del Bonaire,,,CA,DE SABADELL,6,,,,,8225,TERRASSA,418074.5938,4604068.8750,417980.6266,4603864.6557,2.0160536,41.5822644,F,https://aoberta.terrassa.cat/oficines/infoEntitat.jsp?id=16670,deporte,"(41.582264424566276, 2.0160535643259605)"
1456,Seguretat,Policia Nacional,060 (informació)  - 937 869 050 (Comissaria de Terrassa) -  - ,,CA,DE BALDRICH,1,,,,,8221,TERRASSA,417937.6250,4601685.1875,417843.6395,4601480.9655,2.0147367,41.5607828,F,https://aoberta.terrassa.cat/oficines/infoEntitat.jsp?id=1456,seguridad,"(41.560782820072426, 2.014736711958669)"
1457,Esports,Poliesportiu Municipal de Ca n Anglada,937 863 101,servei.esports@terrassa.cat,CA,"DR. AYMERICH I GILABERTÓ, DEL",136,,,,,8222,TERRASSA,419425.3009,4602340.1288,419331.3227,4602135.8966,2.0324873,41.5668327,F,https://aoberta.terrassa.cat/oficines/infoEntitat.jsp?id=1457,deporte,"(41.566832651921175, 2.032487349608158)"
1458,Esports,Poliesportiu Municipal de La Maurina,937 807 543,servei.esports@terrassa.cat,CA,"SARDENYA, DE",32,,,,,8224,TERRASSA,416145.4267,4601890.1537,416051.4400,4601685.9457,1.9932182,41.5624427,F,https://aoberta.terrassa.cat/oficines/infoEntitat.jsp?id=1458,deporte,"(41.56244270366628, 1.9932181934523243)"
3260,Esports,Poliesportiu Municipal de Les Arenes,937 837 683,servei.esports@terrassa.cat,CA,"SIERRA NEVADA, DE",57,,,,,8227,TERRASSA,420003.0000,4602897.2500,419909.0269,4602693.0142,2.0393409,41.5719082,F,https://aoberta.terrassa.cat/oficines/infoEntitat.jsp?id=3260,deporte,"(41.57190818559152, 2.039340863305094)"
1463,Esports,Poliesportiu Municipal de Sant Llorenç,937 863 001,,CA,"CASTELLSAPERA, DEL",7,,,,,8227,TERRASSA,419345.6252,4603437.2028,419251.6552,4603232.9729,2.0313844,41.5767049,F,https://aoberta.terrassa.cat/oficines/infoEntitat.jsp?id=1463,deporte,"(41.57670493456224, 2.031384378886587)"
15377,Transport,Pàrquing Vapor Gran,937 835 386,,CA,DE BALDRICH,22,,,BA,1  ,8221,TERRASSA,417923.0431,4601610.8098,417829.0571,4601406.5878,2.0145720,41.5601115,F,https://aoberta.terrassa.cat/oficines/infoEntitat.jsp?id=15377,transporte,"(41.5601114741455, 2.014572032798718)"
15174,Transport,Párking Segle XXI,937 312 713,,CA,"PRIM, DE",90,,,BA,1  ,8223,TERRASSA,418096.2373,4601260.9282,418002.2489,4601056.7044,2.0166965,41.5569782,F,https://aoberta.terrassa.cat/oficines/infoEntitat.jsp?id=15174,transporte,"(41.5569781920204, 2.016696494695601)"
7632,Comerç,Recinte Firal de Terrassa,937 397 000,,PS,"VINT-I-DOS DE JULIOL, DEL",265,,,,,8225,TERRASSA,417371.8438,4602752.5000,417277.8656,4602548.2840,2.0078056,41.5703368,F,https://aoberta.terrassa.cat/oficines/infoEntitat.jsp?id=7632,comercio,"(41.570336753436884, 2.0078055642088746)"
1479,Justícia,Registre Civil,936 932 911    -  - 902 007 214 (telèfon d atenció al ciutadà del Ministerio de Justicia),registrocivil.terrassa@justicia.es,RB,"PARE ALEGRE, DEL",112,,,,,8224,TERRASSA,417442.5793,4600564.0600,417348.5846,4600359.8401,2.0089549,41.5506349,F,https://aoberta.terrassa.cat/oficines/infoEntitat.jsp?id=1479,legislacion-justicia,"(41.55063492459233, 2.0089548600969827)"
2315,Justícia,Registre de la Propietat Número 1,937 832 122,,CA,"PUIG NOVELL, DEL",14,,,,,8221,TERRASSA,417873.3064,4601839.6370,417779.3220,4601635.4158,2.0139443,41.5621672,F,https://aoberta.terrassa.cat/oficines/infoEntitat.jsp?id=2315,legislacion-justicia,"(41.5621671907187, 2.013944344321132)"
12283,Justícia,Registre de la Propietat Número 2,937 336 659,,CA,DE LA INDEPENDÈNCIA,1,,,LO,6  ,8225,TERRASSA,417945.3490,4602842.1017,417851.3723,4602637.8815,2.0146711,41.5712028,F,https://aoberta.terrassa.cat/oficines/infoEntitat.jsp?id=12283,legislacion-justicia,"(41.571202818071086, 2.0146711341205075)"
12283,Justícia,Registre de la Propietat Número 2,937 336 659,,CA,DE LA INDEPENDÈNCIA,1,,,LO,6  ,8225,TERRASSA,417908.0982,4602752.1676,417814.1208,4602547.9475,2.0142367,41.5703890,F,https://aoberta.terrassa.cat/oficines/infoEntitat.jsp?id=12283,legislacion-justicia,"(41.570389042644535, 2.0142366996296532)"
2332,Justícia,Registre de la Propietat Número 3,937 837 433,,CA,"PUIG NOVELL, DEL",14,,,,,8221,TERRASSA,417873.3064,4601839.6370,417779.3220,4601635.4158,2.0139443,41.5621672,F,https://aoberta.terrassa.cat/oficines/infoEntitat.jsp?id=2332,legislacion-justicia,"(41.5621671907187, 2.013944344321132)"
15674,Justícia,Registre de la Propietat Número 5,937 848 460,,PS,DEL VAPOR GRAN,29,,,2 ,E  ,8221,TERRASSA,417852.1600,4601634.3294,417758.1740,4601430.1080,2.0137189,41.5603160,F,https://aoberta.terrassa.cat/oficines/infoEntitat.jsp?id=15674,legislacion-justicia,"(41.56031600971962, 2.0137188742837613)"
1512,Cultura i lleure,Sala Muncunill,937 832 711 (Cultura)   -  - 937 397 080 (Sala),,PL,DIDÓ,3,,,,,8221,TERRASSA,417574.3624,4602036.1804,417480.3790,4601831.9617,2.0103327,41.5639065,F,https://aoberta.terrassa.cat/oficines/infoEntitat.jsp?id=1512,cultura-ocio,"(41.56390648706584, 2.0103326857101815)"
15578,Educació,Servei Educatiu del Vallès Occidental 2,937 353 056     - 937 353 630,,CA,D ALCOI,57,,,,,8225,TERRASSA,417589.0566,4603715.7170,417495.0860,4603511.5008,2.0102782,41.5790339,F,https://aoberta.terrassa.cat/oficines/infoEntitat.jsp?id=15578,educacion,"(41.57903392664248, 2.0102781714706963)"
12359,Societat i benestar,Servei d Allotjament d Urgència - SAU,937 805 555,,AV,"GLÒRIES CATALANES, DE LES",3,,,,,8223,TERRASSA,419053.9544,4601412.4940,418959.9686,4601208.2631,2.0281593,41.5584408,F,https://aoberta.terrassa.cat/oficines/infoEntitat.jsp?id=12359,sociedad-bienestar,"(41.558440771551574, 2.0281592636943304)"
1180,Ocupació,Servei d Ocupació de Catalunya - SOC (Oficina Terrassa),"937 336 590     - 937 336 596 (informació prestacions, atur) - 937 336 592 (informació ofertes de treball) - 937 336 593 (informació ofertes de treball)    - 937 336 595 (informació contractes laborals)",otg_edison.soc@gencat.cat,CA,"EDISON, D ",15,,,,,8224,TERRASSA,417041.3741,4601125.0600,416947.3830,4600920.8440,2.0040673,41.5556458,F,https://aoberta.terrassa.cat/oficines/infoEntitat.jsp?id=1180,empleo,"(41.55564577137252, 2.0040673291234374)"
6537,Societat i benestar,Serveis de Valoració i Orientació a Persones amb Discapacitat de Terrassa (CAD Terrassa),937 858 300,cadterrassa.tsf@gencat.cat,CA,"PRAT DE LA RIBA, DE",32,,,BA,1  ,8222,TERRASSA,418485.6875,4602137.8750,418391.7063,4601933.6496,2.0212470,41.5649158,F,https://aoberta.terrassa.cat/oficines/infoEntitat.jsp?id=6537,sociedad-bienestar,"(41.564915837262014, 2.0212469746429798)"
17860,Ocupació,Servicio Público de Empleo Estatal - SEPE,937 336 590     - 901 119 999 (informació del Servicio Público Estatal i sol.licitud de certificats)    - 901 010 210 (sol.licitud de cita prèvia per gestions relacionades amb les prestacions d atur) - ,,CA,"EDISON, D ",15,,,,,8224,TERRASSA,417041.3741,4601125.0600,416947.3830,4600920.8440,2.0040673,41.5556458,F,https://aoberta.terrassa.cat/oficines/infoEntitat.jsp?id=17860,empleo,"(41.55564577137252, 2.0040673291234374)"
14074,Cultura i lleure,Taketonbo,937 848 390,,CA,DE FARADAY,98,,,,,8224,TERRASSA,417003.0487,4601432.5058,416909.0599,4601228.2905,2.0035653,41.5584107,F,https://aoberta.terrassa.cat/oficines/infoEntitat.jsp?id=14074,cultura-ocio,"(41.558410654137035, 2.003565309815803)"
1470,Cultura i lleure,Teatre Principal,937 338 140    -  - 937 832 711 (Cultura),caet@terrassa.cat,PL,"MARAGALL, DE",2,,,,,8221,TERRASSA,417813.7813,4602096.8125,417719.7988,4601892.5921,2.0131954,41.5644772,F,https://aoberta.terrassa.cat/oficines/infoEntitat.jsp?id=1470,cultura-ocio,"(41.564477201630936, 2.01319535521956)"
3464,Societat i benestar,Tresoreria General de la Seguretat Social Núm. 21,937 362 980     -  - 901 502 050 (informació i tràmits),barcelona.administracion21.tgss@seg-social.es,CR,"CASTELLAR, DE",6,,,,,8222,TERRASSA,418628.1220,4602127.9522,418534.1410,4601923.7257,2.0229563,41.5648410,F,https://aoberta.terrassa.cat/oficines/infoEntitat.jsp?id=3464,sociedad-bienestar,"(41.56484098950538, 2.02295634391214)"
4383,Transport,Turmo SL I,937 839 810   - 937 833 088 - ,info@caravanasturmo.com,CR,"CASTELLAR, DE",290,,,,,8226,TERRASSA,419111.5457,4602852.2774,419017.5709,4602648.0483,2.0286557,41.5714134,F,https://aoberta.terrassa.cat/oficines/infoEntitat.jsp?id=4383,transporte,"(41.57141339254586, 2.0286557428337924)"
4428,Esports,Zona Esportiva Municipal Can Jofresa,937 834 525 -  - 650 492 522,servei.esports@terrassa.cat,CA,"BADALONA, DE",6,,,,,8223,TERRASSA,418430.1260,4600277.7824,418336.1306,4600073.5545,2.0208334,41.5481581,F,https://aoberta.terrassa.cat/oficines/infoEntitat.jsp?id=4428,deporte,"(41.54815805853122, 2.02083342567359)"
16512,Esports,Àrea Olímpica Municipal de Terrassa,937 353 160,,AV,DE L ABAT MARCET,200,,,BA,,8225,TERRASSA,417459.8547,4603259.3007,417365.8804,4603055.0848,2.0087913,41.5749101,F,https://aoberta.terrassa.cat/oficines/infoEntitat.jsp?id=16512,deporte,"(41.57491010047406, 2.008791310852221)"
