nombre,tipoasociacion,numRegistro,cif,direccion,codpostal,longitud,latitud,telefono,fax,email,fconstitucion
"Asociación de Mujeres de Campillo","Asociación de Mujeres","63","G-30468359","Dip. Campillo, Carretera de Almenara ","30813","","","671 984 355","","","10/08/1995 0:00:00"
"Asociación de Mujeres de Aguaderas","Asociación de Mujeres","117","G-73024705","Carretera Campo Lopez, buzon 5B Aguaderas   ","30815","","","","","","09/02/1999 0:00:00"
"Asociación de Mujeres Barrio de La Viña","Asociación de Mujeres","24","G30283717","C/Panaderia, 13 - bajo","30800","","","","","","01/01/1986 0:00:00"
"Centro de la Mujer del Barrio San Juan","Asociación de Mujeres","37","G-30368070","C/ Gomelez","30800","","","968461387","","",""
"Asociación de Mujeres del Barrio de San Cristóbal","Asociación de Mujeres","33","G-30214472","C/ Charco, s/n","30800","","","634915188","","",""
"Asociación Centro de la Mujer La Isla","Asociación de Mujeres","34","G-30255384","C/ Bordadora Apolonia Ros - bajo","30800","","","644387753","","",""
"Centro de la Mujer del Barrio de San Pedro","Asociación de Mujeres","30","G-30288484","C/Santiago, nº 5  ","30800","","","968441184","","",""
"Asociacion de Viudas Virgen del Alcazar","Asociación de Mujeres","13","G-30120620","C/ José Mouliaá, 12","30800","","","606350613","","","01/01/1986 0:00:00"
"Asociación de Mujeres de Avilés","Asociación de Mujeres","56","G-30430268","Dip. Avilés, Barrio Rocío, ","30812","","","669882080 - 648 882 774 ","","catiaviles@live.com","18/10/1994 0:00:00"
"Asociación de Mujeres Sagrada Familia","Asociación de Mujeres","55","G-30436075","Almda de Cervantes, 18, 5ºC   30800 Lorca","","","","968465751","","",""
"Asociación de Mujeres de La Paca","Asociación de Mujeres","242","G-30526677","C/Juan Carlos I, Nº49  Dip. La Paca  30812 Lorca","30812","","","968491133","","mcarmen.martinez41@gmail.com","21/11/1996 0:00:00"
"Asociación de Mujeres de la Escucha","Asociación de Mujeres","169","G-73109092","Dip. La Escucha, Centro Social","30813","","","968 482 849","","","11/09/2000 0:00:00"
"Asociación de Mujeres de la Escarihuela","Asociación de Mujeres","492","G-73327520","Centro Social de la Escarihuela- Diputación La Escucha ","30813","","","618882343","","","03/08/2004 0:00:00"
"Asociacion de Mujeres de Zarzalico","Asociación de Mujeres","256","G-73362634"," Local Social de Zarzalico, Venta la Petra, Dip. Zarzalico. ","30890","","","629656561 -Encarna-","968401251","isa@ventalapetra.com","16/02/2005 0:00:00"
"Asociacion de Mujeres de Zúñiga","Asociación de Mujeres","325","G-73524456","C/ Fátima, Dipt. Zúñiga, s/n","30814","","","647787854","","","02/04/2007 0:00:00"
"Asociacion de Mujeres Trece Rosas ","Asociación de Mujeres","314","G-73467219","C/Corredera, 12-2º H   ","30800","","","677423407","968479716","dori_pm@hotmail.com","07/10/2005 0:00:00"
"Asociación de Mujeres de Tercia","Asociación de Mujeres","45","G-30430961","Dip. Tercia, Camino de Villaespesa, nº 171","30815","","","627 520 562","","montseroiz-1965@hotmail.com","21/03/1994 0:00:00"
"Asociación de Mujeres de Puerto Muriel","Asociación de Mujeres","488","J73497539","Dip. Morata, Puerto Muriel","30878","","","699 706 428","","","30/09/2006 0:00:00"
"Asociación de Mujeres La Integración","Asociación de Mujeres","36","G-30335657","Avda Antonio Campoy (Estación de Renfe), Almendricos: ","30893","","","659 881 760","","","18/06/1992 0:00:00"
"Asociación de Mujeres de Coy","Asociación de Mujeres","329","G-30492623","C/ Fuente de Abajo s/n. Dip Coy ","30812","","","630 730 301","","","24/01/2010 0:00:00"
"Asociación de Mujeres de Alameda de Cervantes","Asociación de Mujeres","50","G-30433502","Alameda de Cervantes s/n","30800","","","660 697 987","","",""
"Centro de Promoción Social de la Mujer del Barrio de Santiago","Asociación de Mujeres","29","G-30386783","C/ Rubira, nº13, bajo","30800","","","647 215 694","","","26/06/1993 0:00:00"
"Asociación de Mujeres de Torrealvilla","Asociación de Mujeres","377","g-73568586","Local Social Parroquial de torrealvilla, s/n","30814","","","968 438 105","","",""
"Asociación de Mujeres de Purias","Asociación de Mujeres","70","G-30479760","Camino de Las Escuelas, panel 28, buzón 8","30813","","","610 787 777","","","18/09/1995 0:00:00"
"Asociación de Mujeres de Diputación La Hoya","Asociación de Mujeres","327","G-30436059","Crtra Hinojar s/n","","","","676176 308","","","14/11/1994 0:00:00"
"Asociación de Mujeres de Cazalla","Asociación de Mujeres","64","G-30473540","Dip. Cazalla, Camino Vereda Alta, Local Social ","30800","","","968 444758- 669 228 850","","asomucazalla@hotmail.com","09/05/1995 0:00:00"
"Asociación de mujeres de Zarcilla de Ramos","Asociación de Mujeres","25","G-30373989","C/ Estanco nº4  de Diputación Zarcilla de Ram","30810","","","654 351 099","","","02/07/1993 0:00:00"
"Asociación de Mujeres de Ramonete","Asociación de Mujeres","495","G-73073561","Paraje La Lebrilleras, Diputación Ramonete","30876","","","649 120 257","","","25/02/2000 0:00:00"
"Asociación de Mujeres de Santa María","Asociación de Mujeres","40","G-30338560","C/ Sicilia s/n","30800","","","678 976 250","","",""
"Asociación de Mujeres de Zarzadilla","Asociación de Mujeres","105","G-73006744","Dip. Zarzadilla de Totana, C/ Constitución, s/n","30814","","","660 353 343","","","02/10/1998 0:00:00"
"Asociación de Mujeres del Barrio de los Ángeles","Asociación de Mujeres","41","G-30428981","Paseo de los Ángeles, 3 -Bajo","30800","","","968 441 019","","ginibermejo@gmail.com","04/10/1994 0:00:00"
"Asociación de Mujeres de Tiata","Asociación de Mujeres","42","G-30428361","Dip. Tiata, Camino Parador de los Seguras, s/n, Panel 5, Buzón 28","30800","","","669 311 545","","","07/10/1994 0:00:00"
"Asociación de Mujeres de la Dip. Rïo","Asociación de Mujeres","46","G-30429765","Diputación de Río, Barrio Corazón de María, s/n","30800","","","616 326 069","","","22/09/1994 0:00:00"
"Asociación Centro de la Mujer de San José","Asociación de Mujeres","31","G-30283709","Parque Pepe Plazas y María Carrillo, nº1","30800","","","607 484 369","","","13/02/1991 0:00:00"
"Federación de Organizaciones de Mujeres de Lorca","Asociación de Mujeres","88","B-30381305","Asociación de Vecinos de San José","30800","","","646 394 434","","federmujerlorca@hotmail.com","01/07/1993 0:00:00"
"Asociación de Mujeres del Barrio de San Antonio","Asociación de Mujeres","51","G-30436281","C/ Mariscal Pedro Musso","30800","","","628 537 722- 686 905 893","","","20/12/1994 0:00:00"
"Asociación de Mujeres de Ramblilla de Tejares","Asociación de Mujeres","44","G-30430698","C/ Ortega de Melgares s/n, bajo","30800","","","618 771 728","","","17/09/1994 0:00:00"
"Centro de la Mujer del Calvario","Asociación de Mujeres","43","G-30359889","C/ Cabezo de Vélez","30800","","","","","",""
"Centro de la Mujer del Barrio Apolonia","Asociación de Mujeres","312","J-73192361","Avda Fuerzas Armadas nº41, bajo","30800","","","618 251 703","","","22/04/2003 0:00:00"
"Asociación de la Mujer de la Dipuración de La Torrecilla","Asociación de Mujeres","32","G-30382642","Camino Cabalgadores s/n","30817","","","676 032 707","","","01/01/2004 0:00:00"
"Asociacion de Mujeres Venta Ceferino","Asociación de Mujeres","491","G-73365884","Venta Ceferino, buzón 19","30813","","","680174343","","","02/12/2004 0:00:00"
"Asociación de Mujeres de Doña Inés","Asociación de Mujeres","93","G-30584452","C/ Las Escuelas, Dip. Doña Inés-","30812","","","618 546 449","","lamazu60@hotmail.com","19/11/1997 0:00:00"
"Asociaición de Mujeres de Betania","Asociación de Mujeres","410","G-73612350","Santa Quiteria nº, 22, B","30800","","","968 473 795","","asobetania@yahoo.es","28/06/2008 0:00:00"
"Asociación de Mujeres Las Terreras","Asociación de Mujeres","404","G-73587685","Dip. La Paca, Las Terreras, Avda Juan Carlos I.","30812","","","678 770 973","","","17/06/2008 0:00:00"
"Asociación de Mujeres del Barrio de San Fernando","Asociación de Mujeres","73","G-30474126","Barrio de San Fernando (Local Social)","30800","","","687 016 548","","",""
"Asociación de Mujeres de San Lázaro","Asociación de Mujeres","47","G-30415624","C/Almazaro de bravo, nº16","30800","","","647 077 159- 661 930 048","","azuldisen2@hotmail.com","01/01/1994 0:00:00"
"Asociación de Mujeres Virgen de las Huertas","Asociación de Mujeres","494","","Plaza Rey el Sabio, s/n","30800","","","646 735 963","","","20/05/1993 0:00:00"
"Asociación de Mujeres de Marchena","Asociación de Mujeres","57","G-30435796","Local Josefina Olmos de Dip. de Marchena","30815","","","662 169 239","","","27/10/1994 0:00:00"
"Asociación de Mujeres de Riopar","Asociación de Mujeres","405","G-73003410","Local Social de Dipuatación Parrilla (El Consejero)","30811","","","968 436 072","","anabelenng@hormail.com","26/04/2004 0:00:00"
"Asociación de Mujeres de San Juan Bautista de Morata","Asociación de Mujeres","107","G-30596035","Local Social de Morata (Junto a la iglesia parroquial)","30878","","","610 222 910","","","22/05/1998 0:00:00"
"Asociación de Mujeres del Barrio Alfonso X el Sabio","Asociación de Mujeres","39","G-30431506","C/ Tenor José Romeu, Centro Cívico","30800","","","679488562","","","23/11/1994 0:00:00"
"Asociación de Mujeres de Pulgara","Asociación de Mujeres","65","G-30476030","Carretera de la Pulgara","30800","","","650 479 309","","","24/06/1995 0:00:00"
"Asociación de Mujeres de La Parroquia","Asociación de Mujeres","66","G-30477384","C/ Dr. Rodríguez, 1","30811","","","","","","01/01/1995 0:00:00"
"Asociación de Mujeres Emprendedoras de Lorca","Asociación de Mujeres","86","G-30549323","Plaza del Trabajo, 2","30800","","","","","","21/04/1997 0:00:00"
"Asociación de Mujeres Progresistas de Lorca","Asociación de Mujeres","281","G-30269039","Camino del Mojón (Tercia), nº 18","30815","","","661774428","","","24/05/1990 0:00:00"
"MUJERES UNIDAS EN EL MUNDO APORTANDO AL DESARROLLO MHAM MUAD ONG","Asociación de Mujeres","526","G-73437360","C/ Cerro de la Muela, s/n. Polígono Los Peñones","30800","","","615 449 384","","","16/06/2014 0:00:00"
