nombre,tipoasociacion,numRegistro,cif,direccion,codpostal,longitud,latitud,telefono,fax,email,fconstitucion
"Federación de Asociaciones de Vecinos, Consumidores y Usuarios de Lorca y Comarca del Alto Guadalentín.","Asociación de Vecinos","1","G-30285845","C/ Centro Social de S. José, Parque de Pepe Lizarán y María Carrillo, Edif. nº 1 Bajo","30800","","","968468805","968468805","",""
"Asociación de Vecinos Barrio de San Cristóbal","Asociación de Vecinos","5","G-30041180"," C/ Mayor, nº15 (Local Social)","30800","","","679560759","","",""
"Asociación de Vecinos de San José ","Asociación de Vecinos","18","G30236897","Parque Pepe Plazas y María Carrillo","30800","","","","","aa.vvsanjoselorca@gmail.com",""
"Asociación de Vecinos Barrio San Juan","Asociación de Vecinos","7","G-30294003","Atrio de San Juan, 5","30800","","","","","",""
"Asociación de Vecinos Barrio de Santa Maria","Asociación de Vecinos","9","G-30286272","C/Sicilia 6","30800","","","666925395","","",""
"Asociación de Vecinos Barrio de San Pedro","Asociación de Vecinos","4","","Placeta del Pipí, 1","30800","","","636251992","","",""
"Asociación de Vecinos de Campillo","Asociación de Vecinos","170","G-30268932","Dip. Campillo, Carretera de Almenara ","30813","","","670 572 729","","aavv.campillo.lorca@hotmail.com",""
"Asociación de Vecinos de Cazalla","Asociación de Vecinos","28","G30402788","Ctra. De Aguilas, buzon 9-A   30800 Lorca","30818","","","607 199 721","","aavvcazalla@gmail.com",""
"Club Lorquino de Carreras de Orientación en la Naturaleza","Asociación Deportiva","71","G-30349427","Alameda de la Constitución s/n","30800","","","649 204 272","","","21/10/1992 0:00:00"
"Asociación de Vecinos de Campo López","Asociación de Vecinos","283","G-30507040","Plaza  Atrio de la Tertulia, 3, buzon 3  ","30815","","","968482507","","","10/04/2004 0:00:00"
"Asociación de Vecinos Dip. de Coy","Asociación de Vecinos","278","G-30221329","Plaza la Cuesta, nº1. Diputación de Coy.    ","30812","","","620 803 835 - 968 499006","","",""
"Asociación de Vecinos de La Paca","Asociación de Vecinos","433","G-30462501","Dip. La Paca, C/ Centro de Salud","30812","","","667244367","","","20/03/1995 0:00:00"
"Asociación de Vecinos de Sutullena","Asociación de Vecinos","20","","Avda. de Sutullena, nº 2 Bar el Canal  30800 Lorca","","","","699302135","","joblama44@hotmail.com",""
"Asociación de Vecinos de Tercia","Asociación de Vecinos","104","G-30201826","Dip. Tercia, C/ de la Encina, s/n","30815","","","669 449 516","","","14/10/1988 0:00:00"
"Asociación de Vecinos de Tiata","Asociación de Vecinos","23","G-30372742","Camino Parador de Los Seguras","30800","","","968468882","","","23/04/1993 0:00:00"
"AAVV La Escucha","Sin Tipo","","","Diputacion La Escucha, buzon 15   30813 Lorca","","","","968436958","","",""
"Asociación de Vecinos de La Torrecilla","Asociación de Vecinos","22","G-30367908","Cmno. Viejo del Puerto, buzon 58  30817 Lorca","30800","","","618498489","","anmifrjo@hotmail.com","20/04/1992 0:00:00"
"Asociación de Vecinos La Viña","Asociación de Vecinos","8","G-30111058","C/Albañileria, Centro Social ","30800","","","","","","18/06/1976 0:00:00"
"Asociación de Vecinos de Los Ángeles","Asociación de Vecinos","275","G-30043665","Parque Los Angeles s/n (local social)   ","30800","","","639317968","","","28/03/2003 0:00:00"
"Club TeaMMurcia","Asociación Deportiva","450","G-73669921","Cmno. Cuesta de Apiche, 21","30817","","","","","","09/04/2010 0:00:00"
"AAVV San Fernando","Sin Tipo","","","C/Mateos Ferrer, bloque 4-3ºB   30800 Lorca","","","","630526122","","",""
"Asociación de Vecinos La Hoya -Hinojar","Asociación de Vecinos","99","g-30277586","Carretera de Hinojar, Aptdo. De correos nº3         30816 Lorca","30816","","","609752182","","",""
"Asociación de Vecinos Ramblilla de Tejares","Asociación de Vecinos","10","G-30288476","Ramblilla de Tejares nº 23","30800","","","660289 805","","","20/05/1991 0:00:00"
"ASOCIACIÓN CIUDADANO 10","Asociación con Fines Asistenciales","514","G-73813917","Camino Viejo del Puerto nº 20. Pl 1º","30800","","","622 711 215","","mangarmore@gmail.com","20/02/2013 0:00:00"
"Asociación de Padres con Hijos con Discapacidad Intelectual de la Comarca de Lorca APANDIS.","Asociación con Fines Asistenciales","229","G-30462204","C/Panaderia, s/n, Urbanización La Viña","30800","","","968 470 727","","mjvicente@apandis.com",""
"Asociacion de Amigos del Pueblo Saharaui","Asociación de Cooperación Social","185","G-30525976","C/Eugenio Ubeda,17 7ºk    ","30800","","","619370416","","",""
"Asociación de Mujeres de Campillo","Asociación de Mujeres","63","G-30468359","Dip. Campillo, Carretera de Almenara ","30813","","","671 984 355","","","10/08/1995 0:00:00"
"Asociación de Mujeres de Aguaderas","Asociación de Mujeres","117","G-73024705","Carretera Campo Lopez, buzon 5B Aguaderas   ","30815","","","","","","09/02/1999 0:00:00"
"Asociación Juvenil Izquierda Jóven de Lorca","Asociación de Jóvenes","323","G-73416539","Calle Corredera, nº 12, Pl. 2ºH","30800","","","680 507 798","","izquierdajoven@gmail.com","21/06/2005 0:00:00"
"Mujeres para la Democracia","Sin Tipo","","","C/Colmenarico, 15 Edificio Luchena 3ºB  30800 Lorca","","","","609339945","","",""
"Asociación de Mujeres Barrio de La Viña","Asociación de Mujeres","24","G30283717","C/Panaderia, 13 - bajo","30800","","","","","","01/01/1986 0:00:00"
"Centro de la Mujer del Barrio San Juan","Asociación de Mujeres","37","G-30368070","C/ Gomelez","30800","","","968461387","","",""
"Asociación de Mujeres del Barrio de San Cristóbal","Asociación de Mujeres","33","G-30214472","C/ Charco, s/n","30800","","","634915188","","",""
"Asociación Centro de la Mujer La Isla","Asociación de Mujeres","34","G-30255384","C/ Bordadora Apolonia Ros - bajo","30800","","","644387753","","",""
"Centro de la Mujer del Barrio de San Pedro","Asociación de Mujeres","30","G-30288484","C/Santiago, nº 5  ","30800","","","968441184","","",""
"Asociacion Juvenil de Zarcilla de Ramos","Asociación de Jóvenes","449","G-30496186","C/Ancha 9 Zarcilla de Ramos   ","30810","","","661 397 607","","","07/03/1995 0:00:00"
"Club de Pensionistas de La Escucha","Club de Pensionistas","350","G-73121261","La Escucha, El Estanco buzon nº 48  ","30813","","","678282202","","","23/01/2001 0:00:00"
"Asociacion ILITIA DE LORCA","Asociación con Fines Asistenciales","196","G-73219123","Avda. Santa Clara, nº15,  Edif. Oasis 5ºC   ","30800","","","654 352 709","","ilitia-lorca@hotmail.com",""
"Asociacion de Viudas Virgen del Alcazar","Asociación de Mujeres","13","G-30120620","C/ José Mouliaá, 12","30800","","","606350613","","","01/01/1986 0:00:00"
"Federacion de Asociaciones Festivo-Cultural San Clemente","Asociación de Animación Sociocultural","476","G-30289383","Alameda Poeta Gimeno Castellar (Morico)","30800","","","618 896 974","","torrespolon@yahoo.es",""
"AAVV de Purias","Sin Tipo","","","Camino de Las Escuelas, Local Social, panel 28, buzón 1","","","","627 927 616-968 482 550","","aavvpurias@hormail.com",""
"Asociacion Cultural Juvenil Barrio de San Cristobal","Asociación de Jóvenes","191","G-73021487","C/Eulogio Periago, nº2 ","30800","","","680486011","","acjpasoencarnado@gmail.com",""
"Asociacion Jovenes Estudiantes de Lorca","Sin Tipo","","","C/Charco, nº2      30800 Lorca","","","","680486011","","",""
"Asociacion Juvenil La Escucha","Sin Tipo","","","Crta, de Pulpi-urb los jopos (La Escucha)   30813 Lorca","","","","619130021","","",""
"Asociación de Mujeres de Avilés","Asociación de Mujeres","56","G-30430268","Dip. Avilés, Barrio Rocío, ","30812","","","669882080 - 648 882 774 ","","catiaviles@live.com","18/10/1994 0:00:00"
"Asociación Lorquina de Padres contra la Droga (NYPACOLD)","Asociación con Fines Asistenciales","163","G-30367353","C/Fernando V, 2   bajo","30800","","","606 344 825","","nypacold@nypacold.com",""
"Asociación de Promoción al Deficiente (ASPRODES)","Asociación de Discapacitados","482","G-30033146","Dip. De Purias, Ctra. Altobordo","30800","","","968 482 323","968 482 323                                       ","asprodes_administracion@wimaxonline.es - psicologo@asprodes.com","01/01/1977 0:00:00"
"Club de Pensionistas y Jubilados de Cazalla","Club de Pensionistas","153","G-73031775","Travesía de la Asociación, nº 7 C, Panel 52, Dip. Cazalla  ","30818","","","968 462 240","","",""
"Union de Agricultores y Ganaderos de Lorca (COAG-Lorca)","Organizaciones Profesionales","236","G-30240543","C/ Horno, nº 91","30800","","","968 467696","968 471502                                        ","contabilidad@coaglorca.org","01/01/1990 0:00:00"
"Club de Pensionistas y Jubilados de Zarzadilla de Totana","Club de Pensionistas","365","","Centro Social de Zarzadilla de Totana  ","30814","","","968494062","","","12/05/1998 0:00:00"
"Club de Pensionistas de Las Terreras","Sin Tipo","","","Centro Social de Las Terreras. Dip. La Paca   30812   Lorca","","","","968491556","","",""
"Club de Pensionistas y Jubilados  de Virgen de las Huertas","Club de Pensionistas","376","G-30588073","Plaza del Rey Sabio s/n    ","30800","","","630 446 884","","",""
"Club de Pensionistas y Jubilados de San José de Lorca","Club de Pensionistas","358","G-73158479","Placeta de San Jose (Parque Pepe Plazas), 15    ","30800","","","679830611","","",""
"Club de Pensionistas y Jubilados del Centro Social Paso a Nivel.","Club de Pensionistas","131","G-30586408","Avda. Cervantes s/n   ","30800","","","696 222 014","","",""
"Club de Pensionistas y Jubilados de la Viña","Club de Pensionistas","101","G-30583124","c/ Guillermo Oliver, s/n","30800","","","619 0047 61","","","26/02/1998 0:00:00"
"Asociación de Mujeres Sagrada Familia","Asociación de Mujeres","55","G-30436075","Almda de Cervantes, 18, 5ºC   30800 Lorca","","","","968465751","","",""
"Asociación de Mujeres de La Paca","Asociación de Mujeres","242","G-30526677","C/Juan Carlos I, Nº49  Dip. La Paca  30812 Lorca","30812","","","968491133","","mcarmen.martinez41@gmail.com","21/11/1996 0:00:00"
"Asociación de Mujeres de la Escucha","Asociación de Mujeres","169","G-73109092","Dip. La Escucha, Centro Social","30813","","","968 482 849","","","11/09/2000 0:00:00"
"Asociación de Vecinos Barrio San Antonio","Asociación de Vecinos","300","G-30287320","Parque Mariscal P. Musso s/n","30800","","","619196907","","","30/09/1980 0:00:00"
"Asociación de Vecinos  La Viña de San Juan","Asociación de Vecinos","375","G-73567760","c/ Agricultores, nº3, bajo","30800","","","697 759 195","","caty.j@hotmail.es","12/02/2008 0:00:00"
"Asociación de Mujeres de la Escarihuela","Asociación de Mujeres","492","G-73327520","Centro Social de la Escarihuela- Diputación La Escucha ","30813","","","618882343","","","03/08/2004 0:00:00"
"Asociacion de Mujeres de Zarzalico","Asociación de Mujeres","256","G-73362634"," Local Social de Zarzalico, Venta la Petra, Dip. Zarzalico. ","30890","","","629656561 -Encarna-","968401251","isa@ventalapetra.com","16/02/2005 0:00:00"
"Asociacion de Mujeres de Zúñiga","Asociación de Mujeres","325","G-73524456","C/ Fátima, Dipt. Zúñiga, s/n","30814","","","647787854","","","02/04/2007 0:00:00"
"Club de Pensionistas y Jubilados de la Escarihuela","Club de Pensionistas","351","","Centro Social de La Escarihuela, s/n","30813","","","968485592","","","02/06/2006 0:00:00"
"Club de Pensionistas y Jubilados de Purias","Club de Pensionistas","353","G-30524805","Camino de las Monjas, Dip. de Purias","30813","","","","","","24/06/1996 0:00:00"
"Asociacion Local de Amas de Casa, Consumidores y Usuarios de Lorca"," Asociación de Amas de Casa","2","G-30539399","C/ Zorrilla, nº3","30800","","","610708679","","carevefernandez@hotmail.com",""
"Asociacion de Mujeres Trece Rosas ","Asociación de Mujeres","314","G-73467219","C/Corredera, 12-2º H   ","30800","","","677423407","968479716","dori_pm@hotmail.com","07/10/2005 0:00:00"
"Club de Pensionistas y Jubilados de los Ángeles","Club de Pensionistas","218","G-73019200","Nuevo Parque s/n (Los Ángeles)","30800","","","659618601","","","08/01/2011 0:00:00"
"Club de Pensionistas y Jubilados de Almendricos","Club de Pensionistas","152","G-30484497","C/Mayor, 59 Dip.Almendricos","30893","","","968 440 115","968 440 115                                       ","i.ayala@mediadoreslaestrella.es","28/04/2004 0:00:00"
"Asociación de Vecinos L a Paz de Almendricos","Asociación de Vecinos","11","","C/Mayor, 59. Dip.Almendricos","30893","","","968440115","","i.ayala@mediadoreslaestrella.es",""
"Club de Pensionistas y Jubilados de Calvario de Lorca","Club de Pensionistas","347","G-30595953","C/Alonso Vargas, 5   ","30800","20/04/1998","","968463562","","",""
"Club de Pensinistas y Jubilados de la Diputación de Aviles","Club de Pensionistas","151","G-73021669","Dip. Avilés, Centro Social","30812","","","606237188","","",""
"Club de Pensionistas y Jubilados de Coy","Club de Pensionistas","344","G-73021503","C/ Consultorio (Coy)","30812","","","968499111","","",""
"Club de Pensionistas de Tercia","Club de Pensionistas","258","G-30410138","Camino de Villaespesa- Tercia","30815","","","","","","25/04/1994 0:00:00"
"Club de Pensionistas y Jubilados de La Campana","Club de Pensionistas","346","G-30487466","El Cabildo y La Campana-Pozo Higuera, buzon 75  ","30813","","","617678988","","",""
"AAVV Virgen de Las Huertas","Sin Tipo","","","C/Casicas, 24 Dip. Tiata  30800 Lorca","","","","659991277","","",""
"Asociación de Vecinos de Doña Inés","Asociación de Vecinos","62","G-30467880","Dip. Doña Inés, C/ Escuela","30812","","","679 042 148 - 968 491537","","",""
"Asociación de Vecinos de Bejar","Asociación de Vecinos","434","G-73050338","Local social parroquial de Diputación de Béjar-Avda. Juan Carlos I, 45","30890","","","637 544 867","","encarna.bejar@gmail.com","28/04/2004 0:00:00"
"Asociación de Vecinos Zona Centro","Asociación de Vecinos","506","G-30570931","Centro Social San José, Parque Pepe Lizarán, Edif. nº 1, Bajo","30800","","","696 722 534","","","10/05/2003 0:00:00"
"Asociación de Vecinos Cervantes","Asociación de Vecinos","6","","Alameda de Cervantes, nº 7. Centro Social. Paso a nivel","30800","","","649773260","","cervantes@vecinoslorca.com",""
"Asociación de Vecinos Rabaleros","Asociación de Vecinos","402","G-73600074","C/ Charco, s/n","30800","","","651 753 223","","arrabaleros@yahoo.es","01/06/2009 0:00:00"
"Asociación de Vecinos Caserio de las Palas","Asociación de Vecinos","95","G-30582993","Paraje Pantano de Puentes, buzon 4   30811 Lorca","30811","","","968 438 611","","","10/10/1997 0:00:00"
"Asociación de Vecinos de Torrealvilla","Asociación de Vecinos","94","G-30592208","Dip. Torrealvilla, 32  30800 Lorca","30814","","","653822114 - 968438105","","",""
"Asociación de Vecinos Virgen del Pilar de Aguaderas","Asociación de Vecinos","14","G-30252449","Crtra de Campo López, buzón 24-A. Panel 10","30813","","","630 918 310","","aavvaguaderas@gmail.com","10/11/1989 0:00:00"
"AAVV E l Cantal","Sin Tipo","","","Dip. El Garrobillo El Cantal 30889 Lorca","","","","968438410","","",""
"Asociación de Vecinos de Zarzalico","Asociación de Vecinos","493","G-73050510","Local Social de Zarzalico","30890","","","","","avzarzalico@gmail.com","28/04/1998 0:00:00"
"Asociación de Vecinos de Pulgara","Asociación de Vecinos","162","G-73062812","Dip. Pulgara, Camino de Castejón","30800","","","659 406 200","","","01/01/1999 0:00:00"
"Asociación de Vecinos Los Cegarras-Nogalte","Asociación de Vecinos","137","G-73073298","Diputacion de Nogalte, panel 1, buzón 4, nº 61 - ","30890","","","968439253-686 091 330","","mariadenogalte@hormail.com",""
"Asociación de Vecinos de Puntas de Calnegre","Asociación de Vecinos","195","G-73197196","Puntas de Calnegre,s/n ","30878","","","616 937 446","","",""
"AAVV San Diego-Avda. Europa","Sin Tipo","","","Avda. Europa, 31, 3ºH  30800 Lorca","","","","629458806","","",""
"Asociación de Vecinos La Escarihuela","Asociación de Vecinos","211","G-73219057","La Escucha, Escarihuela, buzon nº 7. 30813 Lorca","30813","","","607549300","","","21/10/2002 0:00:00"
"Asociación de Vecinos de Jarales de Lorca","Asociación de Vecinos","384","J-73577231","Dip.. Jarales - Junto Ermita","30811","","","616 266 920","","davidjarales@hotmail.com","06/02/2008 0:00:00"
"Club de Pensionistas y Jubilados de Ramonete","Club de Pensionistas","366","G-73297574","Local Social, Las Librilleras, s/n","30876","","","609330351","","mcalvoz@terra.es","13/02/2004 0:00:00"
"Club de Pensionistas y Jubilados de la Diputación de Rio","Club de Pensionistas","468","G-30596381","Centro Social de Diputación Rïo","30812","","","639 685 392","","",""
"Club Pensionistas  y Jubilados de Tiata","Sin Tipo","360","G-30590731","Camino Parador de los Seguras, panel 5, buzón nº 8","30800","","","652595097","","","20/03/1998 0:00:00"
"Club de Pensionistas y Jubilados de Doña Inés","Club de Pensionistas","361","G-73238685","C/ Escuelas. Diputación Doña Inés.","30812","","","968491540","","","30/12/2002 0:00:00"
"Asociacion de Animación Sociocultural del Barrio","Asociación con Fines Asistenciales","425","G-73636318","Ctra. de Caravaca, 4 - 5º G","30800","","","646 864 411","","asc.delbarrio@hotmail.com","07/04/2009 0:00:00"
"Asociación Lorca Biciudad","Asociación Deportiva","429","G-73526188","Alameda de la Constitución - Casa del Deporte","30800","","","617 470 635","968 477 386                                       ","info@lorcabiciudad.es","21/06/2007 0:00:00"
"Asociación Lorca-Activa","Asociación con Fines Asistenciales","277","G-73381485","Alameda Gimeno Castellar s/n. Edificio Noriko. 30800 Lorca","30800","","","637985637","","","15/05/2005 0:00:00"
"Coro de Cámara Modus Novus","Asociación Cultural","176","G-30366686","C/Eugenio úbeda, 2, -1º I","30800","","","868 926 329 / 616 098 496","","","17/01/1993 0:00:00"
"Cuadrilla de Ánimas de Zarzadilla de Totana","Cultural y tradiciones populares","286","G-30239099","C/ San Miguel, Zarzadilla de Totana, nº 28","30814","","","968494016/620939851/639323612/968460319","","","09/05/1990 0:00:00"
"Asociación Universitaria Musso Valiente","Sin Tipo","288","G-73413860","C/ Presbiterio Emilio García. Centro Cultural.","30800","","","968482807 - 660810176","","","05/01/2006 0:00:00"
"Asociación Cultural Cuadrilla de Aguaderas","Cultural y tradiciones populares","220","G-73203127","Salón Parroquial de Aguaderas","30815","","","638452201","","mariahernandezbenitez@gmail.com",""
"Asociación Folklore de Avilés,San Nicolás de Bari","Cultural y tradiciones populares","282","G-73405227","C/San Nicolás, 32. 30814. Lorca","30812","","","968491399/618377447","","","01/08/2005 0:00:00"
"Asociación Regional Murciana BDM Punto de Cultura","Asociación de Animación Sociocultural","222","G-73238362","C/ María Agustina, nº 1 - 7º C","30800","","","968478692","","",""
"Asociación Deportiva Cultural Club El Cejo","Asociación Deportiva","422","G-73624868","Crtra de Granada, nº71, esc.1, 2ºA","30800","","","609 229 133","","clubelcejo@gmail.com","18/03/2009 0:00:00"
"Consejo de la Juventud de Lorca","Asociación de Jóvenes","124","V-30469266","C/Jerez, nº 2, 3º A. ","30800","","","","","",""
"Asamblea Local de Cruz Roja","Asociación con Fines Asistenciales","244","","C/ Madre Teresa de Calcuta nº33-30800","30800","","","627 904 946","968477660","lorca@cruzroja.es",""
"Asociación Lorca Santiago","Asociación Cultural","334","","Hueto del Sastre, Casa del Deporte- 30800","30800","","","687 559 253","","lorcasantiago@hotmail.com","22/05/2002 0:00:00"
"Asociación Esclerosis Múltiple Area III","Asociación de Discapacitados","394","g-73596280","Alameda de Cervantes nº7 2º-C","30800","","","689 333 202","","","27/06/2008 0:00:00"
"Unión Comarcal de Comerciantes de Lorca","Organizaciones Empresariales","250","","C/ Abad de Los Arcos, nº3","30800","","","968 460 261","968 444604                                        ","comercialorca@hotmail.com","24/11/1992 0:00:00"
"Lorca Centro Comercial Abierto","Organizaciones Empresariales","235","G-73044216","C/ Abad de Los Arcos, nº3 (Edif. CECLOR)","30800","","","968 460 261","968444604","","29/04/1999 0:00:00"
"Asociación Turístico-Cultural de Lorca CTUR","Asociación Cultural","159","G-73103962","Travesía Castillo Xiquena, nº2","30800","","","616 171 607","","","26/10/2000 0:00:00"
"Club de Pensionistas y Jubilados Alfonso X el Sabio","Club de Pensionistas","354","G-30582654","C/ Eras Altas de San José, s/n","30800","","","660 959 356","","","04/03/1998 0:00:00"
"Club de Pensionistas y Jubilados de Zarcilla de Ramos","Club de Pensionistas","352","G-73023475","C/ Transformador, Local de los Mayores","30810","","","968 499 384","","","09/11/1998 0:00:00"
"Asociación Club de Pensionistas de Los Barrios Altos de Santa María","Club de Pensionistas","397","G-73591026","C/ Sicilia s/n","30800","","","666 925 395","","","29/02/2008 0:00:00"
"Asociación de Mujeres de Tercia","Asociación de Mujeres","45","G-30430961","Dip. Tercia, Camino de Villaespesa, nº 171","30815","","","627 520 562","","montseroiz-1965@hotmail.com","21/03/1994 0:00:00"
"Asociación El Buen Camino","Asociación con Fines Asistenciales","267","G-30470728","Camino de Pina, nº4- Diputación de Tercia","30815","","","968 470 162- 696 318 041","968470162","elbuencamino@live.com","16/06/1995 0:00:00"
"Asociación CUIDALOR","Asociación con Fines Asistenciales","213","","C/ Albañilería, nº3- 2ºA","30800","","","968 477 761- 901 707 423","","","21/04/2003 0:00:00"
"Club de Pensionistas y Jubilados de Morata","Club de Pensionistas","385","G-73575615","Local Social de La Ermita","30878","","","","","","12/03/2008 0:00:00"
"Asociación Club de Pensionistas y Jubilados de La Pulgara","Sin Tipo","370","G-73376808","Camino de Castejón- La Pulgara","30800","","","666 296 763","","","11/04/2005 0:00:00"
"Asociación Murciana de Rehabilitación Psicosocial","Asociación con Fines Asistenciales","471","G-73212987","C/ Impresores, nº4","30800","","","618 818 201","868 951 776                                       ","lpelegrin@isdmurcia.org","31/10/2002 0:00:00"
"Asociación de Mujeres de Puerto Muriel","Asociación de Mujeres","488","J73497539","Dip. Morata, Puerto Muriel","30878","","","699 706 428","","","30/09/2006 0:00:00"
"Asociación comarcal de Marquistas del Automóvil de Lorca (VEHILOR)","Organizaciones Empresariales","381","G-73542490","C/ Horno, nº46","30800","","","968 461 513","968 472 437                                       ","fiscal@sfgestion. com","01/02/2008 0:00:00"
"Club de Pensionistas y Jubilados de La Hoya","Club de Pensionistas","359","G-73027120","Ctra. Hinojar s/n","30816","","","67 854 544 - 968481603","","","07/01/1999 0:00:00"
"Asociación de Vecinos Venta Ceferino","Asociación de Vecinos","206","G-73183709","Venta Ceferino (La Escucha ), Buzón 19","30813","","","600 736 397","","","03/05/2002 0:00:00"
"Asociación de Mujeres La Integración","Asociación de Mujeres","36","G-30335657","Avda Antonio Campoy (Estación de Renfe), Almendricos: ","30893","","","659 881 760","","","18/06/1992 0:00:00"
"Comisiones Obreras Región de Murcia","Sindicalista","406","G-30099170","C/ Agustín de Betancourt, nº23, bajo","30800","","","968 469 319-968 410 128","","lorca@murcia.ccoo.es","21/07/1983 0:00:00"
"Club de Pensionistas y Jubilados de La Paca","Club de Pensionistas","364","G-73014250","C/ Centro de Salud nº1- Dip.La Paca","30812","","","968 491 261","","","04/12/1998 0:00:00"
"Asociación de Mujeres de Coy","Asociación de Mujeres","329","G-30492623","C/ Fuente de Abajo s/n. Dip Coy ","30812","","","630 730 301","","","24/01/2010 0:00:00"
"Asociación de Cirujanos Area 3","Organizaciones Profesionales","199","G-73129017","Travesía Juan Carlos I, Residencial Plaza Nueva, 8, planta 6ª P","30800","","","626 043 197","","gsdlv@hotmail.com","06/04/2001 0:00:00"
"Club de Pensionistas y Jubilados de San Cristóbal","Club de Pensionistas","343","G-30600191","C/ Huercal Overa","30800","","","","","","01/01/1986 0:00:00"
"Asociación de Padres de Alumnos La Merced del Colegio Madre de Dios Madres Mercedarias","Asociación de Padres y Madres de Alumnos","156","G-30064224","C/ Zapatería s/n","30800","","","968 442 311","","",""
"Asociación de Mujeres de Alameda de Cervantes","Asociación de Mujeres","50","G-30433502","Alameda de Cervantes s/n","30800","","","660 697 987","","",""
"Centro de Promoción Social de la Mujer del Barrio de Santiago","Asociación de Mujeres","29","G-30386783","C/ Rubira, nº13, bajo","30800","","","647 215 694","","","26/06/1993 0:00:00"
"Asociación de Mujeres de Torrealvilla","Asociación de Mujeres","377","g-73568586","Local Social Parroquial de torrealvilla, s/n","30814","","","968 438 105","","",""
"Asociación Cultural para Conservación de las Viejas Tradiciones de Tercia","Cultural y tradiciones populares","497","G-73618100","Molinas Tercia; Panel 21, buzón 11, nº14","30815","","","629 219 149","","molinajk@hormail.es","05/02/2009 0:00:00"
"Club  de Pensionistas de La Tova, La Parroquia","Sin Tipo","356","G-73043002","Avda. Forestal, s/n. La Tova","30811","","","677 268 283","","",""
"Asociación de Vecinos Riopar","Asociación de Vecinos","12","G-30256556","El Consejero, Panel 7, buzón 60-A","30811","","","686145594","","","16/06/1990 0:00:00"
"Asociación de Vecinos Virgen de la Piedad","Asociación de Vecinos","371","G-30590749","C/ Exma Diputación Provincial (local social)","30810","","","689973720","","","17/03/2007 0:00:00"
"Asociación Antiguas Alumnas del Colegio San Francisco","Asociación de Cooperación Social","89","G-30273486","Plaza del Negrito s/n (escalinata)","30800","","","669 375 364","","","07/04/1986 0:00:00"
"Asociación de de Madres y Padres de Alumnos del CEIP Ana Caicedo Richard, de Lorca","Asociación de Padres y Madres de Alumnos","421","G-73612616","Rancisco Escobar Barberán, nº35","30800","","","968 478 335","","anacaicedoampa@hormail.com","20/10/2008 0:00:00"
"Asociación de Mujeres de Purias","Asociación de Mujeres","70","G-30479760","Camino de Las Escuelas, panel 28, buzón 8","30813","","","610 787 777","","","18/09/1995 0:00:00"
"Club de Pensionistas y Jubilados de Torrecilla","Sin Tipo","102","G-73002412","Camino Cabalgadores s/n","30817","","","968 460 343","","","18/03/1998 0:00:00"
"Asociación de Vecinos de Morata","Asociación de Vecinos","119","G-30543201","Dip. Morata, Cuesta Morata","30878","","","639 606 854","","","01/01/1999 0:00:00"
"Asociación de Madres y Padres de Alumnos del C.P. Juan Navarro García","Asociación de Padres y Madres de Alumnos","165","G-30277222","C/ Mayor, Camino de las Escuelas","30816","","","660 334 782","","","16/01/2011 0:00:00"
"Asociación Profesional de Hosteleros de Lorca (HOSTELOR)","Organizaciones Profesionales","301","G-30322291","C/ Abad de Los Arcos, Edif. CECLOR, nº3, 3º","30800","","","968 460 261","968444604","hostelor@ceclor.net",""
"Sociedad Protectora de Animales Fauna Sol","Asociación con Fines Asistenciales","161","G-73120883","C/ Padre García, 23 bajo","30800","","","968 468 513","","","03/11/2000 0:00:00"
"Asociación de Mujeres de Diputación La Hoya","Asociación de Mujeres","327","G-30436059","Crtra Hinojar s/n","","","","676176 308","","","14/11/1994 0:00:00"
"Asociación de Mujeres de Cazalla","Asociación de Mujeres","64","G-30473540","Dip. Cazalla, Camino Vereda Alta, Local Social ","30800","","","968 444758- 669 228 850","","asomucazalla@hotmail.com","09/05/1995 0:00:00"
"Asociación de mujeres de Zarcilla de Ramos","Asociación de Mujeres","25","G-30373989","C/ Estanco nº4  de Diputación Zarcilla de Ram","30810","","","654 351 099","","","02/07/1993 0:00:00"
"Asociación de Mujeres de Ramonete","Asociación de Mujeres","495","G-73073561","Paraje La Lebrilleras, Diputación Ramonete","30876","","","649 120 257","","","25/02/2000 0:00:00"
"Asociación de Ayuda a Domicilio DAYLOR","Asociación con Fines Asistenciales","215","G-73248585","C/ Nogalte, nº21. 2º B","30800","","","968 442777","968 442777                                        ","daylor112@hotmail.com","20/05/2003 0:00:00"
"Asociación de Mujeres de Santa María","Asociación de Mujeres","40","G-30338560","C/ Sicilia s/n","30800","","","678 976 250","","",""
"Asociación de Mujeres de Zarzadilla","Asociación de Mujeres","105","G-73006744","Dip. Zarzadilla de Totana, C/ Constitución, s/n","30814","","","660 353 343","","","02/10/1998 0:00:00"
"Asociación de Vecinos Sierra de Pedro Ponce","Asociación de Vecinos","16","G30292460","Plaza de San Miguel s/n, Dip. Zarzadilla de Totana","30814","","","608 686 575","","","02/05/1980 0:00:00"
"Asociación de Mujeres del Barrio de los Ángeles","Asociación de Mujeres","41","G-30428981","Paseo de los Ángeles, 3 -Bajo","30800","","","968 441 019","","ginibermejo@gmail.com","04/10/1994 0:00:00"
"Asociación de Mujeres de Tiata","Asociación de Mujeres","42","G-30428361","Dip. Tiata, Camino Parador de los Seguras, s/n, Panel 5, Buzón 28","30800","","","669 311 545","","","07/10/1994 0:00:00"
"Asociación de Diabéticos de Lorca y su  Comarca (ADILOR)","Asociación de Discapacitados","111","G-73012627","Edificio Municipal ONG´S, C/Francisco Escobar Barberán s/n","30800","","","678 699 831- 647 585 241","","adiloryco@gmail.com","01/01/1998 0:00:00"
"AMPA I.E.S.O. Pedanías Altas","Sin Tipo","","","I.E.S.O. Pedanías Altas","","","","968 491 011","","",""
"Peña Madridista Ciudad del Sol","Asociación Deportiva","54","G-30209373","Residencial Plaza Real, bajo, 1º","30800","","","968 462 201","","pmadridistaciudadelsol@hotmail.com","22/02/1959 0:00:00"
"Asociación de Mujeres de la Dip. Rïo","Asociación de Mujeres","46","G-30429765","Diputación de Río, Barrio Corazón de María, s/n","30800","","","616 326 069","","","22/09/1994 0:00:00"
"Confederación Comarcal de Organizaciones Empresariales de Lorca -CECLOR-","Organizaciones Empresariales","232","G-30091441","C/ Abad de Los Arcos, nº3","30800","","","968 460261","968444604","ceclor@ceclor.net","01/10/1993 0:00:00"
"AJE Guadalentín (Asociación de Jóvenes Empresarios de la Comarca del Guadalentín)","Organizaciones Empresariales","302","","C/ Abad de los Arcos, nº3, 1º","30800","","","968 442 632 - 667241179","968442632","aje@ajeguadalentin.info- ajeguadalentin@gmail.com","01/12/2009 0:00:00"
"Asociación de Vecinos El Ramonete de Lorca","Asociación de Vecinos","15","G-30303119","Local Social, panel 7- buzón 247","30876","","","639 611 803","","aavvramonete@hotmail.es","16/01/1981 0:00:00"
"Asociación Lorquina de Enfermos de Parkinson (ASLEP)","Asociación de Discapacitados","186","G-73185159","C/ Río Guadalentín s/n, bajo","30800","","","661 573 735","","aslep-200@yahoo.es","11/04/2002 0:00:00"
"Asociación de Vecinos de La Purísima -Diputación de Hinojar","Asociación de Vecinos","171","G-30591325","Dipuatación de Hinojar a/n","30816","","","676 139 356","","","26/02/1998 0:00:00"
"Asociación Alzheimer Lorca y Otras Demencias","Asociación de Discapacitados","112","G-73014326","Alameda de Cervantes, nº60. Residencial La Palmeras, 2ªfase, bajo","30800","","","968 471 780","","alzheimerlorca@yahoo.es","20/11/1998 0:00:00"
"Asociación Centro de la Mujer de San José","Asociación de Mujeres","31","G-30283709","Parque Pepe Plazas y María Carrillo, nº1","30800","","","607 484 369","","","13/02/1991 0:00:00"
"Federación de Organizaciones de Mujeres de Lorca","Asociación de Mujeres","88","B-30381305","Asociación de Vecinos de San José","30800","","","646 394 434","","federmujerlorca@hotmail.com","01/07/1993 0:00:00"
"Asociación de Mujeres del Barrio de San Antonio","Asociación de Mujeres","51","G-30436281","C/ Mariscal Pedro Musso","30800","","","628 537 722- 686 905 893","","","20/12/1994 0:00:00"
"Asociación de Mujeres de Ramblilla de Tejares","Asociación de Mujeres","44","G-30430698","C/ Ortega de Melgares s/n, bajo","30800","","","618 771 728","","","17/09/1994 0:00:00"
"Centro de la Mujer del Calvario","Asociación de Mujeres","43","G-30359889","C/ Cabezo de Vélez","30800","","","","","",""
"Asociación de Vecinos Barrio Apolonia","Asociación de Vecinos","269","G-73169138","Avenida Fuerzas Armadas, nº41, bajo","30800","","","660 838 006","","padilla50@hormail.es","05/10/2001 0:00:00"
"Centro de la Mujer del Barrio Apolonia","Asociación de Mujeres","312","J-73192361","Avda Fuerzas Armadas nº41, bajo","30800","","","618 251 703","","","22/04/2003 0:00:00"
"Asociación de la Mujer de la Dipuración de La Torrecilla","Asociación de Mujeres","32","G-30382642","Camino Cabalgadores s/n","30817","","","676 032 707","","","01/01/2004 0:00:00"
"Club de Pensionistas y Jubilados de San Juan","Club de Pensionistas","363","G-73001943","Zapatería nº 17","30800","","","968 414 341","","",""
"Asociación de Amigos de la Egiptología de Lorca","Asociación Cultural","129","G-73027484","Avda Juan Carlos I, 54-4º (particular)","30800","","","620 889 538","","egiptologialorca@gmail.com","25/02/2005 0:00:00"
"Asociación de Vecinos La Purísima del Rincón de Los Carranzas.","Asociación de Vecinos","115","G-30437008","El Rincón de los Carranzas, Zarcilla de Ramos","30810","","","609 289 699","","","16/07/1994 0:00:00"
"Asociación Nuestra Señora de Lourdes de Lorca","Asociación Religiosa","164","G-73087637","Avda Juan Carlos I, Edif. Goya, bajo","30813","","","666 548 452","","","01/01/2001 0:00:00"
"Asociación Lorca Activa con el TDAH (Trastorno por déficit de atención e hiperactividad)","Asociación de Discapacitados","411","G-73606394","Avda de Cervantes nº22, 8º-D","30800","","","647 127 776","","lorcactivatdah@hotmail.com","30/05/2008 0:00:00"
"Asociación Española Contra el Cáncer","Asociación con Fines Asistenciales","21","G-28197564","C/ Narciso Yepes, nº7, bajo","30800","","","659 662 239","","fannyb7@gmail.com","01/01/1986 0:00:00"
"Asociacion de Mujeres Venta Ceferino","Asociación de Mujeres","491","G-73365884","Venta Ceferino, buzón 19","30813","","","680174343","","","02/12/2004 0:00:00"
"Asociación de Mujeres de Doña Inés","Asociación de Mujeres","93","G-30584452","C/ Las Escuelas, Dip. Doña Inés-","30812","","","618 546 449","","lamazu60@hotmail.com","19/11/1997 0:00:00"
"Club de Parapente Desnivel de Lorca","Asociación Deportiva","75","G-30308696","Avda de Portugal nº28, bajo","30800","","","968 443 076","968 444 784                                       ","pedro@asesoriajimenez.com","18/05/1991 0:00:00"
"Asociación de Vecinos de Río y Barranco Hondo","Asociación de Vecinos","238","G-30348254","C/ Corazón de María s/n","30817","","","619 563 963","","","26/03/2004 0:00:00"
"Asociación Internacional del Teléfono de la Esperanza (ASITES)","Asociación con Fines Asistenciales","181","G-85590685","C/ Martín Piñero, nº10, ático C","30800","","","968 471 829","","amites.lorca@telefonodelaesperanza.org.","18/04/1972 0:00:00"
"Asociación de Vecinos Las Oliveras","Asociación de Vecinos","306","G-30408611","Panel ES-04, buzón nº16, La Escucha","30813","","","","","","28/01/1981 0:00:00"
"Asociaición de Mujeres de Betania","Asociación de Mujeres","410","G-73612350","Santa Quiteria nº, 22, B","30800","","","968 473 795","","asobetania@yahoo.es","28/06/2008 0:00:00"
"Asociación de Mujeres Las Terreras","Asociación de Mujeres","404","G-73587685","Dip. La Paca, Las Terreras, Avda Juan Carlos I.","30812","","","678 770 973","","","17/06/2008 0:00:00"
"Asociación de Mujeres del Barrio de San Fernando","Asociación de Mujeres","73","G-30474126","Barrio de San Fernando (Local Social)","30800","","","687 016 548","","",""
"Club Ciudad de Lorca Fútbol Sala","Asociación Deportiva","272","G-73379562","Alameda de Cervantes, nº7, 6ºA","30800","","","606 867 772","968482452","pilariki33@hotmail.com","20/08/2004 0:00:00"
"Asociación de Enganches Lorca Ciudad del Sol","Asociaciones de ocio","279","G-73367864","C/ Lópe Gisbert nº30","30800","","","686970546 - 609620828","968461059","","21/04/2005 0:00:00"
"Asociación de Mujeres de San Lázaro","Asociación de Mujeres","47","G-30415624","C/Almazaro de bravo, nº16","30800","","","647 077 159- 661 930 048","","azuldisen2@hotmail.com","01/01/1994 0:00:00"
"Asociación de Vecinos Alfonso X El Sabio","Asociación de Vecinos","19","G-30252530","C/Travesía Benemérita,nº 2, 2ºB","30800","","","661 682 785","","","03/02/1983 0:00:00"
"Asociación de óvenes Javier Cervantes","Asociación de Jóvenes","200","G-30581763","Cº Hinojar, buzón 101- La Hoya nº12","30816","","","659  297 343","","","01/01/1991 0:00:00"
"Asociación de Mujeres Virgen de las Huertas","Asociación de Mujeres","494","","Plaza Rey el Sabio, s/n","30800","","","646 735 963","","","20/05/1993 0:00:00"
"Asociación de Mujeres de Marchena","Asociación de Mujeres","57","G-30435796","Local Josefina Olmos de Dip. de Marchena","30815","","","662 169 239","","","27/10/1994 0:00:00"
"Asociación de Mujeres de Riopar","Asociación de Mujeres","405","G-73003410","Local Social de Dipuatación Parrilla (El Consejero)","30811","","","968 436 072","","anabelenng@hormail.com","26/04/2004 0:00:00"
"Asociación de Mujeres de San Juan Bautista de Morata","Asociación de Mujeres","107","G-30596035","Local Social de Morata (Junto a la iglesia parroquial)","30878","","","610 222 910","","","22/05/1998 0:00:00"
"Colectivo Segundo Milenio","Asociación Cultural","182","G-30158349","Pasaje del Convento nº4, 3º-C","30800","","","","","","16/09/1988 0:00:00"
"Asociación de Vecinos Las Terreras","Asociación de Vecinos","424","G-73632457","C/ Palma, nº 11","30812","","","968 491 039","","","25/07/2008 0:00:00"
"Asociación de Personas Sordas de Lorca y Comarca (ASPERSOLOR)","Asociación de Discapacitados","38","G-30324180","C/ Travesía de Benemérita, 2. Bajo.","30800","","","686214627","www.aspersolor.blogspot.com                       ","sors.aspersolor@gmail.com","06/11/1991 0:00:00"
"Club de Pensionistas y Jubilados de Sutullena","Club de Pensionistas","368","G-73069080","Camino Hondo-Sutullena, nº 13","","","","677 286 959","","",""
"Asociación Minusválidos Ciudad del Sol","Sin Tipo","","","Casa ONG´S de Lorca","","","","","","",""
"Asociación de Antiguas Alumnas Madres Mercedarias de Lorca","Asociación con Fines Asistenciales","100","G-30531313","C/ Zapatería nº2","30800","","","968 442 311","","ineslorji@hotmail.com","02/10/1996 0:00:00"
"Asociación Lorquina de Fibromialgia y Fatiga Crónica (AFILOR)","Asociación de Discapacitados","401","G-73589582","C/ Enrique Zumel, nº23","30800","","","665 771 099","","afilor@hotmail.es","23/06/2008 0:00:00"
"Asociación de Epilepticos del Mediterráneo (AEPIM)","Asociación de Discapacitados","395","G-73596819","Dip. purias, Camino de los Bucanos 159","30813","","","636 653 498","","aepim@hotmail.es","07/08/2008 0:00:00"
"Club de Pensionistas y Jubilados de Marchena","Club de Pensionistas","357","G-30497713","Centro Social de Marchena, junto a las escuelas","30815","","","608 238 965","","","22/01/1999 0:00:00"
"Asociación Murcia Acoge","Asociación con Fines Asistenciales","122","G-30251953","Calle Ana Romero nº2, bajo","30800","","","968 473 272 - 687 282 927","","lorca-acoge@hotmail.com","01/01/1990 0:00:00"
"Asociación de Vecinos de Marchena","Asociación de Vecinos","91","G-30247654","Urbanización Huerto del Conde. Dip. Marchena","30815","","","695 594 585","","aavvmarchena@gmail.com","30/07/1990 0:00:00"
"Asociación de Discapacitados Físicos de Lorca y Comarca -ASDIFILOR-","Asociación con Fines Asistenciales","499","G-73765141","C/ Francisco Escobar Barberán, s/n","30800","","","601 054 085","","asdifilor@hotmail.es","31/05/2012 0:00:00"
"Ocio Creativo de Lorca","Asociación de Animación Sociocultural","201","G-73217234","Avda. Juan Carlos I, 53, Edificio San Patricio, 7º A","30800","","","968 477761","","","02/01/2003 0:00:00"
"Asociación Juvenil de Estudiantes y Deportistas de Lorca (A.J.E.D)","Asociación de Jóvenes","202","G-30498208","Camino Viejo del Puerto, 75","30800","","","","","","26/01/1996 0:00:00"
"Grupo de Coros y Danzas de Lorca","Asociación de Animación Sociocultural","3","G-30160634","C/ Eugenio Úbeda, 3, Bajo","30800","","","607366702","968461161","",""
"Asociación Jóvenes Bautistas de Lorca","Asociación Religiosa","203","G-73138984","C/ Juan XXIII, nº 5","30800","","","","","",""
"Asociación Juvenil Escala de Lorca","Asociación de Jóvenes","204","G-30460000","Carretera de Caravaca,  nº 1","30800","","","646466712 - 607461645","","",""
"Asociación de Amigos del Regimiento de Infantería Mallorca nº 13","Sin Tipo","205","G-30592422","Avda. Juan Carlos I, nº 82","30800","","","679409724","","","24/02/1998 0:00:00"
"Cofradía del Santísimo Cristo del Perdón - Paso Morado","Asociación Religiosa","207","G-30321095","C/ Nogalte, 25","30800","","","","","",""
"Asociación Juvenil Alfonso X El Sabio","Asociación de Jóvenes","208","G-30455661","C/ Sagrada Familia, 7","30800","","","","","",""
"Asociación Atenea Promoción y Desarrollo Social","Asociación de Cooperación Social","209","G-73231946","C/ Granero, Edificio Armonía, nº 3, 1º A","30800","","","677423407","","","18/03/2003 0:00:00"
"Asociación Juvenil y Cultural Paso Morao de Lorca","Asociación de Jóvenes","210","G-73232357","C/ Nogalte, 43","30800","","","","","",""
"Asociación Juvenil de Tercia","Asociación de Jóvenes","212","G-30427199","Camino Villaespesa, Dip. Tercia","30815","","","687853960","","","22/05/2003 0:00:00"
"Asociación Cultural Lorca Rock","Cultural y tradiciones populares","214","G-83667956","La Seda, nº 5","30800","","","968 406865","","","15/05/2003 0:00:00"
"Asociación de Comerciantes Centro Histórico de Lorca","Sin Tipo","216","G-73028078","C/ Espín Alta, 8 - Bajo","30800","","","","","",""
"Asociación de Cultura y Festejos del Barrio de San Cristóbal","Cultural y tradiciones populares","26","","C/ Nuestra Señora de los Dolores, Bloque 2º - 4º - D","30800","","","","","",""
"Asociación de Vecinos Vigen del Carmen de la Diputación de La Campana","Asociación de Vecinos","27","G30418628","C/ Los Valverdes, Panel 15, Buzón 35","30813","","","678065245","","","27/04/1994 0:00:00"
"Asociación Cultural Érase una vez Lorca","Asociación de Animación Sociocultural","217","G-73258063","Plaza Calderón de la Barca, nº 3","30800","","","","","","10/05/2003 0:00:00"
"Asociación Juvenil Ramblilla de San Lázaro","Asociación de Jóvenes","35","G-30331474","C/ Almazara de Bravo, nº 16","30800","","","968441588","","",""
"Asociación de Madres y Padres de Alumnos del C.P. Ntra. Sra. Virgen del Rosario de Ramonete","Asociación de Padres y Madres de Alumnos","219","G-73244022","Las Librilleras, s/n","30800","","","","","","14/03/2003 0:00:00"
"Plataforma Prosegregación El Empalme de Almendricos","Sin Tipo","221","G-73268195","C/ Patrón, s/n - Dip. Almendricos","30893","","","968485304","","",""
"Asociación Murciana de Fibromialgia y Fatiga Crónica, ASMUFIBRÓN.","Asociación con Fines Asistenciales","223","G-73143273","C/ Motor Mondéjar - La Escucha","30813","","","968936915; 687790879; 968439064","","asmufibrom@hotmail.com","01/01/2001 0:00:00"
"Asociación Eduteca","Asociación de Animación Sociocultural","224","G-73269250","Camino Viejo del Puerto, Buzón 48B","30800","","","","","","18/11/2003 0:00:00"
"Peña Motera Demoño Dojo","Asociación Deportiva","225","G-73304842","C/ Alonso Vargas, nº 2, 1ª Bj","30800","","","609828266","","","22/05/2001 0:00:00"
"Asociación de Voluntariado Medioambiental de Lorca (VODEMA)","Asociación de Defensa del Medioambiente.","226","G-73013872","Carretera de Caravaca,  Camino Yeseros, nº 5","30800","","","968461784","","lorquina2002@yahoo.es","24/07/1998 0:00:00"
"Asociación Juvenil del Instituto de Educación Secundaria Príncipe de Asturias","Asociación de Jóvenes","227","G-73308959","C/ Juan Antonio Dimas, nº 3","30800","","","968444121","968444121","ajiespa@hotmail.com","31/03/2004 0:00:00"
"Asociación de Mujeres del Barrio Alfonso X el Sabio","Asociación de Mujeres","39","G-30431506","C/ Tenor José Romeu, Centro Cívico","30800","","","679488562","","","23/11/1994 0:00:00"
"Club de Ajedrez Lorca","Asociación Deportiva","230","G-30346845","Alameda de la Constitución","30800","","","","","","31/12/1987 0:00:00"
"Asociación para la Cultura y Tiempo Libre de los Mayores de Lorca","Cultural y tradiciones populares","48","G-30219570","Plaza de la Concordia, 4","30800","","","","","",""
"Asociación de Madres y Padres de Alumnos del C.P. de Educación Infantil y Primaria Campillo","Asociación de Padres y Madres de Alumnos","49","G-30147144","Diputación de Campillo, Ctra. de Almenara, 20","30813","","","968 469 758","","","12/12/1980 0:00:00"
"Asociación Deportiva de Pesca Ciudad de Lorca","Asociación Deportiva","231","G-30458350","C/ La Seda 8 Bajo Edif. Las Terrazas","30800","","","","","","11/05/1994 0:00:00"
"Asociación de Madres y Padres Ana María de Haro del Colegio Público Juan González de Lorca.","Asociación de Padres y Madres de Alumnos","233","G-73318503","C/ Cañada de Morales, C.P. Juan González, nº 12","30800","","","678 666 587","968469160","","22/06/2004 0:00:00"
"Asociación de Comerciantes El Carmen","Organizaciones Empresariales","234","G-73059313","C/ Espín Alta, nº 8, Pta. 1ª ","30800","","","968460261","968444604","",""
"Coral Bartolomé Pérez Casas de Lorca","Asociación de Animación Sociocultural","52","G-30383772","C/ Poeta Gimeno Castellar, s/n.- Apartado de Correos nº 437","30800","","","669 300 298","","","13/10/1993 0:00:00"
"Asociación Gitana de Lorca","Asociación de Minorías Sociales","53","G-30426316","C/ Mayor  de San Pedro, 2","30800","","","","","",""
"Asociación Misión Río Lindo","Asociación de Cooperación Social","237","G-30365035","Avda. Juan Carlos I, nº 42. Esc. B. Pl 3ª","30800","","","","","","17/05/1993 0:00:00"
"Asociación Juvenil de La Viña","Asociación de Jóvenes","239","G-30271480","C/ Agricultores","30800","","","667245129","","asociacionjuvenillavina@yahoo.es","17/01/1990 0:00:00"
"Trazo Luminoso, Asociación Fotográfica Lorca","Asociación de Animación Sociocultural","58","G-30434393","Dip. Pulgara, 300","","","","","","",""
"Asociación de Padres de Alumnos del Instituto Mixto de Bachillerato num. 3 Ramón Arcas","Asociación de Padres y Madres de Alumnos","59","G-30293666","Avenida Juan Carlos I, nº 72","30800","","","618 253 772","","","30/10/2003 0:00:00"
"Asociación de Madres y Padres de Alumnos y Alumnas Colegio Público Ginés Pérez de Hita","Asociación de Padres y Madres de Alumnos","60","G-30117535","C/ Don Diego Pallarés Cachá","30800","","","620 679 290","","",""
"Asociación de Artesanos de Lorca (ARTELOR)","Organizaciones Profesionales","240","G-73080566","C/ Abad de los Arcos, nº 3","30800","","","968-444604","968-444604                                        ","central@ceclor.net","16/02/2000 0:00:00"
"Fundación 2001 - Global Nature","Asociación de Defensa del Medioambiente.","241","G-80707839","Corro del Postigo nº 1, Fuentes de Nava (Palencia)","34337","","","","","","23/07/1993 0:00:00"
"Asociación de Vecinos de San Pedro y Santa Ana","Asociación de Vecinos","243","G-30288419","Camino de las Escuelas. Local Social. Panel nº 28. Buzón 1.","30813","","","968482550","968482550","aavvpurias@hotmail.com","10/08/1979 0:00:00"
"Asociación de Padres de Alumnos del Instituto de Bachillerato Mixto nº 1 J. Ibáñez Martín","Asociación de Padres y Madres de Alumnos","61","G-30273395","C/ Jerónimo Santa Fe, s/n ","30800","","","606 157 448","","","07/12/2005 0:00:00"
"Asociación de Madres y Padres del Colegio Público de Purias","Asociación de Padres y Madres de Alumnos","245","G-30285340","CEIP PURIAS","30813","","","610787777","","","21/09/1974 0:00:00"
"Asociación de Mujeres de Pulgara","Asociación de Mujeres","65","G-30476030","Carretera de la Pulgara","30800","","","650 479 309","","","24/06/1995 0:00:00"
"Club Natación Lorca","Asociación Deportiva","246","G-30144885","C/ Juan Antonio Dimas, s/n. Complejo Deportivo Europa ","30800","","","656875860","","cnlorca@hotmail.com","05/11/1987 0:00:00"
"UNICEF - COMITÉ ESPAÑOL","Asociación de Cooperación Social","247","G-28382406","Alameda Fajardo el Bravo ","30800","","","968470188","","","29/11/2001 0:00:00"
"Muy Ilustre Cabildo de Nuestra Señora la Virgen de la Amargura, en la Real y Muy Ilustre Orden-Archicofradía de Nuestra Señora del Rosario -Paso Blanco-","Asociación Religiosa","248","G-30040372","Conjunto Monumental Santo Domingo, C/ Santo Domingo, nº 8","30800","","","","","secretaria@elpasoblanco.com",""
"Asociación de Empresas Turísticas de Interior del Término Municipal de Lorca y Puerto Lumbreras","Organizaciones Empresariales","249","G-73239923","C/ Jopos La Escucha, nº 11","30800","","","696961486","968438985","","08/07/2002 0:00:00"
"Asociación de Vecinos Barrios Altos - Santa María de Lorca","Asociación de Vecinos","251","G-73345845","C/ Sicilia, s/n","30800","","","968479716","","","09/07/2004 0:00:00"
"Asociación de Productores y Consumidores de Productos Naturales del Guadalentín"," Asociación de Amas de Casa","252","G-73291775","Avda. Juan Carlos, I, nº 39","30800","","","968441713","","",""
"Moto Club La Peñarrubia","Asociación Deportiva","253","G-73347577","Ctra. de la Estación, nº 57A","30817","","","628273406","968442745","","21/01/2005 0:00:00"
"Asociación de Mujeres de La Parroquia","Asociación de Mujeres","66","G-30477384","C/ Dr. Rodríguez, 1","30811","","","","","","01/01/1995 0:00:00"
"Asociación Juvenil ELIOCROCA","Asociación de Jóvenes","67","G-30429567","C/ Corredera, nº 60","30800","","","","","",""
"Asociación para el Fomento del Caballo","Asociación de Animación Sociocultural","69","G-30481741","Dip. Tercia, Camino de Cartagena, 71","","","","","","",""
"Club Petanca Ciudad de Lorca","Asociación Deportiva","254","G-30408744","Ctra. de Águilas. Dip. Campillo. Bz. 114","30816","","","661126764","","","20/12/1993 0:00:00"
"Club Deportivo San Cristóbal","Asociación Deportiva","255","G-30469894","Camino Cañaveral, nº 78, Buzón B","30813","","","686935403","968935403","montylorca@yahoo.es","07/09/1993 0:00:00"
"Club Ciclista Estructuras Lorca","Asociación Deportiva","257","G-73274276","San José Edificio Florencia Bajo","30800","","","659489390","","","14/10/2003 0:00:00"
"Lorca Club de Tenis","Asociación Deportiva","259","G-30457709","Polideportivo La Torrecilla","30800","","","646302458","","tenislorca@hotmail.es","27/09/1994 0:00:00"
"Asociación Juvenil Naltura, Escalada y Aventura","Asociación de Jóvenes","260","G-73373755","C/ General Eytier, nº 1. Pl. 3º. Pta F","30800","","","617704019","","","19/03/2005 0:00:00"
"Asociación Deportiva Plan Social","Asociación Deportiva","72","G-30449466","C/ Pio XII, 19","30800","","","","","",""
"Club de Petanca de San Diego","Asociación Deportiva","74","G-30404719","Parque Casa Mata, s/n","30800","","","","","",""
"Club Deportivo UNAGRAS","Asociación Deportiva","76","G-30485205","C/ La Seda, Edificio La Seda, B-3, 1º D","30800","","","968 444 947","","",""
"Asociación Juvenil Virgen de las Huertas","Asociación de Jóvenes","261","30369656-G","","","","","677190148","","","01/01/1991 0:00:00"
"Asociación de Alumnos de Enseñanzas Medias de Lorca","Asociación de Jóvenes","262","G-73370082","Camino Catanga, nº 8 (Purias)","30813","","","","","","07/06/2004 0:00:00"
"Asociación Juvenil de Tiata","Asociación de Jóvenes","263","G-73374241","Dip. Tiata, Camino Chaparros, Carril Tiznajo, nº 22","30800","","","","","","16/03/2005 0:00:00"
"Club de Tenis Los Álamos","Asociación Deportiva","77","G-30210504","Ctra. de Águilas, Km. 36","30800","","","968 461 300","968 465 650                                       ","clubdetenislosalamos@gmail.com",""
"Hueste de los Caballeros de Alonso Fajardo el Bravo","Asociación de Animación Sociocultural","78","G-30334700","Urbanización La Viña, Local Asociación de Vecinos","30800","","","","","","20/02/1989 0:00:00"
"Kabila Mudéjar de la Alhama de Lorca","Asociación de Animación Sociocultural","79","G-30336622","C/ Musso Valiente, 2, 6º C","30800","","","","","",""
"Asociación de Medineros de Ali Ibm Muhamad de Lorca","Asociación de Animación Sociocultural","80","G-30252415","C/ Narciso Yepes, 23","30800","","","","","",""
"Asociación de Madres y Padres de Alumnos del Conservatorio Profesional Narciso Yepes","Asociación de Padres y Madres de Alumnos","81","G-30293161","C/ Abad de los Arcos, 2 ","30800","","","968 441 514","","","13/05/1991 0:00:00"
"Club de Fútbol Almendricos","Asociación Deportiva","82","G-30523781","Dip. Almendricos, C/ Patrón","30893","","","968 440 102","","","03/09/1996 0:00:00"
"Asociación Deportiva Lorca Virgen de las Huertas","Asociación Deportiva","83","G-30520886","C/ La Seda, Edificio La Seda, B-3, 1º D","30800","","","968 444 947","","",""
"Lorca Club Golf","Asociación Deportiva","264","G-30569255","Avda. Juan Carlos I, 30","30800","","","968461707 - 629096841 (Juan Antonio)","968461707","lorcaclubdegolf@gmail.com","16/12/1999 0:00:00"
"Peña Atletic de Bilbao de Lorca","Asociación Deportiva","84","G-30523369","C/ Pérez Casas, nº 26","30800","","","","","",""
"Asociación Juvenil Las Terreras","Asociación de Jóvenes","265","G-73033904","Juan Carlos I, nº 6. Las Terreras, nº 6","30812","","","659336130","","","12/03/1999 0:00:00"
"Asociación de Familiares de Enfermos Mentales (ASOFEM)","Asociación de Discapacitados","85","G-30555130","C/ Pérez Casas, 93, Bajo","30800","","","968 471 180","968 471 180                                       ","asofem2003@hotmail.com","29/05/1997 0:00:00"
"Automóvil Club de Lorca","Asociación Deportiva","266","G-73058166","Avda. Fuerzas Armadas, nº 14","30800","","","630176750","968406692","","28/10/1999 0:00:00"
"Nerea Integración Social","Asociación con Fines Asistenciales","268","G-73373094","C/ Puente La Alberca, nº 6. Esc. 1ª. Pl. 3ª. Pta.A","30800","","","637406422","","","05/05/2005 0:00:00"
"Asociación de Mujeres Emprendedoras de Lorca","Asociación de Mujeres","86","G-30549323","Plaza del Trabajo, 2","30800","","","","","","21/04/1997 0:00:00"
"Área Comercial Corredera","Organizaciones Empresariales","270","G-3054865","C/ Corredera","30800","","","","","","22/04/1997 0:00:00"
"Asociación de Vecinos de la Pedanía de Avilés San Nicolás de Bari","Asociación de Vecinos","87","G-30565915","Dip. Avilés, Salón Social","30812","","","","","","21/12/2005 0:00:00"
"Peña Cultural Flamenca","Cultural y tradiciones populares","271","G-30246557","C/ Colmenarico, nº 12","30800","","","670063110","","","10/02/1989 0:00:00"
"PRODENI (PRO-DERECHOS DEL NIÑO Y DE LA NIÑA)","Asociación con Fines Asistenciales","90","G-29226131","C/ Nogalte, 36 - 1º B","30800","","","","","",""
"Asociación de Familias y Amigos de la Fundación Solidaridad y Reinserción Proyecto Hombre de Lorca","Asociación con Fines Asistenciales","96","","Avda. de Portugal, nº 16","30800","","","","","","12/11/1997 0:00:00"
"Asociación de Vecinos La Tova","Asociación de Vecinos","97","G-30124630","Local Social La Parroquia","","","","968 495 063","","",""
"Asociación Cultural Pañuelo Verde de La Paca","Asociación de Animación Sociocultural","98","G-30590111","Dip. La Paca, Centro Cultural, C/ Centro de Salud, s/n","30812","","","968 445 514","","",""
"Asociación Juvenil Cultural Nickelodeon de Lorca","Asociación de Jóvenes","273","G-73380503","C/ Panadería, nº 5, Pta. nº 1º D","30800","","","","","","13/04/2005 0:00:00"
"Asociación de Jóvenes de Doña Inés","Asociación de Jóvenes","274","G-30478036","","","","","","","","01/01/1995 0:00:00"
"Asociación de Padres de Alumnos del Colegio Público Alfonso X el Sabio","Asociación de Padres y Madres de Alumnos","103","G-30112585","C/ Sagrada Familia","30800","","","968 461 996","","",""
"Grupo Naturalista para la Defensa del Medio Ambiente  -ARDEA-","Asociación de Defensa del Medioambiente.","106","G-73007221","Travesía Ramón y Cajal, 1","30800","","","907 66 21 33 - 929 99 29 66","","","20/07/1998 0:00:00"
"Asociación Cultural ALBATROS (Talleres y Animación)","Asociación de Animación Sociocultural","108","G-73009094","C/ Paso Blanco, Universidad Popular","30800","","","651 583 076","968 460 912                                       ","","29/09/1998 0:00:00"
"Asociación Cultural SALAM","Asociación de Minorías Sociales","109","G-73004186","C/ Alburquerque, 15 - bajo","30800","","","968 460 737","","",""
"Asociación Mozos del Convento","Asociación de Animación Sociocultural","110","G-73002545","Dip. Tiata, Plaza del Rey Sabio, s/n","30800","","","608 469 613","","","01/01/1998 0:00:00"
"Asociación de Vecinos Barrio de San Lázaro","Asociación de Vecinos","276","G-30221535","Almazara Bravo, nº 16","30800","","","","","","01/01/2006 0:00:00"
"Asociación de Padres del Colegio Andrés García Soler","Asociación de Padres y Madres de Alumnos","113","G-30314587","C/ Cañada de Guevara","30800","","","968 443 606","","",""
"Asociación Cultuiral Cine-Club Paradiso","Asociación de Animación Sociocultural","114","G-30552566","Plaza Calderón de la Barca - Reatro Guerra","30800","","","968 471 377","","","12/06/1997 0:00:00"
"Asociación Juvenil, Cultural y Deportiva de Coy","Asociación de Jóvenes","116","G-30252613","C/ Camino de Doña Inés, s/n","30812","","","620 158 420","","pilar-coy@hotmail.com","10/06/2010 0:00:00"
"Asociación Deportiva Las Canales-Riopar","Asociación Deportiva","118","G-30550685","Los Canales (Iglesia)","30800","","","","","",""
"Asociación F.E.M.M.E.S.","Asociación con Fines Asistenciales","280","G-30043665","C/ Núñez de Arce, nº 9","30800","","","968 461706","","asociacionfemmes@hotmail.com","19/04/2005 0:00:00"
"Asociación de Mujeres Progresistas de Lorca","Asociación de Mujeres","281","G-30269039","Camino del Mojón (Tercia), nº 18","30815","","","661774428","","","24/05/1990 0:00:00"
"Asociación Folklórica Cultural San Miguel","Cultural y tradiciones populares","284","G-73415952","C/ Consultorio, nº 9, Zarzadilla de Totana","30814","","","968494141","","","25/11/2005 0:00:00"
"Asociación Cultural Primavera Cinematográfica","Asociación de Animación Sociocultural","120","G-73029852","C/ Presbítero Emilio García Navarro, Centro Cultural","30800","","","","","",""
"CLUB CICLISMO MURCIANO.COM","Asociación Deportiva","285","G-73414757","Alameda de Cervantes, nº 3, Pl 9º, Pta. D","30800","","","666842301","","correo@ciclismomurciano.com","30/12/2005 0:00:00"
"Asociación de Amigos del Judo: Judo Lorca.","Asociación Deportiva","287","G-73366015","C/ Guillén de Pina, nº 1. Pl 5º, Pta. G","30800","","","667439453","","judolorca@hotmail.es","21/01/2005 0:00:00"
"Familias Solidarias con el Pueblo Bielorruso","Asociación de Cooperación Social","121","G-73011447","C/ Eugenio Úbeda -Edifico Cruz Roja- , nº 7","30800","","","647 368 860","","familiassolidarias@lorca.es","13/04/2004 0:00:00"
"Asociación Deportiva Club Tae Kwon Do Lorca"," Asociación de Amas de Casa","289","G-30497424","C/ Guillermo García Oliver, nº 4","30800","","","616046690","868922894","","22/02/1996 0:00:00"
"Asociación Juvenil Alpinistas Tapena","Asociación de Jóvenes","291","G-73420796","C/ Narciso Yepes, nº 11","30800","","","626045825","","txuso85@hotmail.com","01/05/2005 0:00:00"
"Asociación Juvenil Deportivo-Cultural La Parroquia","Asociación de Jóvenes","292","G-30445605","Dip. La Parroquia. CL. Forestal. nº 1","30811","","","","","","27/02/1995 0:00:00"
"Hermandad de Labradores, Paso Azul","Asociación Religiosa","294","G-30040364","C/ Nogalte, nº 7","30800","","","968 47 20 77","","info@pasoazul.com",""
"Nueva Vida de Lorca","Asociación con Fines Asistenciales","295","G-73407629","C/ Cava, nº 10","30800","","","","","","05/10/2005 0:00:00"
"Asociación Bibliotecaria y Documentalista de Lorca","Asociación Cultural","296","G-73418337","C/ Santa Gertrudis (Marchena), Buzón nº 9","30800","","","","","","18/01/2006 0:00:00"
"Asociación Juvenil de Ocio Alternativo Qdamos","Asociación de Jóvenes","297","G-73430290","C/ Nogalte, nº 17. Pl 3º","30800","","","626710965","968460215","Q-DAMOS@HOTMAIL.COM","11/02/2006 0:00:00"
"Asociación de Padres con Hijos con Epilepsia de la Región de Murcia","Asociación con Fines Asistenciales","298","G-73420853","Barrio S. Cristóbal, C/ Abellaneda nº 31","30800","","","616554373 - 677019282","677019282","","05/12/2005 0:00:00"
"Asociacióin de Vecinos Beltrand de Diputación Sutullena","Asociación de Vecinos","123","G-30469076","Dip. Sutullena","30800","","","","","",""
"Kávila Muladíes de Lorca","Asociación de Animación Sociocultural","125","G-30550875","Alameda de Cervantes, Casa del Deporte","30800","","","699 709 915","","","28/04/1997 0:00:00"
"Asociación de Amigos del Museo Arqueológico de Lorca","Asociación Cultural","127","G-30332399","Plaza de Juan Morenom, s/n","30800","","","968 406 267","","",""
"Taller de Iniciativas Socioculturales y Medioambientales (TISOM)","Asociación de Defensa del Medioambiente.","128","G-73039109","Avda. Juan Carlos I, nº 18 - 9º D","30800","","","968 472 908 y 617 597 452","","","24/05/1999 0:00:00"
"ASOCIACIÓN CULTURAL TALLER DE MÚSICA","Asociación Cultural","130","G-73058562","C/ Turbinto, nº 7 - 4º E","30800","","","622669941","","jcpepecarrillo@gmail.com","20/10/1999 0:00:00"
"Asociación de Pensionistas y Jubilados Cervantes de Lorca","Club de Pensionistas","92","g-30586408","C/ Carlos Barberán, nº 1 - Bajo","30800","","","968 469 904","","","27/02/1998 0:00:00"
"Asociación Lorquina Amigos de las Motos Antiguas","Asociaciones de ocio","132","G-73068686","C/ Fernando el Santo, 3","30800","","","607 606 475","","","02/11/1999 0:00:00"
"Asociación Juvenil de Estudiantes C.P. José Robles","Asociación de Jóvenes","133","G-73070559","Alameda de los Tristes, s/n","30800","","","968 468 726","","",""
"Club de Motociclismo Peña Motera Los Colegas","Asociación Deportiva","134","G-73063513","Ctra. de la Almenara, 184","30813","","","607 317 407","","motociclismoloscolegas@hotmail.com","28/10/1999 0:00:00"
"Asociación Cultural Baile de Salón Ciudad del Sol (SODELON)","Asociación Cultural","135","G-73073173","Dip. Campillo, Ctra. de Águilas, 86","30800","","","","","",""
"Asociación de Atención al Drogodependiente Quiero","Asociación con Fines Asistenciales","136","G-30478556","C/ Fernando V, nº 2","30800","","","968 478 092","","",""
"Asociación El Empalme de Almendricos","Asociación de Vecinos","303","G-73402885","Dip. Almendricos - C/ Mayor. nº 16","30893","","","968485034","","","06/11/2005 0:00:00"
"Asociación de Ayuda y Compañía (AYUDACOM)","Asociación con Fines Asistenciales","304","G-73425290","Alameda de Cervantes, nº 11. Pl. 2 Pta. D","30800","","","628627889","","",""
"Cuadrilla de Ánimas de La Torrecilla","Asociación de Animación Sociocultural","138","G-30585988","La Torrecilla, Ermita de Burruezo, 10","30817","","","658 256 888","","cuadrillatorrecilla@hotmail.com","02/02/2000 0:00:00"
"Club de Aeromodelismo R.C. Guadalentín","Asociación Deportiva","305","G-30342380","C/ Señor de la Penitencia, nº 4, Esc. 2, Pl 3. Pta. A","30800","","","","","joaquinsanchezguillen@hotmail.com","06/06/1987 0:00:00"
"APA del Instituto de Bachillerato Mixto nº 2 de Lorca","Asociación de Padres y Madres de Alumnos","139","G-30295232","C/ María Agustina, s/n","30800","","","","","",""
"Club de Pensionistas y Jubilados de Ramblilla de San Lázaro","Club de Pensionistas","140","G-73038713","C/ Almazara de Bravo, nº 1 (Centro Social de San Lázaro)","30800","","","868925625","","",""
"Asociación Deportivo y Cultural Águilas Cojas","Asociación Deportiva","307","G-73456006","Avda. Juan Carlos I, nº 40-6º-A","30800","","","","","","03/12/2005 0:00:00"
"Asociación de Ayuda al Jugador de Azar Región de Murcia y otros Puertos Solidarios (AJAREM-PS)","Asociación con Fines Asistenciales","308","G-73103772","Avda. Juan Carlos I, nº 5, Esc. 1ª, Pl 5º, Pta A","30800","","","607297234","","ajarem-online@hotmail.com","11/04/2000 0:00:00"
"Asociación para la Formación y Educación Sociocultural (AFES)","Asociación de Animación Sociocultural","309","G-73447427","Avda. Juan Carlos 1, nº 18  (Residencial Plaza Nueva) 2º Q. Pta 8","30800","","","696634768","","","25/05/2007 0:00:00"
"Asociación Escuela de Fútbol Pedanías Altas de Lorca","Asociación Deportiva","310","G-73450579","C/ Pérez Casas, nº83","30800","","","669773068","","visori@wanadoo.es","25/04/2006 0:00:00"
"Ayuda a los Niños de Bolivia","Asociación con Fines Asistenciales","311","G-73400913","C/ Los Guiraos, nº 15","30800","","","968460487","","","14/10/2005 0:00:00"
"Asociación Cultural Cuadrilla de Auroros de Lorca","Asociación Cultural","313","G-73444820","C/ Franco, nº 17","30800","","","659659648","","peregil@aol.es","30/01/2006 0:00:00"
"Asociación Araune Mediación","Asociación con Fines Asistenciales","315","G-73484289","Avda. Juan Carlos I, 4º A","30800","","","610949185","","","14/09/2006 0:00:00"
"Asociación Lorquina de Estudios Gerontológicos","Asociación con Fines Asistenciales","316","G-73293920","Alameda Virgen de las Huertas, nº 125","","","","","","","02/12/2003 0:00:00"
"Asociación Cultural Lorca Baila Conmigo","Asociación Cultural","317","G-73477903","C/ Morería, Residencial Mirador, Dúplex 42","30800","","","696469111","","lorcabailaconmigo@hotmail.com","30/03/2006 0:00:00"
"Club Rítmica Helionova","Asociación Deportiva","318","G-73417941","Casa del Deporte, Alameda de la Constitución, s/n","30800","","","","","laura-jl@hotmail.com","03/01/2006 0:00:00"
"Club Balonmano Lorca","Asociación Deportiva","319","G-73478968","Avda. Santa Clara, nº 12, 4º A","30800","","","655424868","","cblorca@cblorca.es","02/10/2006 0:00:00"
"Sociedad de Cazadores de Lorca","Asociación Deportiva","320","G-30343446","C/ Plaza de España, nº 1","30800","","","968462273","968441884","","14/09/1992 0:00:00"
"Asociación Artesano Cultural de las Tierras Altas de Lorca","Asociación Cultural","321","G-73512774","C/ Plaza La Cuesta, nº 1","30812","","","968491399","","",""
"Asociación Juvenil Deportivo Cultural de Avilés","Asociación de Jóvenes","322","G-30485189","Barrio del Rocío, s/n","30812","","","633379865","","marive10@hotmail.com","02/03/2009 0:00:00"
"Asociación de Anorexia Nerviosa y Bulimia Región de Murcia (ADANER)","Asociación con Fines Asistenciales","324","G-73246191","Ctra. de Caravaca, Cmno. Yeseros, nº 14","30800","","","968460581","","","03/07/1991 0:00:00"
"Archicofradía del Santísimo Cristo de la Sangre, Paso Encarnado.","Asociación Religiosa","326","G-30244883","C/ Eulogio Periago, nº 2","30800","","","968472456","","",""
"Asociación de Vecinos de Fontanares","Asociación de Vecinos","328","G-73541716","C/ Río, nº 10","30817","","","660576680","","antoniomiguelg1@gmail.com","10/08/2007 0:00:00"
"Club Pueblos Altos de Lorca","Asociación Deportiva","330","G-73470346","C/ Tudela, nº 35","","","","647543403","968491139","","28/09/2006 0:00:00"
"Asociación Ociocultura de Lorca","Asociaciones de ocio","331","G-73303307","C/ Los Veras, nº 30, Esc. 3, Pl. 3, Pta. G","30800","","","619479466","","","29/03/2004 0:00:00"
"Asociación de Padres de Alumnos del Centro Público de Educación Especial Pilar Soubrier de Lorca","Asociación de Padres y Madres de Alumnos","141","G-30266845","Urbanización La Viña - Colegio Pilar Soubrier","30800","","","","","",""
"Asociación de Padres de Alumnos del Colegio Público José Robles de Lorca","Asociación de Padres y Madres de Alumnos","142","G-30287957","Alameda de los Tristes, s/n","30800","","","659 396 002","","juana.serranovera@yahoo.com","11/12/2002 0:00:00"
"Asociación de Padres de Alumnos de la Graduada Mixta Comarcal de La Hoya de Lorca","Asociación de Padres y Madres de Alumnos","143","G-30277222","C.P.C. Juan Navarro García, C/ Mayor s/n. La Hoya","","","","","","",""
"Asociaci8ón de Padres de Alumnos Colegio Público Torrecilla","Asociación de Padres y Madres de Alumnos","144","G-30286025","Dip. Torrecilla, Ctra. de Granada s/n","30800","","","","","",""
"Asociación de Padres de Aumnos del Colegio Público San Cristóbal de Lorca","Asociación de Padres y Madres de Alumnos","145","G-30292718","Colegio Público San Cristóbal","30800","","","","","",""
"Asociación de Padres de Alumnos Escuela Infantil Eliosol de Lorca","Asociación de Padres y Madres de Alumnos","146","G-30503304","C/ Abellaneda","30800","","","","","",""
"Asociación de Madres y Padres de Alumnos del C.P. Virgen de las Huertas","Asociación de Padres y Madres de Alumnos","147","G-30285241","Dip. Cazalla, Vereda Alta, s/n","30818","","","","","",""
"Asociación de Madres y Padres de Alumnos del Colegio Ciudad del Sol","Asociación de Padres y Madres de Alumnos","148","G-73010688","Camino Viejo de San Julián, s/n","30800","","","968 477 687","","",""
"Asociación de Padres de Alumnos del Colegio Público Marchena","Asociación de Padres y Madres de Alumnos","149","G-30318778","Dip. Marchena, Colegio Público Narciso Yepes, Camino Condomina","30815","","","630 918 310","","agustin@aiaestudio.com","22/10/2003 0:00:00"
"Asociación de Madres y Padres de Alumnos del Colegio Público El Cambrón","Asociación de Padres y Madres de Alumnos","154","G-73095960","Dip. Parrilla, El Consejero","30811","","","","","",""
"Peña Valencianista Chémpions de Lorca","Asociación Deportiva","155","G-73097867","C/ Rebolloso, nº 9, 3º B","30800","","","968 470 188","","",""
"Asociación Cultural Taller de Albéniz Música","Asociación Cultural","157","G-73100703","C/ Santa Paula, 7 ","30800","","","","","",""
"Asociación para la Promoción de Actividades Turísticas y Culturales TURILOR","Asociación Cultural","158","G-73105553","Alameda Ramón y Cajal, Edificio Armonía, Esc. 3 - 2º A","30800","","","","","",""
"Federación de Asociaciones Familias Solidarias","Asociación de Cooperación Social","160","F-73067670","Alameda de Cervantes, Centro Social Paso a Nivel","30800","","","","","",""
"Asociación Cultural de Amigos del Flamenco Ciudad del Sol","Asociación Cultural","166","G-30415863","Dip. Cazalla, Travesía de la Sociación, nº 7, Panel 52","30818","","","650 491 250","","aso.culturalflamencalorca@hotmail.com",""
"Asociación Deportiva ELIOCROCA","Asociación Deportiva","167","G-30110001","C/ Wilaya del Aaiun, 4, bajo","30800","","","868 926 327","","","09/09/1981 0:00:00"
"Asociación de Padres de Alumnos del Col. Nal. Mixto de Zarzadilla de Totana","Asociación de Padres y Madres de Alumnos","168","G-30132112","Zarzadilla de Totana","","","","968 494 079","","",""
"Grupo de Coros y Danzas Virgen de las Huertas de Lorca","Cultural y tradiciones populares","172","G-30205009","Huerto de la Rueda, nº 1","30800","","","676356843","","","03/02/1986 0:00:00"
"Asociación de Madres y Padres de Alumnos del IES n 4 Príncipe de Asturias","Asociación de Padres y Madres de Alumnos","173","G-30371918","C/ Juan Antonio Dimas","30800","","","619 052 595","","",""
"Compañía Estable del Teatro Guerra de Lorca","Asociación Cultural","174","G-30324628","Plaza Calderón de la Barca, s/n","30800","","","686 668 662","","","01/01/1991 0:00:00"
"Asociación Colectivo Cultural Clase Dos","Asociación Cultural","175","G-73157778","Dip. Tiata, Partidor de los Morales, 23","30800","","","","","",""
"Asociación de Padres de Alumnos del Colegio Público Juan González de Lorca","Asociación de Padres y Madres de Alumnos","177","G-30258180","Cañada de Morales, s/n","30800","","","968 441 209","","",""
"Asociación de Mujeres Gitanas de Lorca Sinando Romis","Asociación de Minorías Sociales","178","G-73169443","C/ Andrés Pascual, nº 6","30800","","","968 477 354","","",""
"Asociación Juvenil Gitana Chavorrí Caló","Asociación de Minorías Sociales","179","G-73169377","C/ Andrés Pascual, nº 1","30800","","","673 169 377","","",""
"Asociación de Jóvenes de Purias","Asociación de Jóvenes","180","G-30335822","Dip. Purias, Camino de Las Monjas, s/n","30813","","","","","",""
"Asociación de Damas de la Virgen de la Piedad","Asociación Religiosa","183","G-73159543","C/ José Mouliaá, Casa del Paso Morado","30800","","","968 461 452","","",""
"Asociación para la Formación y Apoyo Permanente de la Pareja y Familia en la Región de Murcia (ASPAFA)","Asociación con Fines Asistenciales","184","G-30598163","C/ Fajardo el Bravo, 3 - 1º C -Edificio Vulcano-","30800","","","968 478 092","","",""
"Movimiento por la Paz, el Desarme y la Libertad","Asociación con Fines Asistenciales","187","G-30565097","C/ Pérez Casas, nº 96 . 3º, Izq.","30800","","","","","",""
"Asociación Juvenil Arrabal","Asociación de Jóvenes","188","G-73027922","C/ Charco, s/n","30800","","","","","",""
"Asociación de Minusválidos Físicos de Lorca","Asociación de Discapacitados","189","G-30043467","C/ Pascual Miras, 1","30800","","","","","",""
"Club Natación Masters A. Crol","Asociación Deportiva","190","G-73182487","C/ Carril de Caldereros, 33 - 3º -Izq.","30800","","","618 769 297","","","16/04/2002 0:00:00"
"Asociación Juvenil de Cazalla","Asociación de Jóvenes","192","J-30456580","Travesía de la Asociación, nº 7 C, Panel 52, Dip. Cazalla  ","30818","","","","","",""
"Lorca Deportiva C.F.","Asociación Deportiva","193","G-73057895","Marqués de los Vélez, 3 - bajo","30800","","","","","",""
"ASOCIACIÓN INTIRAYMI DE VOLUNTARIOS ECUATORIANOS POR LA CULTURA Y LA SOLIDARIDAD (AIVECS)","Asociación de Minorías Sociales","194","G-73210239","C/ Juan Francisco Potous, 26","30800","","","616 054 799 / 616079 000","","","21/10/2002 0:00:00"
"Khan Kubrat","Asociación con Fines Asistenciales","332","G-73529042","Avda. Juan Carlos I, Nº 8 Bj.","30800","","","968442760","655131322","khankubrat@yahoo.com","18/06/2007 0:00:00"
"Asociación Juvenil Paso Blanco -AJPB-","Asociación de Jóvenes","333","G73511313","C/ Santo Domingo, nº 8","30800","","","607940335","","ajpb-3@hotmail.com","26/12/2006 0:00:00"
"Asociación de Madres y Padres de Alumnos del IESO La Paca","Asociación de Padres y Madres de Alumnos","335","G-73239147","IESO Pedanías Altas","30812","","","","","","18/02/2003 0:00:00"
"Asociación Musicocultural Elioblues","Asociación Cultural","336","G-73558413","C/ Guillermo Oliver, 4, 2º A","30800","","","968472404","","losdestilados@hotmail.com","29/09/2007 0:00:00"
"Manos Unidas","Asociación Religiosa","337","G-28567790","C/ Lope Gisbert (Parroquia San Mateo)","30800","","","","","murcia@manosunidas.org","01/01/1960 0:00:00"
"Club de Motociclismo Ciudad de Lorca","Asociación Deportiva","338","G-73537946","Camino Apiche (Diputación Torrecilla). Buzón 21","30817","","","968485523","968785715","clubmclorca@yahoo.es","07/06/2007 0:00:00"
"Asociación Juvenil Lorca Musical","Asociación de Jóvenes","339","G-73561854","Carretera de Granada, Edf. Velánzquez, nº 43, Esc. 2, Pl 4, Pta. D","30800","","","660623204","968460215","lorcamusical@lorca.es","25/04/2007 0:00:00"
"Asociación Lorca Ahora","Sin Tipo","340","G-73562506","C/ Cuesta San Francisco, nº 7. Esc. 1. Pl C.","30800","","","650287990","","","04/12/2007 0:00:00"
"Asociación Juvenil San Clemente de Lorca","Asociación de Jóvenes","341","G-73559528","Alameda Poeta Gimeno Castellar, s/n. Ed. Noriko. Planta sótano.","30800","","","","","","07/03/2007 0:00:00"
"Asociación Banda de Cornetas y Tambores Sagrado Corazón de Jesús La Hoya.","Asociación Musical","342","G-73535353","Estación Ferrocarril, s/n (La Hoya)","30816","","","","","","23/01/2007 0:00:00"
"ASOCIACIÓN GITANA DE LORCA (SINELO CALO)","Asociación de Minorías Sociales","197","","C/ Abellán, num. 6","30800","","","","","",""
"ASOCIACIÓN CULTURAL BIBLIOSOL","Asociación Cultural","198","G-73191660","Alameda de Cervantes, nº 10 - 3º D","30800","","","600 022 508","","","10/07/2002 0:00:00"
"Club de Pensionistas y Jubilados de Campo López","Club de Pensionistas","345","G-73562373","Centro Social de Campo López en la diputación de Campo López.","30815","","","","","","10/06/2005 0:00:00"
"HERMANDAD VIRGEN DE LAS HUERTAS","Asociación Religiosa","378","G-30416226","Plaza del Rey Sabio, Apartado de Correos nº 400","30800","","","","","","03/06/1994 0:00:00"
"Asociación Anímate con Duendes de la Región de Murcia","Asociación con Fines Asistenciales","379","G-73566796","C/ Matadero, nº 2-2º B (Edificio El Barco)","30800","","","620 869 489","","","08/02/2008 0:00:00"
"Peña Almendriqueña","Asociación de Animación Sociocultural","380","G-73352684","Dip. Almendricos, C/ Antonio Campoy","30893","","","600 401 826","","","12/12/2003 0:00:00"
"Asociación Socioeducativa ALDEA ACTIVA","Asociación de Cooperación Social","382","G-73568388","Alameda de Cervantes, 16 - 8º C","30800","","","666 005 123","","","19/12/2007 0:00:00"
"Asociación Juvenil La Torrecilla","Asociación de Jóvenes","383","G-30455877","Ermita de Burruezo, Buzón 5","30817","","","687 277 263","","","11/12/2004 0:00:00"
"Asociación Ntra. Sra. Virgen de la Salud, la Hoya","Asociación Religiosa","386","G-73577918","Dip. La Hoya, C/ Mayor, Escuela Juan Navarro García","30816","","","968 481 747","","","05/12/2007 0:00:00"
"Club de Padel de Lorca","Asociación Deportiva","387","G-73472474","C/ Pio XII, 21 B 2º A","30800","","","609 886 864","","info@padelorca.es","08/08/2006 0:00:00"
"Asociación Deportivo Cultural Lorca Radio-Control de Automodelismo","Asociaciones de ocio","388","G-73573586","Alameda de Cervantes, nº 61 - 4º D","30800","","","609 216 499","","pegalfe@hotmail.com","28/01/2008 0:00:00"
"La Hoya Lorca, Club de Fútbol","Asociación Deportiva","389","G-73332645","Dip. La Hoya, Ctra. Nueva","30816","","","868 818 350","868 818 350                                       ","lahoyalorcacf@gmail.com","15/09/2002 0:00:00"
"Asociación Cultural Cena Pagana","Asociación Cultural","390","G-73581043","C/ Franco, 18","30800","","","620 876 909","","cenapagana@gmail.com","16/04/2008 0:00:00"
"Club de Pensionistas y Jubilados de Campillo","Club de Pensionistas","348","G-30305056","Centro Social del Campillo. Diputación Campillo.","30813","","","","","","10/11/1995 0:00:00"
"Asociación de Costaleros de Santa Ana de Felí","Asociación Religiosa","391","G-73370454","Dip. Purias, Ermita de Felí","30813","","","608 469 613","","","15/03/2005 0:00:00"
"Asociación de Criadores de Gallina de Raza Murciana","Organizaciones Empresariales","392","G-73584310","Dip. Purias, Camino Búcanos, Buzón 1-5","30813","","","639 786 751","","acriadmur@gmail.com",""
"Asociación Cultural Albaraka","Asociación Cultural","393","G-73564007","C/ Ortega melgares, 71 - 2º E","30800","","","968 472 514 / 648 601 609","","afi8970@hotmail.com","01/12/2007 0:00:00"
"FUNDACIÓN CHINGUETTI","Asociación con Fines Asistenciales","396","G-30757710","C/ Musso Valiente, 2, 5º D","30800","","","968 175 835","968 137 652                                       ","chinguetti@fundacionchiguetti.com","11/04/2002 0:00:00"
"Asociación Grupo Scout Ciudad del Sol","Asociación de Animación Sociocultural","398","G-73481236","C/ Leonés, Ap. Correos: 20","30800","","","968 464 008","968 463 414                                       ","scoutciudadsol@terra.es","07/06/2006 0:00:00"
"Club Monos Peluos","Asociación Deportiva","399","G-73590861","Vereda de Churra, nº 3, Panel 22 - Buzón 30","30815","","","629 631 718","","","03/07/2008 0:00:00"
"Asociación Comarcal de Empresarios de Ganadería y Agricultura de la Comarca del Guadalentín","Organizaciones Empresariales","403","G-73600744","C/ Abad de los Arcos, 3","30800","","","968 444 604","968 444 604                                       ","ceclor@ceclor.net","15/04/2008 0:00:00"
"Asociación Sociedad Activa","Asociación con Fines Asistenciales","407","G-73596538","C/ Cueto, 10","30800","","","636 973 008","","sociedadactivalorca@gmail.com","07/07/2008 0:00:00"
"Automóvil Club Zarcilla de Ramos","Asociación Deportiva","408","G-73612301","Dip. Zarcilla de Ramos, C/ Ancha, nº 9","30810","","","968 499 372","968 499 372                                       ","","25/11/2008 0:00:00"
"Asociación Amigos del Pradico Ermita de San Antón","Cultural y tradiciones populares","409","G-73609570","Dip. Parrilla, Local Social de Consejero","30811","","","","","","16/08/2008 0:00:00"
"Club de Pensionistas y Jubilados de Sagrada Familia.","Club de Pensionistas","355","30817","Centro Social de Sagrada Familia. Puente Resinoli. s/n","30817","","","","","","26/05/1998 0:00:00"
"Asociación Burkina Faso de Lorca","Asociación de Minorías Sociales","412","G-73605495","C/ Pedro Cárceles, 21","30800","","","680 960 843","","zas_ta@yahoo.fr","10/06/2008 0:00:00"
"ASOCIACIÓN PARA LA PROMOCIÓN SOCIO CULTURAL E INSERCIÓN LABORAL DE LA ETNIA GITANA Y OTROS COLECTIVOS EN RIESGO DE EXCLUSIÓN SOCIAL -ASPROSOCU-","Asociación de Minorías Sociales","413","G-30432231","Placica Nueva, 13, bajo","30800","","","868 922 123","868 922 123                                       ","lorca@asprosocu.org","30/11/1994 0:00:00"
"Unión de Pequeños Agricultores y Ganade3ros","Organizaciones Profesionales","414","G-30399653","C/ Nuñez de Arce, 2","30800","","","968 477 417","","","17/01/1994 0:00:00"
"Asociación Juvenil San Pedro, San Juan y Santa María","Asociación de Jóvenes","415","G-73618662","C/ Sicilia, 6","30800","","","677 711 563","","nuriapsanchez@hotmail.com","30/12/2008 0:00:00"
"Club de Pensionistas y Jubilados de San Antonio","Club de Pensionistas","349","G-30483176","Centro Social de San Antonio. Calle Mariscal Pedro Musso","30800","","","","","","13/03/1998 0:00:00"
"Asociación Cultural Deportiva de la Policía Local de Lorca ACUDEPOL 24","Asociación Cultural","416","G-73624389","Avda. Fuerzas Armadas (Cuartel Policía Local), s7n","30800","","","676 935 371","","","22/12/2008 0:00:00"
"Asociación Cultural Duende y Compás de Lorca","Asociación Cultural","417","G-73622870","Dip. Campillo, Ctra. de Águilas, nº 146 - 1º","30813","","","","","duendeycompasdelorca@gmail.com","05/12/2008 0:00:00"
"Asociación de Personas Mayores y Familiares Solidaridad Intergeneracional.","Asociación con Fines Asistenciales","418","G-49225980","Dip. Pulgara, s/n","30800","","","968 467 696","968 472 652                                       ","","10/03/2005 0:00:00"
"Asociación Juvenil Sutullena","Asociación de Jóvenes","419","G-73619306","Avda. de Sutullena, nº 2","30800","","","639 479 379","","",""
"Club de Pensionistas y Jubilados de Santa María","Club de Pensionistas","362","G-30594626","Centro Social de Santa María. C/ Sicilia, s/n","30800","","","","","","06/04/1998 0:00:00"
"Asociac ión Centro de Mediación","Asociación con Fines Asistenciales","420","G-73595282","C/Lope Gisbert, 36 - 3º - A","30800","","","968 449 275","968 449 275                                       ","mediacionyfamilia@telefonica",""
"Fundación Miguel Caballero","Asociación con Fines Asistenciales","423","G-73630584","Dip. Zarzadilla de Totana, C/ Grupo Escolar, 14","30814","","","638 413 499","","fundacionmiguelcabballero@gmail.com","03/02/2009 0:00:00"
"Asociación de Madres y Padres de Alumnos del Colegio Público San Fernando","Asociación de Padres y Madres de Alumnos","426","G-30028724","Avda. de Santa Clara, s/n","30800","","","968 465 022","968 465 571                                       ","",""
"Asociación de Guias Oficiales de Turismo de Lorca","Organizaciones Profesionales","427","G-73639973","C/ Juan Baenas, 18, esc. 2, Pl. 1ª A","30800","","","630 074 437","","guiartelorca@lorca.es","27/01/2009 0:00:00"
"Club Baloncesto Lorca","Asociación Deportiva","428","G-73639999","Dip. Tiata, C. Los Chaparros, 3","30800","","","607 471 750","","","02/07/2009 0:00:00"
"Lorca Fútbol Base","Asociación Deportiva","430","G-73639841","Avda. de Portugal, 28, bajo","30800","","","968 067 917 ","968 444 784                                       ","lorcafutbolbase@hotmail.com","14/07/2009 0:00:00"
"Asociación Amigos del Bonsai de Lorca","Asociaciones de ocio","431","G-73645897","C/José Mouliaá, 40","30800","","","619 391 719","","asociacionamigosdelbonsai@hotmail.com","22/06/2009 0:00:00"
"Asociación La Fábula (Asociación de Asistencia Psicosocial de la Región de Murcia)","Asociación con Fines Asistenciales","432","G-73577611","Alameda de la Constitucióin, s/n","30800","","","626 101 878","","jlmorlanes@hotmail.com","19/02/2008 0:00:00"
"Asociación Amigos de la Pasión de Lorca","Asociación Cultural","435","G-73545907","C/ Nogalte, 40, bajo","30800","","","","","","03/04/2008 0:00:00"
"ORGANIZACIÓN JUVENIL ESPAÑOLA","Asociación de Jóvenes","436","G-28556728","c/ Hernando de Burgos, 12","30800","","","665 832 226","","","18/07/1960 0:00:00"
"Asociación Scooter Club Lorca","Asociaciones de ocio","437","G-73628018","Alameda de la Constitución, junto casa del deporte, s/n","30800","","","687 949 553","","clementeromera@hotmail.com","30/01/2009 0:00:00"
"Club de Tenis Tie Break","Asociación Deportiva","438","G-73655151","C/ Quijero, 57","30800","","","610 812 863","","clubtiebreak@gmail.com","08/06/2009 0:00:00"
"Asociación de Autónomos para el Fomento de la Formación para el Empleo y la Competitividad en la Comunidad Autónoma de Murcia -AFMU-","Organizaciones Empresariales","439","G-73465684","Polígono Industrial Saprelorca, Paecela A","30817","","","670 099 655","","soporte@rentcomp.es","21/01/2006 0:00:00"
"Asociación de Cooperativas y Autónomos para el Fomento y Desarrollo Sociolaboral en Murcia -FECOMU-","Organizaciones Empresariales","440","G-73596561","Polígono Industrial Saprelorca, Paecela A","30817","","","670 216 528","","gestion1@jmf.es.telefonica.net","20/02/2006 0:00:00"
"Asociación Cuadrilla de Avilés","Cultural y tradiciones populares","367","G-73555328","C/ San Nicolás, nº 32","30812","","","968491399","","","04/11/2007 0:00:00"
"Asociación Juvenil La Loma de Lorca","Asociación de Jóvenes","369","G-73565814","C/ Arcipreste Montesinos, nº 13","30800","","","622749019","","","16/12/2007 0:00:00"
"Asociación Instituto de Desarrollo Comunitario de Murcia","Asociación de Cooperación Social","372","G-30485858","C/ Lope Gisbert, nº 18","30800","","","968257466","968351290","mercedes.idc@gmail.com","13/01/1995 0:00:00"
"Asociación de Vecinas y Vecinos Pedanía de Nogalte","Asociación de Vecinos","373","G-73567554","Diputación Nogalte, Panel 1, Buzón 4, nº 61","30890","","","686091330","","mariadenogalte@hotmail.com","02/01/2008 0:00:00"
"Asociación Club de Dardos Los Arcos","Asociaciones de ocio","441","G-73657017","C/ Los Arcos, nº 21","30800","","","678 624 494","","","18/12/2009 0:00:00"
"Asociación Cultural Virgen de los Dolores de Avilés","Asociación Cultural","442","G-73659666","Dip. Avilés, Barrio del Rocío, s/n","30812","","","686 975 438","","","06/10/2009 0:00:00"
"Club Ciclista La Hoya-Lorca","Asociación Deportiva","443","G-73653354","Ctra, del Hinojar - Local Asoc. Vecinos","30816","","","","","","01/11/2009 0:00:00"
"Ásociación de Pensionistas y Jubilados del Barrio de Apolonia La Candelaria.","Club de Pensionistas","444","G-73636441","Avda. Fuerzas Armadas, 32","30800","","","617837359","","","22/06/2009 0:00:00"
"Club Ajedrez Torre Alfonsina","Asociación Deportiva","445","G-73645707","C/ Alameda de Cervantes, 14, Bj, P3","30800","","","609 908 018","","juanjo.motos@hotmail.com","11/09/2009 0:00:00"
"Asociación Deportiva Fútbol Lorca","Asociación Deportiva","446","G-73666554","C/ Juan XXIII, nº 1","30800","","","","","",""
"Club Arcolorca","Asociación Deportiva","447","G-30522676","Callejón de los Frailes, 12","30800","","","667 495 001","","arcolorca@hotmail.com","16/02/1996 0:00:00"
"Feria de Artesanía de la Región de Murcia (FERAMUR)","Ferias","448","G-30124564","Plaza del Caño, 1","30800","","","968 477 313","968 477 416                                       ","jgomez@camaracomlorca.es","16/03/1986 0:00:00"
"Asociación de Padres y Madres IES Nº 6 de Lorca","Asociación de Padres y Madres de Alumnos","451","G-73671695","Ramblilla de Tejares (Cañada de Morales), s/n","30800","","","678 150 729","","piliki74@hotmail.com","04/03/2010 0:00:00"
"Asociación Juvenil LORKOS","Asociación de Jóvenes","452","G-73661282","Avda. Juan Carlos I, nº 58, 3º D","30800","","","637 291 407","","","08/01/2008 0:00:00"
"Asociación Altay Trabajo Social","Asociación con Fines Asistenciales","453","G-73669186","C/ Martín Morata, 6 - 3º C","30800","","","617 452 807","","altaytrabajosocial@gmail.com","26/11/2009 0:00:00"
"Asociación Club Rugby de Lorca","Asociación Deportiva","454","G-73672677","C/ Panadería, 13 - 2º D","30800","","","678 398 586","","clubderugby@gmail.com","29/04/2010 0:00:00"
"Asociación de Vendedores de Mercados de Lorca","Organizaciones Profesionales","455","G-73355729","Huerto de la Rueda","30800","","","600 873 210","","","21/01/2005 0:00:00"
"Asociación Juvenil Musical Propiedad Privada","Asociación de Jóvenes","456","G-73672917","C/ Padre García, 23 bajo","30800","","","665 832 226","","","11/05/2010 0:00:00"
"Asociación Club Ban Gkok","Asociación Deportiva","457","G-73154072","C/ Bordadora Apolonia Ros - bajo","30800","","","649 952 001","","juan-carrasco@hotmail.com","22/10/2001 0:00:00"
"Asociación Cultural Virgen del Quinche","Asociación de Minorías Sociales","458","G-73694317","C/ Abellaneda, 92","30800","","","610 897 513","","","21/11/2010 0:00:00"
"Asociación Juvenil Medicina Musical de Lorca","Asociación de Jóvenes","459","G-73686388","Ctra. de la Almenara, s/n, Buzón 155, Parcela O - Puente Botero","30813","","","677 092 597","","josemasax_93@hotmail.com","01/05/2010 0:00:00"
"Lorca Féminas Asociación Deportiva","Asociación Deportiva","460","G-73673642","C/ Martín Morata, 39","30800","","","639 791 160","968 481 799                                       ","lorcafeminas@gmail.com","15/05/2010 0:00:00"
"Club de Petanca Ramonete","Asociación Deportiva","461","G-73696478","Las Librilleras, Panel 6, Bz. 210","30876","","","","","","29/11/2010 0:00:00"
"Asociación Cultural y Social Amigos de la Danza de Lorca y Puerto Lumbreras","Asociación Cultural","462","G-73659112","C/ Terrer Leonés, 2 - 1ª","30800","","","968 464 658","968 464 658                                       ","","22/01/2010 0:00:00"
"Sociedad Cinegética Confederada Cazalor","Asociación Deportiva","463","G-73692477","Avda. Portugal, 11","30800","","","968 406 486","968 441 884                                       ","","25/10/2010 0:00:00"
"Asociación, ludoteca y Servicios Comunitarios Aserlud","Asociaciones de ocio","464","G-73696221","C/ Calderón de la Barca, 3 - 2º F","30800","","","666 997 863","","","13/12/2010 0:00:00"
"Asociación Juvenil Rule","Asociación de Jóvenes","465","G-73710626","Alameda de los Tristes, nº 4, Esc. 2, planta 1ª, Puerta C","30800","","","637 961 419","","","30/10/2010 0:00:00"
"Club Deportivo Tenis de Mesa San Fernando","Asociación Deportiva","466","G-73708653","Avda. Europa, Edificio Millenium VII, 27B 2 1 A","30800","","","968 471 643","968 471 506                                       ","tenisdemesasanfernando@hotmail.com","25/03/2011 0:00:00"
"Asociación de Madres y Padres de Alumnos del Colegio Ginés Arcas Romera","Asociación de Padres y Madres de Alumnos","467","G-73712523","Zarcilla de Ramos, Carretera de Lorca","30810","","","968 499 714","","",""
"Plataforma de Afectados por los Terremotos de Lorca","Asociación con Fines Asistenciales","469","","C/ Ingeniero Juan Escofet, 26, 1º, Izda.","30800","","","","","","14/05/2011 0:00:00"
"Asociación Veteranos OJE Lorca","Asociación de Animación Sociocultural","470","G-73711509","Camino Vera, 180, bajo","30813","","","968 471 643","968 471 506                                       ","veteranosojelorca@hotmail.com","12/04/2011 0:00:00"
"Asociación Intercultural Boliviamur","Asociación de Minorías Sociales","472","G-73721433","Alameda Corregidor Lapuente, 5","30800","","","638 882 424","","","15/11/2010 0:00:00"
"Club Triatlon Lorca","Asociación Deportiva","473","G-73713232","Alameda Menchirón, 5 - 4º A","30800","","","636 114 565","","clubtriatlonlorca@hotmail.com","25/04/2011 0:00:00"
"Asociación Cazalla-Intercultural","Asociación de Animación Sociocultural","474","G-73556987","C/ Corredera, 36","30800","","","637 570 105","","masetorra@euroaccion.com","24/05/2007 0:00:00"
"Asociación Rociera de Lorca","Asociaciones de ocio","475","G-73726747","Dip. de Torrecilla, Ctra. de la Estación","30800","","","968 464 247","968 464 247                                       ","","05/04/2011 0:00:00"
"Asociación ANIKE VOLUNTARIOS","Asociación con Fines Asistenciales","477","G-73718611","Travesía Castillo Xiquena, nº 1, 2º B","30800","","","","","","11/02/2011 0:00:00"
"Asociación de Madres y padres del CEIP San José de Lorca","Asociación de Padres y Madres de Alumnos","478","G-30064869","Alameda de los Tristes, s/n","30800","","","","","","06/03/2003 0:00:00"
"Asociación Cultural Cristiana Casa de la Esperanza","Asociación Religiosa","479","G-73739021","C/ Atrio de Santa María, s/n","30800","","","616 380 629","","","20/10/2011 0:00:00"
"Asociación Deportiva Almendricos","Asociación Deportiva","480","G-30543540","Diputáción Almendricos, C/ Escuelas Viejas, s/n","30893","","","625 110 699","","","27/11/1996 0:00:00"
"Asociación Juvenil Donarte","Asociación de Jóvenes","481","G-73744559","Dip. Tercia, C/ Baldazos, nº 22","30815","","","634 421 154","","","22/01/2012 0:00:00"
"Asociación Ghaneses de Lorca","Asociación de Cooperación Social","496","G-73721565","Camino Viejo del Puerto, 52, Bj.","30800","","","698506180 - 698849667","","ghanalorca@yahoo.es",""
"Archicofradía de Jesús Resucitado","Asociación Religiosa","483","G-30133748","Colegiata de San Patricio","30800","","","968 468 089","","",""
"Grupo Cultural de Cante y Baile Andaluz Chico","Asociación Cultural","484","G-73582868","Dip. Tercia, Camino de Baldazos","30815","","","","","","05/05/2005 0:00:00"
"Asociación Trovera Ciudad del Sol","Cultural y tradiciones populares","485","G-73335408","Dip. Tercia, Camino Baldazos","30815","","","600 584 854","","","05/05/2005 0:00:00"
"Asociación de Jóvenes de Campillo","Asociación de Jóvenes","486","G-30146112","Carretera de Almenara, 56 - A","30813","","","652 647 002","","","26/08/1986 0:00:00"
"Sociedad de Socorros Mútuos La Unión Obrera","Asociación con Fines Asistenciales","487","G-30099394","C/ Alcalde Pelegrín Rodríguez, 20","30800","","","600 072 113","","","20/12/1985 0:00:00"
"Asociación Peña La Jarapa","Cultural y tradiciones populares","489","G-73055477","C/ Charco","30800","","","868 927 094 ","","","04/11/2001 0:00:00"
"Asociación Comarcal de Empresarios de Ganadería y Agricultura de la Comarca del Guadalentín","Organizaciones Empresariales","490","G-73600744","C/ Abad de los Arcos, 3","30800","","","968 460 261","968 444 604                                       ","","15/04/2008 0:00:00"
"Asociación Patchwork","Asociación Cultural","498","G-73707093","Avda. Juan Carlos I, nº 58, Pl. 5, Pta. 1","30800","","","630655341","","","23/01/2012 0:00:00"
"Club Ciclista Juan Zurano","Asociación Deportiva","500","G-30531180","C/ Alameda Cervantes, nº 1","30800","","","666842301","","",""
"Asociación de Nigeria en Lorca","Asociación de Minorías Sociales","507","G-73796716","Plaza Saavedra, 2 - 2º E","30800","","","632 130 784 / 602 085 196","","","03/09/2012 0:00:00"
"Asociación Cultural Metal Lorca","Asociación Cultural","501","G-73772782","Alameda de Cervantes, Residencial Las Palmeras, nº 60, Esc I, Pl. 3º Pta. A","30800","","","","","","03/09/2012 0:00:00"
"Asociación GEAC","Organizaciones Profesionales","502","G-73768830","C/ Marco Alcázar (Diputación Cazalla), nº 9","30813","","","","","","24/09/2012 0:00:00"
"Asociación Cultural El Arte del Bordado en Lorca y su Puesta en Escena en sus Desfiles Bíblico Pasionales.","Cultural y tradiciones populares","508","G-73797755","C/ Presbítero Emilio García, 5 - 2º","30800","","","630 520 882","968 471 620                                       ","candidaturaunesco@lorca.es","15/11/2012 0:00:00"
"ASTRADE, Asociación para la Atención de Personas con Trastornos del Desarrollo de la Región de Murcia","Asociación con Fines Asistenciales","503","G-30508931","C/ Francisco Escobar Balberán, s/n","30800","","","968470996","968119100","astrade@astrade.es","27/05/1996 0:00:00"
"Asociación para Personas con Síndrome de Down de la Comarca de Lorca (DOWNLORCA)","Asociación de Discapacitados","509","G-73788382","Travesía Juan Carlos I, 12 - 5 - Bajo - K","30800","","","669 522 736","","downlorca@hotmail.com","22/02/2013 0:00:00"
"Asociación Huertos de tu Tierra - Ciudad del Sol ","Asociación de Defensa del Medioambiente.","504","G-73773285","Camino Pedazo de Afuera - La Hoya, P-29, B- 03","30816","","","630352945","","","03/11/2012 0:00:00"
"Asociación Fray Alonso de Vargas (AFAV)","Asociación Cultural","510","G-73801672","C/ Alonso de Vargas, s/n, Taberna La Luz","30800","","","","","","24/01/2013 0:00:00"
"Club Deportivo La Lagartija","Asociación Deportiva","505","G-73772378","C/ José Mouliáa, nº 31","30800","","","607623565","","juancar31@wanadoo.es","25/09/2012 0:00:00"
"Asociaciación de Vecinos del Barrio del Calvario","Asociación de Vecinos","511","G-30144646","C/ Cabezo de Vélez, 6","30800","","","696 244 931 / 687 388 580","","antoniolorca-@hotmail.com","26/06/1980 0:00:00"
"Asociación Cultural Amigos de las Sevillanas Tercia","Cultural y tradiciones populares","515","G-73571101","Camino Villaespesa Local Social","30815","","","656810731","","","08/01/2008 0:00:00"
"Asociación Patrimonio Musical y Amigos de la Música de Lorca","Asociación Cultural","512","G-73809337","Dip. Purias, Carretera de Aguilas, Km. 72, Panel 27- Buzón 8","30813","","","679 186 633","","","24/05/2013 0:00:00"
"Hermandad Nuestra Señora del Rocío de Lorca","Cultural y tradiciones populares","516","","C/ Nogalte, 33","30800","","","633793954","","","12/11/2013 0:00:00"
"Club de Rugby de Lorca","Asociación Deportiva","513","G-73672677","C/ Panadería, nº 3, Pl. 2, Pta. D","30800","","","","","clubderugbylorca@gmail.com","23/04/2010 0:00:00"
"Asociación Empresarios Minoristas de Venta en Plaza Abastos y Calles Adyacentes","Organizaciones Empresariales","517","G-73783128","C/ Abad de los Arcos, 3","30800","","","679 415 403","968 464 181                                       ","contacto@embutidos molina.com","16/12/1993 0:00:00"
"Asociación Nueva Vida de Totana","Asociación con Fines Asistenciales","518","G-73811051","C/ Ortega Melgares, 18 - 3º E","30800","","","632 728 074","","",""
"Club de Ajedrez Lorca","Asociación Deportiva","68","G-30346845","Alameda de la Constitucióin, s/n","30800","","","968 470 526","","",""
"Asociación Belenista de Lorca","Cultural y tradiciones populares","126","G-73008922","C/ Mazarróan, nº 2","30800","","","650 889 667","","belenistasdelorca@hotmail.com","01/11/1998 0:00:00"
"Asociación de Productores y Consumidores de Productos Naturales del Guadalentín","Organizaciones Profesionales","228","G-73291775","Avda. Juan Carlos I, 39","30800","","","","","","01/12/2003 0:00:00"
"Ayuda a los Niños de Bolivia","Asociación con Fines Asistenciales","290","G-73400913","C/ Los Guiraos, 15","30800","","","C/ Los Guiraos, 15","","","14/10/2005 0:00:00"
"FUNDACIÓN UNICEF. COMITE ESPAÑOL","Asociación de Cooperación Social","293","G-28382406","","","","","","","",""
"Federación Espartaria","Asociación Cultural","519","G-73832495","Dip. La Paca, Avda. Juan Carlos I, 5","30812","","","696 184 018 - 610039099","","","10/05/2013 0:00:00"
"San Francisco Lorca, C.D.","Asociación Deportiva","520","G73830051","C/ Obispo Alburquerque, nº 2 - 2º E","30800","","","669574142","901777423","administracion@sanfranciscolorcacd.com","01/02/2014 0:00:00"
"Asociación Amigos de la Cultura","Asociación Cultural","521","G30040752","C/ Poeta Gimeno Castellar, s/n","30800","","","","","info@amigosde la cultura.org","23/07/1979 0:00:00"
"Fotolorca Asociación Fotográrfica José Rodrigo de Lorca","Asociaciones de ocio","522","G-73831380","C/ Santa Paula, 9 - 4º B","30800","","","","968463252","","04/02/2014 0:00:00"
"Asociación Recreativa Fitness","Asociación Deportiva","523","G-73150174","C/ Fulgencio Martínez, 26","30812","","","630707035","","","11/04/2014 0:00:00"
"Asociación de Enfermedades Raras D'Genes","Sin Tipo","525","G-73567935","C/ Jerónimo Santa Fe, 9 - 1º B","30800","","","696141708","","info@dgenes.es","25/01/2008 0:00:00"
"Centro Islámico de Lorca Tawhid","Asociación Religiosa","524","g-73407819","C/ Juan de Toledo, 1 -1","30800","","","660460140","","","05/12/2005 0:00:00"
"MUJERES UNIDAS EN EL MUNDO APORTANDO AL DESARROLLO MHAM MUAD ONG","Asociación de Mujeres","526","G-73437360","C/ Cerro de la Muela, s/n. Polígono Los Peñones","30800","","","615 449 384","","","16/06/2014 0:00:00"
"Club de Pensionistas y Jubilados de Zarzadilla de Totana","Club de Pensionistas","527","G-73041824","C/ San Miguel, Zarzadilla de Totana (Centro Social)","30814","","","","","","12/05/1998 0:00:00"
"FEDERACIÓN DE PERSONAS SORDAS DE LA REGIÓN DE MURCIA (FESORMU)","Asociación de Discapacitados","528","G-30430516","C/ Travesía Benemérita, Bajo, 2","30800","","","968 220 475","","fesormu@fesormu.org","05/06/1994 0:00:00"
"Asociación Nuevos Lorquinos","Asociación con Fines Asistenciales","529","G-73713430","C/ José Mouliaa, 48","30800","","","692 066 946","","nuevoslorquinos@hotmail.com","07/06/2011 0:00:00"
"CLUB CICLOSENDERISTA EL GIGANTE","Asociación Deportiva","530","G-73641813","LA PARROQUIA, C/ FUENSANTA, 9","30811","","","666925353","","clubciclistaelgigante@gmail.com","01/06/2009 0:00:00"
"ASOCIACIÓN DE PADRES DE NIÑOS DEL CENTRO DE ATENCIÓN TEMPRANA DEL EXCMO. AYUNTAMIENTO DE LORCA","Asociación de Padres y Madres de Alumnos","531","G-30388045","C/ FRANCISCO ESCOBAR BARBERÁN, S/N. CASA DE LAS ONG´S","30800","","","662620589","","apatlorca2013@gmail.com","14/03/1986 0:00:00"
"CLUB DE ESGRIMA LORCA","Asociación Deportiva","532","G-73869182","C/ LOS NARANJOS, 6 - 2º D","30800","","","675326465","","clubesgrimalorca@gmail.com","17/11/2014 0:00:00"
"ASOCIACIÓN PARA EL DESARROLLO DE LAS TECNOLOGÍAS DE LA INFORMACIÓN Y LAS COMUNICACIONES","Asociación Cultural","533","G-73622945","C/ Abad de Los Arcos, nº3 - 3º","30800","","","968460261","","desarrollo@adetic.es","30/03/2009 0:00:00"
"ASOCIACIÓN CULTURAL BOLIVIA CORAZÓN DE AMÉRICA LORCA","Asociación Cultural","534","G-73885923","AVDA. JUAN CARLOS I, 4 - 7º B","30800","","","608069950","","","13/12/2014 0:00:00"
"ESCUELA DE KUNGFU EL BOSQUE","Asociación Deportiva","535","G-73859571","C/ LORENZO SOTO SOTO, 2 - 3º A","30800","","","606567770","","sagtai@hotmail.com","15/09/2014 0:00:00"
"CLUB DE FÚTBOL AMERICANO MUNSTANG'S","Asociación Deportiva","536","G-73885113","CTRA. ALMENARA, 179. CAMINO CASA ROMERO, BUZÓN 36, PANEL 29","30813","","","666601141","","mustangsocfa@gmail.com","13/05/2015 0:00:00"
"ASOCIACIÓN DE VECINOS MONTIFELI","Asociación de Vecinos","537","G-73857856","DIP. AGUADERAS, CAMINO DE LA MALVALOCA, ORILLA Y PIÑERO","30815","","","639778653","","","12/10/2014 0:00:00"
"AGRUPACIÓN DEPORTIVO CULTURAL DE MONTAÑEROS Y SENDERISTAS LORQUINOS SIGISMONDI","Asociación Deportiva","538","G-73901688","CAMINO VIEJO DEL PUERTO - BAR LAS TORRES-","30800","","","610893600","","","09/11/2015 0:00:00"
"ASOCIACIÓN DE MAYORES DE LOS CEGARRAS - NOGALTE","Club de Pensionistas","539","G-73886756","CENTRO SOCIAL DE LA DIP. NOGALTE","30890","","","968 409 565","","","16/04/2015 0:00:00"
"ASOCIACIÓN JUVENTUDES MUSICALES COMARCA DEL GUADALENTÍN","Asociación Cultural","540","G-73883530","CALLE FORJADORES, 12","30800","","","616 098 496","","","11/01/2015 0:00:00"
"ASOCIACIÓN DE VECINOS NUEVA AVENIDA EUROPA"," Asociación de Amas de Casa","541","G-73911471","C/ DOLORES BLAYA CUETO, 2 - 1º C","30800","","","600037113","","","01/10/2015 0:00:00"
"ASOCIACIÓN LOS PARADOS DE LORCA SE MUEVEN"," Asociación de Amas de Casa","542","G-73902470","AVDA. DE LOS ÁNGELES, 7","30800","","","609600504","","","23/10/2015 0:00:00"
"FUNDACIÓN CEPAIM - ACCIÓN INTEGRAL CON MIGRANTES","Asociación de Animación Sociocultural","543","G-73600553","PLAZA DE SAN JOSÉ, BAJO 15-1","30800","","","671714810 - 968 465467","968823738","pplozano@cepaim.org","30/07/2008 0:00:00"
"ASOCIACIÓN LORCA POR SU PATRIMONIO CULTURAL","Asociación Cultural","544","G-73908071","C/ ORTEGA MELGARES CABALLÓN, 8 - 3º - 1º","30800","","","660280241","","lorcapatrimonio@gmail.com","31/03/2016 0:00:00"
"ASOCIACIÓN DE ARTE ALTERNATIVO DE LORCA","Asociación de Animación Sociocultural","545","G-73910432","C/ Mariano Miguel del Corral, 7, Esc. 7, Bajo Izq.","30800","","","609522203","","gloryroller@gmail.com","16/01/2016 0:00:00"
"ASOCIACIÓN CULTURAL AMIGOS DE LAS TRADICIONES DE PUNTAS DE CALNEGRE","Asociación Cultural","546","G-73922569","Dip. Ramonete, Puntas de Calnegre, 24","30876","","","626603111","","","03/12/2015 0:00:00"
"Club de Fútbol Lorca Deportiva","Asociación Deportiva","547","G-73763724","Avda. de Portugal, 8 - Bajo","30800","","","657055682","","lorcadeportiva@lorca.es","27/07/2012 0:00:00"
"Asociación de Vendedores Ambulantes de la Comarca del Guadalentín","Organizaciones Profesionales","548","G-73926669","C/ Abad de los Arcos, 3","30800","","","968460261","968444604","info@ceclor.net",""
"Asociación Deportiva #Retoyosipuedo","Asociación Deportiva","549","G-73903858","Alameda de la Constitución, s/n -Casa del Deporte-","30800","","","607612728","","teamretoyosipuedo@gmail.com","17/11/2015 0:00:00"
"Asociación de Ayuda al Enfermo Renal, ADAER","Asociación con Fines Asistenciales","550","G-30576417","Avenida de la Salud, 7","30800","","","626865415","968230780","adaer@adaer.org","08/11/1997 0:00:00"
"Peña Madridista de Lorca Club Deportivo","Asociación Deportiva","551","G-73930406","Plaza Real, 3","30800","","","607376594","968471033","pmadridistaciudadelsol@hotmail.com","25/04/2016 0:00:00"
"Obra Social Santa Luisa de Marillac","Asociación con Fines Asistenciales","552","R-3000062D","C/ Sor Matilde García, 31","30800","","","669574139","","calasanz1@hotmail.com",""
"Peña Motera Custom Lorca","Asociación Deportiva","553","G-73912081","C/ Pintor Navarro Morata, nº 1, Esc. 8, Pl. 3, Pta. A","30800","","","627246907","","info@customlorca.es","21/02/2015 0:00:00"
"Asociación Deportiva de Amigos Cuco Lorquino Colillano","Asociación Deportiva","554","G-73954729","Avda. de Portugal, 15 Bajo","30800","","","627488539","","cucolorquino@lorca.es","22/02/2017 0:00:00"
"Foro de Estudio y Asesoramiento sobre Educación Física y Deporte","Asociación Deportiva","555","G-73033706","C/ Rubén Darío , Ed. Dr. Arcas, 5 - 4º D","30800","","","661682747","","juanortunoc@hotmail.com",""
"Club Taurino de Lorca","Asociaciones de ocio","556","G-30503726","Ctra. de Águilas, Purias, Panel 20, Buzón 3","30813","","","679179672","","clubtaurinodelorca@gmail.com","15/04/1996 0:00:00"
"Federación de Cooperativas Agrarias de la Región de Murcia, Unión de Cooperativas -FECOAM-","Asociación de Cooperación Social","557","F301154441","Camino de Cartagena","30815","","","968351282","","fecoam|@fecoam.es","15/10/1986 0:00:00"
"Grupo Solidario Camino de la Esperanza","Asociación con Fines Asistenciales","558","G-73851750","Dip. La Hoya, Ctra. Nueva, 82","30816","","","679251340","","ibarcas@hotmail.com","22/11/2013 0:00:00"
