nombre,tipoasociacion,numRegistro,cif,direccion,codpostal,longitud,latitud,telefono,fax,email,fconstitucion
"Club de Pensionistas de La Escucha","Club de Pensionistas","350","G-73121261","La Escucha, El Estanco buzon nº 48  ","30813","","","678282202","","","23/01/2001 0:00:00"
"Club de Pensionistas y Jubilados de Cazalla","Club de Pensionistas","153","G-73031775","Travesía de la Asociación, nº 7 C, Panel 52, Dip. Cazalla  ","30818","","","968 462 240","","",""
"Club de Pensionistas y Jubilados de Zarzadilla de Totana","Club de Pensionistas","365","","Centro Social de Zarzadilla de Totana  ","30814","","","968494062","","","12/05/1998 0:00:00"
"Club de Pensionistas y Jubilados  de Virgen de las Huertas","Club de Pensionistas","376","G-30588073","Plaza del Rey Sabio s/n    ","30800","","","630 446 884","","",""
"Club de Pensionistas y Jubilados de San José de Lorca","Club de Pensionistas","358","G-73158479","Placeta de San Jose (Parque Pepe Plazas), 15    ","30800","","","679830611","","",""
"Club de Pensionistas y Jubilados del Centro Social Paso a Nivel.","Club de Pensionistas","131","G-30586408","Avda. Cervantes s/n   ","30800","","","696 222 014","","",""
"Club de Pensionistas y Jubilados de la Viña","Club de Pensionistas","101","G-30583124","c/ Guillermo Oliver, s/n","30800","","","619 0047 61","","","26/02/1998 0:00:00"
"Club de Pensionistas y Jubilados de la Escarihuela","Club de Pensionistas","351","","Centro Social de La Escarihuela, s/n","30813","","","968485592","","","02/06/2006 0:00:00"
"Club de Pensionistas y Jubilados de Purias","Club de Pensionistas","353","G-30524805","Camino de las Monjas, Dip. de Purias","30813","","","","","","24/06/1996 0:00:00"
"Club de Pensionistas y Jubilados de los Ángeles","Club de Pensionistas","218","G-73019200","Nuevo Parque s/n (Los Ángeles)","30800","","","659618601","","","08/01/2011 0:00:00"
"Club de Pensionistas y Jubilados de Almendricos","Club de Pensionistas","152","G-30484497","C/Mayor, 59 Dip.Almendricos","30893","","","968 440 115","968 440 115                                       ","i.ayala@mediadoreslaestrella.es","28/04/2004 0:00:00"
"Club de Pensionistas y Jubilados de Calvario de Lorca","Club de Pensionistas","347","G-30595953","C/Alonso Vargas, 5   ","30800","20/04/1998","","968463562","","",""
"Club de Pensinistas y Jubilados de la Diputación de Aviles","Club de Pensionistas","151","G-73021669","Dip. Avilés, Centro Social","30812","","","606237188","","",""
"Club de Pensionistas y Jubilados de Coy","Club de Pensionistas","344","G-73021503","C/ Consultorio (Coy)","30812","","","968499111","","",""
"Club de Pensionistas de Tercia","Club de Pensionistas","258","G-30410138","Camino de Villaespesa- Tercia","30815","","","","","","25/04/1994 0:00:00"
"Club de Pensionistas y Jubilados de La Campana","Club de Pensionistas","346","G-30487466","El Cabildo y La Campana-Pozo Higuera, buzon 75  ","30813","","","617678988","","",""
"Club de Pensionistas y Jubilados de Ramonete","Club de Pensionistas","366","G-73297574","Local Social, Las Librilleras, s/n","30876","","","609330351","","mcalvoz@terra.es","13/02/2004 0:00:00"
"Club de Pensionistas y Jubilados de la Diputación de Rio","Club de Pensionistas","468","G-30596381","Centro Social de Diputación Rïo","30812","","","639 685 392","","",""
"Club de Pensionistas y Jubilados de Doña Inés","Club de Pensionistas","361","G-73238685","C/ Escuelas. Diputación Doña Inés.","30812","","","968491540","","","30/12/2002 0:00:00"
"Club de Pensionistas y Jubilados Alfonso X el Sabio","Club de Pensionistas","354","G-30582654","C/ Eras Altas de San José, s/n","30800","","","660 959 356","","","04/03/1998 0:00:00"
"Club de Pensionistas y Jubilados de Zarcilla de Ramos","Club de Pensionistas","352","G-73023475","C/ Transformador, Local de los Mayores","30810","","","968 499 384","","","09/11/1998 0:00:00"
"Asociación Club de Pensionistas de Los Barrios Altos de Santa María","Club de Pensionistas","397","G-73591026","C/ Sicilia s/n","30800","","","666 925 395","","","29/02/2008 0:00:00"
"Club de Pensionistas y Jubilados de Morata","Club de Pensionistas","385","G-73575615","Local Social de La Ermita","30878","","","","","","12/03/2008 0:00:00"
"Club de Pensionistas y Jubilados de La Hoya","Club de Pensionistas","359","G-73027120","Ctra. Hinojar s/n","30816","","","67 854 544 - 968481603","","","07/01/1999 0:00:00"
"Club de Pensionistas y Jubilados de La Paca","Club de Pensionistas","364","G-73014250","C/ Centro de Salud nº1- Dip.La Paca","30812","","","968 491 261","","","04/12/1998 0:00:00"
"Club de Pensionistas y Jubilados de San Cristóbal","Club de Pensionistas","343","G-30600191","C/ Huercal Overa","30800","","","","","","01/01/1986 0:00:00"
"Club de Pensionistas y Jubilados de San Juan","Club de Pensionistas","363","G-73001943","Zapatería nº 17","30800","","","968 414 341","","",""
"Club de Pensionistas y Jubilados de Sutullena","Club de Pensionistas","368","G-73069080","Camino Hondo-Sutullena, nº 13","","","","677 286 959","","",""
"Club de Pensionistas y Jubilados de Marchena","Club de Pensionistas","357","G-30497713","Centro Social de Marchena, junto a las escuelas","30815","","","608 238 965","","","22/01/1999 0:00:00"
"Asociación de Pensionistas y Jubilados Cervantes de Lorca","Club de Pensionistas","92","g-30586408","C/ Carlos Barberán, nº 1 - Bajo","30800","","","968 469 904","","","27/02/1998 0:00:00"
"Club de Pensionistas y Jubilados de Ramblilla de San Lázaro","Club de Pensionistas","140","G-73038713","C/ Almazara de Bravo, nº 1 (Centro Social de San Lázaro)","30800","","","868925625","","",""
"Club de Pensionistas y Jubilados de Campo López","Club de Pensionistas","345","G-73562373","Centro Social de Campo López en la diputación de Campo López.","30815","","","","","","10/06/2005 0:00:00"
"Club de Pensionistas y Jubilados de Campillo","Club de Pensionistas","348","G-30305056","Centro Social del Campillo. Diputación Campillo.","30813","","","","","","10/11/1995 0:00:00"
"Club de Pensionistas y Jubilados de Sagrada Familia.","Club de Pensionistas","355","30817","Centro Social de Sagrada Familia. Puente Resinoli. s/n","30817","","","","","","26/05/1998 0:00:00"
"Club de Pensionistas y Jubilados de San Antonio","Club de Pensionistas","349","G-30483176","Centro Social de San Antonio. Calle Mariscal Pedro Musso","30800","","","","","","13/03/1998 0:00:00"
"Club de Pensionistas y Jubilados de Santa María","Club de Pensionistas","362","G-30594626","Centro Social de Santa María. C/ Sicilia, s/n","30800","","","","","","06/04/1998 0:00:00"
"Ásociación de Pensionistas y Jubilados del Barrio de Apolonia La Candelaria.","Club de Pensionistas","444","G-73636441","Avda. Fuerzas Armadas, 32","30800","","","617837359","","","22/06/2009 0:00:00"
"Club de Pensionistas y Jubilados de Zarzadilla de Totana","Club de Pensionistas","527","G-73041824","C/ San Miguel, Zarzadilla de Totana (Centro Social)","30814","","","","","","12/05/1998 0:00:00"
"ASOCIACIÓN DE MAYORES DE LOS CEGARRAS - NOGALTE","Club de Pensionistas","539","G-73886756","CENTRO SOCIAL DE LA DIP. NOGALTE","30890","","","968 409 565","","","16/04/2015 0:00:00"
