"X";"Y";"Nom";"Tipus";"lon";"lat"
"485593,0";"4647718,6";"Barri del Centre";"Barris";"2,82609029";"41,98133050"
"484785,2";"4647164,9";"Barri de l'Eixample";"Barris";"2,81635115";"41,97632562"
"486168,7";"4649274,1";"Barri de Montjuïc";"Barris";"2,83299457";"41,99535515"
"488263,8";"4648013,9";"Barri de l'Est";"Barris";"2,85831439";"41,98403177"
"483856,4";"4647228,5";"Barri de Santa Eugènia";"Barris";"2,80513619";"41,97688356"
"483850,6";"4645467,7";"Barri de Mas Xirgu";"Barris";"2,80511212";"41,96102271"
"483939,5";"4648996,7";"Barri de l'Oest";"Barris";"2,80608971";"41,99280900"
"486439,7";"4651139,4";"Barri del Nord";"Barris";"2,83622350";"42,01215722"
"485341,6";"4645039,4";"Barri del Sud";"Barris";"2,82311513";"41,95719697"
"485506,2";"4649099,9";"Sector de Pedret";"Sectors";"2,82500604";"41,99376708"
"483332,4";"4649102,0";"Sector de Domeny Nord";"Sectors";"2,79875822";"41,99375109"
"485833,0";"4646377,8";"Sector de Montilivi";"Sectors";"2,82901967";"41,96925691"
"484122,8";"4647302,6";"Sector de Santa Eugènia";"Sectors";"2,80834489";"41,97755546"
"485144,0";"4649439,3";"Sector de Sant Ponç";"Sectors";"2,82062684";"41,99682259"
"486207,4";"4651515,3";"Sector del Pla de Campdorà";"Sectors";"2,83341281";"42,01553967"
"487083,4";"4648847,7";"Sector de Sant Daniel";"Sectors";"2,84405149";"41,99152485"
"485273,2";"4647870,0";"Sector del Mercadal";"Sectors";"2,82222372";"41,98269359"
"484751,0";"4646402,4";"Sector de l'Eixample Sud";"Sectors";"2,81596052";"41,96946189"
"485728,2";"4650555,9";"Sector de Pont Major";"Sectors";"2,82765097";"42,00688478"
"484073,8";"4649561,5";"Sector de Taialà";"Sectors";"2,80769222";"41,99790046"
"484221,1";"4644483,0";"Sector de l'Avellaneda";"Sectors";"2,80961546";"41,95216764"
"487113,1";"4646560,4";"Sector de Vila-roja";"Sectors";"2,84446382";"41,97092710"
"485263,8";"4644755,6";"Sector de Palau";"Sectors";"2,82218104";"41,95463762"
"483338,3";"4648442,7";"Sector de Domeny Sud";"Sectors";"2,79884937";"41,98780684"
"485578,6";"4648179,5";"Sector del Barri Vell";"Sectors";"2,82589791";"41,98548229"
"484855,8";"4647867,3";"Sector de l'Eixample Nord";"Sectors";"2,81717795";"41,98265865"
"483795,3";"4647700,5";"Sector de les Hortes";"Sectors";"2,80438689";"41,98113345"
"487077,0";"4651204,6";"Sector de la Muntanya de Campdorà";"Sectors";"2,84392718";"42,01275338"
"484676,2";"4649061,1";"Sector de Fontajau";"Sectors";"2,81498604";"41,99340912"
"488893,9";"4648039,8";"Sector de les Gavarres";"Sectors";"2,86591905";"41,98427507"
"486583,3";"4646203,1";"Sector de La Creueta";"Sectors";"2,83807529";"41,96770287"
"483612,8";"4649520,2";"Sector dels Germans Sàbat";"Sectors";"2,80212713";"41,99752173"
"483811,3";"4646611,1";"Sector de Can Gibert del Pla";"Sectors";"2,80461001";"41,97132553"
"485729,3";"4647340,9";"Sector del Carme";"Sectors";"2,82774114";"41,97792846"
"486168,7";"4649274,1";"Sector de Montjuïc";"Sectors";"2,83299457";"41,99535515"
"486011,9";"4648137,0";"Sector de la Torre Gironella";"Sectors";"2,83112606";"41,98511182"
"484357,7";"4646965,5";"Sector de Sant Narcís";"Sectors";"2,81119040";"41,97452492"
"486770,5";"4647079,2";"Sector de la Font de la Pólvora";"Sectors";"2,84031241";"41,97559588"
"486574,0";"4647750,6";"Sector de les Pedreres";"Sectors";"2,83793136";"41,98163604"
"483850,6";"4645467,7";"Sector de Mas Xirgu";"Sectors";"2,80511212";"41,96102271"
"487610,1";"4646734,3";"Vila-roja";"Disseminats";"2,85045854";"41,97250223"
"486166,6";"4650332,8";"Pont Major";"Disseminats";"2,83294550";"42,00488413"
"483677,9";"4648332,1";"Domeny";"Disseminats";"2,80294495";"41,98682321"
"488736,2";"4647962,3";"Sant Daniel";"Disseminats";"2,86402526";"41,98357933"
"483819,3";"4647724,0";"Hortes";"Disseminats";"2,80467594";"41,98135010"
"484031,8";"4649946,1";"Taialà-Germans Sàbat";"Disseminats";"2,80717463";"42,00136716"
"486717,6";"4651819,3";"Campdorà";"Disseminats";"2,83956551";"42,01828645"
"485468,3";"4644087,8";"La Creu de Palau";"Disseminats";"2,82467108";"41,94862495"
"486773,4";"4647216,9";"Font de la Pólvora";"Disseminats";"2,84034554";"41,97682985"
"484621,0";"4649660,1";"Sant Ponç";"Disseminats";"2,81430632";"41,99880301"
"486253,4";"4646506,6";"Montilivi";"Disseminats";"2,83408558";"41,97042621"
"486162,1";"4647406,1";"Caputxins";"Disseminats";"2,83296612";"41,97853062"
"485091,6";"4645384,8";"Mas Barril";"Edificis singulars";"2,82008974";"41,96029959"
"483587,8";"4645538,2";"Can Devesa (antiga Torre Vedruna)";"Edificis singulars";"2,80193644";"41,96165675"
"484805,5";"4645774,9";"Can Quintana - Torre Rafaela";"Edificis singulars";"2,81662846";"41,96380674"
"483624,0";"4646003,5";"Can Conill o Can Bellsolá";"Edificis singulars";"2,80236999";"41,96584562"
"485409,4";"4646013,2";"Mas Abella";"Edificis singulars";"2,82391150";"41,96597075"
"484554,4";"4646119,2";"Casa o Xalet Soler";"Edificis singulars";"2,81359038";"41,96690917"
"483555,3";"4646185,6";"Can Sureda";"Edificis singulars";"2,80153220";"41,96748340"
"483678,8";"4646513,8";"Can Palahí o Mas Solterra";"Edificis singulars";"2,80300752";"41,97044014"
"483764,7";"4646646,2";"Cementiri de Santa Eugènia";"Edificis singulars";"2,80404179";"41,97163980"
"485231,2";"4646680,2";"Xalet Tarrús";"Edificis singulars";"2,82174661";"41,97197488"
"484738,2";"4646727,8";"Casa Montseny";"Edificis singulars";"2,81579519";"41,97238880"
"486511,7";"4646765,1";"Capella del Cementiri";"Edificis singulars";"2,83719347";"41,97276340"
"484249,3";"4646767,3";"Can Puaté, Torre Marcona";"Edificis singulars";"2,80989216";"41,97273945"
"485400,7";"4646903,2";"Esglèsia de Sant Josep";"Edificis singulars";"2,82378080";"41,97398652"
"485322,6";"4647134,1";"Bloc Pla Mir";"Edificis singulars";"2,82283359";"41,97606561"
"484789,1";"4647135,8";"Casa Ensesa";"Edificis singulars";"2,81640018";"41,97606451"
"485492,5";"4647165,0";"Clínica L'Aliança";"Edificis singulars";"2,82488475";"41,97634796"
"487083,6";"4647236,9";"Can Turró";"Edificis singulars";"2,84408689";"41,97701512"
"485466,3";"4647300,9";"Casa Valls";"Edificis singulars";"2,82456759";"41,97756338"
"485369,1";"4647312,4";"Casa Alberch o Lòpez (Villa Anita)";"Edificis singulars";"2,82339646";"41,97766967"
"484012,9";"4647318,1";"Can Ninetes";"Edificis singulars";"2,80701671";"41,97769734"
"485489,8";"4647364,4";"Casa Orri";"Edificis singulars";"2,82484363";"41,97814023"
"483980,3";"4647361,3";"Fàbrica Marfa";"Edificis singulars";"2,80662928";"41,97808398"
"484943,8";"4647433,5";"Garatge Forné";"Edificis singulars";"2,81825135";"41,97875145"
"485054,7";"4648022,9";"Banc d'Espanya";"Edificis singulars";"2,81957622";"41,98405848"
"484920,6";"4648042,7";"Bloc Marull";"Edificis singulars";"2,81795810";"41,98423606"
"485088,0";"4648043,3";"Casa Sabater";"Edificis singulars";"2,81998612";"41,98424827"
"484436,0";"4648057,2";"Casa Alcalde";"Edificis singulars";"2,81211501";"41,98436175"
"485351,8";"4648056,3";"Bloc Culubret - Picamal";"Edificis singulars";"2,82316065";"41,98437029"
"485131,4";"4648096,9";"Casa Plaja";"Edificis singulars";"2,82050386";"41,98472643"
"485361,5";"4648136,4";"Bloc Cots";"Edificis singulars";"2,82327938";"41,98509100"
"485241,0";"4648143,5";"Bloc Auguet";"Edificis singulars";"2,82183058";"41,98515181"
"485291,8";"4648155,7";"Xalet Juandó";"Edificis singulars";"2,82243387";"41,98526083"
"485282,3";"4648170,7";"Bloc Forest";"Edificis singulars";"2,82232485";"41,98539576"
"485324,5";"4648185,4";"Botiga Codina";"Edificis singulars";"2,82283149";"41,98553164"
"485261,5";"4648218,9";"Bloc Fàbrega";"Edificis singulars";"2,82207014";"41,98582768"
"485273,1";"4648225,8";"Antic bloc Fàbrega";"Edificis singulars";"2,82221482";"41,98589096"
"485163,6";"4648333,4";"Caseta del Rellotge";"Edificis singulars";"2,82088418";"41,98686161"
"483234,5";"4648408,6";"Can Sagalars";"Edificis singulars";"2,79759482";"41,98749841"
"485135,9";"4648373,1";"Els Jardins Francesos";"Edificis singulars";"2,82054514";"41,98722135"
"483394,1";"4648537,6";"Can Clarà";"Edificis singulars";"2,79952274";"41,98866366"
"483424,4";"4648554,6";"Can Peirot";"Edificis singulars";"2,79988444";"41,98881740"
"486033,2";"4648681,8";"Torre de defensa Suchet";"Edificis singulars";"2,83137871";"41,99001183"
"485749,7";"4648752,9";"Cases Barates";"Edificis singulars";"2,82794832";"41,99064621"
"484945,6";"4648846,7";"Fábrica d'embotits Joaquim Pardás";"Edificis singulars";"2,81823930";"41,99147788"
"485715,0";"4648860,9";"Torre de defensa de Sant Joan";"Edificis singulars";"2,82753521";"41,99161831"
"486580,4";"4649219,9";"Torre de defensa de Sant Daniel";"Edificis singulars";"2,83797024";"41,99486691"
"486084,4";"4649103,2";"Castell de Montjuïc";"Edificis singulars";"2,83198443";"41,99381353"
"484136,4";"4649435,6";"Torre de Taialà o Cerdà";"Edificis singulars";"2,80845630";"41,99676690"
"485492,9";"4649461,3";"Hospital de Sant Llátzer i Capella de Sant Jaume";"Edificis singulars";"2,82482807";"41,99702722"
"485442,2";"4649527,3";"Resclosa de La Manola";"Edificis singulars";"2,82422273";"41,99762074"
"486691,8";"4649550,7";"Torre de defensa de Sant Narcís";"Edificis singulars";"2,83930292";"41,99784999"
"486011,5";"4649625,6";"Torre de defensa de Sant Lluís";"Edificis singulars";"2,83109063";"41,99851370"
"483988,6";"4649761,7";"Can Portalló";"Edificis singulars";"2,80666045";"41,99970006"
"485392,4";"4649844,2";"La Manola - L'Aurora";"Edificis singulars";"2,82361114";"42,00047491"
"485284,8";"4650559,5";"Cementiri del Pont Major";"Edificis singulars";"2,82228914";"42,00691264"
"485533,0";"4650851,3";"Magatzem Vich";"Edificis singulars";"2,82528886";"42,00954718"
"485504,1";"4650863,1";"Destil·leries Gerunda";"Edificis singulars";"2,82493835";"42,00965473"
"485552,5";"4650910,9";"Mas Els Noguers";"Edificis singulars";"2,82551687";"42,01007892"
"485567,2";"4651123,9";"Casa Regás";"Edificis singulars";"2,82569278";"42,01199760"
"485502,7";"4651152,0";"Destil·lleries Regás";"Edificis singulars";"2,82490706";"42,01225760"
"485539,1";"4651167,4";"Esglèsia de la Pietat, Pont Major";"Edificis singulars";"2,82535354";"42,01239338"
"485738,2";"4647524,8";" ";"Edificis singulars";"2,82784531";"41,97958585"
"484648,0";"4645133,3";"Can Xicu Prunell";"Edificis singulars";"2,81475054";"41,95803042"
"485451,0";"4644845,4";"Torres de Palau";"Edificis singulars";"2,82444725";"41,95545171"
"484440,1";"4644343,6";"Mas Amat";"Edificis singulars";"2,81226154";"41,95091105"
"485037,7";"4647445,9";"Casa Pla Cargol";"Edificis singulars";"2,81938569";"41,97886132"
"485284,4";"4647458,0";"Casa Coll";"Edificis singulars";"2,82236682";"41,97898306"
"485260,6";"4647527,9";"Bloc Reglá";"Edificis singulars";"2,82207539";"41,97960407"
"485102,7";"4647530,8";"Casa de Pont - Ciurana";"Edificis singulars";"2,82016813";"41,97962812"
"485096,6";"4647539,6";"Casa Sisqués";"Edificis singulars";"2,82009547";"41,97970906"
"485239,0";"4647542,5";"Bloc Pérez Xifra";"Edificis singulars";"2,82182153";"41,97973878"
"484984,0";"4647559,5";"Bloc Sarriá";"Edificis singulars";"2,81874303";"41,97988707"
"485168,2";"4647598,1";"Clínica Muñoz";"Edificis singulars";"2,82096308";"41,98024182"
"484921,4";"4647593,1";"Bloc La Caixa de Pensions";"Edificis singulars";"2,81798169";"41,98019209"
"484737,2";"4647645,4";"Estació del tren d'Olot";"Edificis singulars";"2,81575929";"41,98065690"
"484693,9";"4647640,5";"Casa Teixidor o de La Punxa";"Edificis singulars";"2,81522830";"41,98061101"
"485014,2";"4647690,0";"Casa Colomer";"Edificis singulars";"2,81910182";"41,98106751"
"485231,9";"4647666,9";"Hospital de Santa Caterina";"Edificis singulars";"2,82172185";"41,98085545"
"485064,2";"4647697,5";"Bloc Riera Perpinyá";"Edificis singulars";"2,81970519";"41,98113151"
"485083,5";"4647713,4";"Bloc Bech de Careda";"Edificis singulars";"2,81993414";"41,98127598"
"485079,6";"4647744,4";"Casa Gispert-Saüch";"Edificis singulars";"2,81988507";"41,98155511"
"484773,3";"4647733,9";"Farinera Teixidor";"Edificis singulars";"2,81619157";"41,98145018"
"485934,6";"4647751,6";"Torre de defensa Alfons XII";"Edificis singulars";"2,83020576";"41,98163388"
"485032,9";"4647754,0";"Antic Banc d'Espanya";"Edificis singulars";"2,81931747";"41,98164428"
"485040,7";"4647769,5";"Bloc Rigau";"Edificis singulars";"2,81941365";"41,98177953"
"485041,9";"4647779,7";"Bloc Bosch";"Edificis singulars";"2,81942547";"41,98186962"
"484984,6";"4647789,3";"Bloc Casellas - Fábregas";"Edificis singulars";"2,81873715";"41,98195860"
"485661,9";"4647826,5";"Casa Unal";"Edificis singulars";"2,82690849";"41,98230446"
"485678,4";"4647864,7";"Casa de la Punxa";"Edificis singulars";"2,82711278";"41,98264702"
"485040,8";"4647871,3";"Casa Coromines";"Edificis singulars";"2,81941106";"41,98269821"
"485156,0";"4647877,7";"Bloc Arnau";"Edificis singulars";"2,82081119";"41,98275445"
"485020,1";"4647871,4";"Banc Hispano-Americano";"Edificis singulars";"2,81916963";"41,98269783"
"484909,6";"4647907,8";"Casa Blanch";"Edificis singulars";"2,81782878";"41,98301995"
"484756,1";"4647912,7";"Cases Escatllar";"Edificis singulars";"2,81598172";"41,98306204"
"485039,2";"4647949,4";"Bloc Sala";"Edificis singulars";"2,81939700";"41,98340071"
"485040,8";"4647966,5";"Bloc Bosch";"Edificis singulars";"2,81940864";"41,98355384"
"485322,3";"4647973,8";"Casa de la moneda";"Edificis singulars";"2,82281264";"41,98362219"
"485282,6";"4647969,9";"Torre de les Agües";"Edificis singulars";"2,82232988";"41,98358542"
"485294,0";"4648006,3";"Esglèsia de Santa Susanna";"Edificis singulars";"2,82247382";"41,98391889"
"485080,3";"4648033,3";"Taller Reiner";"Edificis singulars";"2,81988980";"41,98415805"
"483963,6";"4644258,0";"Estanc de l'Avellaneda";"Edificis singulars";"2,80650866";"41,95013593"
"483926,8";"4644958,3";"Can Montiel - Torre Bonica";"Edificis singulars";"2,80604313";"41,95643986"
"484384,5";"4644983,5";"La Pabordia";"Edificis singulars";"2,81156890";"41,95667423"
"485269,7";"4645012,1";"Esglesia de Sant Miquel de la Creu de Palau";"Edificis singulars";"2,82224701";"41,95695245"
"484975,4";"4645053,6";"Can Prunell (rest. Mas de la Creu)";"Edificis singulars";"2,81869840";"41,95731618"
"485268,9";"4650305,4";"Canal d'en Cases";"Hidrologia";"2,82210230";"42,00462466"
"486765,5";"4653131,7";"Canal de Sant Jordi";"Hidrologia";"2,84011566";"42,03010391"
"489504,2";"4646544,1";"El Celrè";"Hidrologia";"2,87332156";"41,97081846"
"486127,2";"4648488,9";"El Galligants";"Hidrologia";"2,83251811";"41,98827521"
"484109,3";"4646260,3";"El Güell";"Hidrologia";"2,80821613";"41,96817026"
"484929,4";"4650516,0";"El Ter";"Hidrologia";"2,81800328";"42,00651863"
"486448,1";"4646385,0";"L'Onyar";"Hidrologia";"2,83644184";"41,96933978"
"484169,7";"4649123,1";"Riera Bullidors";"Hidrologia";"2,80886315";"41,99395750"
"487945,4";"4649167,7";"Riera de ca la Seca";"Hidrologia";"2,85445192";"41,99442065"
"487312,7";"4649947,8";"Riera de Campdorà";"Hidrologia";"2,84679246";"42,00143588"
"486257,9";"4650303,4";"Riera de Can Camaret";"Hidrologia";"2,83404506";"42,00462453"
"487311,7";"4648383,6";"Riera de can Llinàs";"Hidrologia";"2,84681417";"41,98734947"
"483580,6";"4649834,1";"Riera de can Murtra";"Hidrologia";"2,80173197";"42,00034914"
"486023,1";"4649999,7";"Riera de can Punxa";"Hidrologia";"2,83122662";"42,00188240"
"487764,9";"4647962,9";"Riera de can Valls";"Hidrologia";"2,85229169";"41,98356483"
"489328,0";"4647142,3";"Riera de la Font d'en Lliure";"Hidrologia";"2,87118653";"41,97620210"
"488195,1";"4646425,3";"Riera de la Teula";"Hidrologia";"2,85752539";"41,96972815"
"487671,6";"4647697,2";"Riera de la Torre";"Hidrologia";"2,85117459";"41,98117662"
"490543,0";"4647356,1";"Riera de la Vall Preona";"Hidrologia";"2,88584839";"41,97814505"
"487502,2";"4651277,5";"Riera de les Mines";"Hidrologia";"2,84905839";"42,01341773"
"487789,3";"4649401,7";"Riera de Sant Miquel";"Hidrologia";"2,85256357";"41,99652580"
"486233,1";"4648674,0";"Riera de Santa Margarida";"Hidrologia";"2,83379343";"41,98995230"
"486753,0";"4648043,4";"Riera del Polvorí";"Hidrologia";"2,84008550";"41,98427802"
"485486,6";"4646531,7";"Riera Gurnau";"Hidrologia";"2,82482798";"41,97063763"
"483548,7";"4645836,4";"Riera Marroc";"Hidrologia";"2,80145748";"41,96433992"
"490086,1";"4648238,6";"Riera Palagret";"Hidrologia";"2,88031726";"41,98608332"
"488773,6";"4648698,1";"Torrent d'en Boix";"Hidrologia";"2,86445785";"41,99020876"
"489777,1";"4648635,6";"Torrent d'en Minguet";"Hidrologia";"2,87658008";"41,98965502"
"491235,4";"4647968,2";"Torrent d'en Palet";"Hidrologia";"2,89419210";"41,98366514"
"490866,7";"4648036,5";"Torrent de Batet";"Hidrologia";"2,88973662";"41,98427340"
"487630,0";"4649980,3";"Torrent de can Bernat";"Hidrologia";"2,85063161";"42,00173816"
"489384,2";"4647937,4";"Torrent de Can Castelló";"Hidrologia";"2,87184811";"41,98336316"
"488348,2";"4649986,9";"Torrent de can Figueres";"Hidrologia";"2,85930135";"42,00180315"
"488818,7";"4647048,3";"Torrent de can Pol";"Hidrologia";"2,86503252";"41,97534840"
"488174,8";"4647971,0";"Torrent de can Salgueda";"Hidrologia";"2,85724085";"41,98365216"
"488409,7";"4648245,2";"Torrent de can Sans";"Hidrologia";"2,86007227";"41,98612347"
"488067,8";"4649738,9";"Torrent de can Sistac";"Hidrologia";"2,85591330";"41,99956530"
"487727,0";"4650509,4";"Torrent de can Vilar";"Hidrologia";"2,85179182";"42,00650418"
"487128,5";"4652125,1";"Torrent de Jonquers";"Hidrologia";"2,84452291";"42,02104930"
"489263,4";"4647569,1";"Torrent de la casa de les Figues";"Hidrologia";"2,87039417";"41,98004707"
"488681,2";"4649541,7";"Torrent de la Ferriola";"Hidrologia";"2,86333091";"41,99780005"
"486770,4";"4646741,6";"Torrent de la Font de la Pólvora";"Hidrologia";"2,84032002";"41,97255163"
"489927,9";"4647407,3";"Torrent de la Llosa";"Hidrologia";"2,87841204";"41,97859675"
"488523,1";"4649316,2";"Torrent de les Bordes";"Hidrologia";"2,86142757";"41,99577127"
"488866,8";"4647169,8";"Torrent de les Ramades";"Hidrologia";"2,86560959";"41,97643889"
"486907,4";"4651967,0";"Torrent de Negueda";"Hidrologia";"2,84185705";"42,01962261"
"487333,4";"4646809,9";"Torrent de Vila-roja";"Hidrologia";"2,84711368";"41,97317333"
"491215,9";"4647579,4";"Torrent del Camí del Vent";"Hidrologia";"2,89395648";"41,98016132"
"489961,4";"4648462,7";"Torrent dels Juliana";"Hidrologia";"2,87880443";"41,98809923"
"487770,6";"4648854,8";"Torrent Estela";"Hidrologia";"2,85234555";"41,99159887"
"484409,9";"4647606,3";"Séquia Monar";"Hidrologia";"2,81180104";"41,98029921"
"486462,2";"4652910,5";"Séquia d'en Vinyals";"Hidrologia";"2,83646041";"42,02810830"
"484428,0";"4646736,6";"Carrer de l'Illa de Mallorca";"Eixos viaris";"2,81205343";"41,97246380"
"485191,8";"4647211,2";"Carrer de Josep Maluquer i Salvador";"Eixos viaris";"2,82125046";"41,97675667"
"485543,2";"4648397,9";"Carrer dels Manaies";"Eixos viaris";"2,82547003";"41,98744510"
"484692,2";"4646963,9";"Carrer de Manel Bonmatí i Romaguera";"Eixos viaris";"2,81523385";"41,97451348"
"484711,0";"4646961,6";"Passatge de Manel Bonmatí i Romaguera";"Eixos viaris";"2,81546323";"41,97449584"
"484897,8";"4647119,4";"Carrer de Manel Quer";"Eixos viaris";"2,81770417";"41,97592248"
"483508,4";"4647247,1";"Carrer de Manel Viñas i Grauges";"Eixos viaris";"2,80093520";"41,97704748"
"483932,2";"4647441,1";"Carrer de la Marfà";"Eixos viaris";"2,80604771";"41,97880353"
"485329,1";"4650326,3";"Plaça de Maria Auxiliadora";"Eixos viaris";"2,82283838";"42,00481493"
"484996,6";"4646341,7";"Carrer del Marquès de Caldes de Montbui";"Eixos viaris";"2,81891896";"41,96891718"
"485026,1";"4647812,9";"Plaça del Marquès de Camps";"Eixos viaris";"2,81924356";"41,98216655"
"485400,7";"4650211,2";"Carrer d'Àngel Marsà i Beca";"Eixos viaris";"2,82369861";"42,00378049"
"485311,4";"4645804,4";"Carrer del Mas Abella";"Eixos viaris";"2,82273403";"41,96408653"
"484938,1";"4644110,4";"Carrer del Mas Amat";"Eixos viaris";"2,81827606";"41,94882216"
"485640,1";"4647344,4";"Passatge dels Picapedrers";"Eixos viaris";"2,82666677";"41,97796287"
"485469,7";"4648005,1";"Plaça dels Mercaders";"Eixos viaris";"2,82458637";"41,98391313"
"485558,7";"4647865,8";"Plaça del Pallol";"Eixos viaris";"2,82566419";"41,98265384"
"485022,0";"4648945,8";"Carrer de Joan Josep Tharrats i Vidal";"Eixos viaris";"2,81916640";"41,99237100"
"483562,9";"4649032,1";"Rambla de Tete Montoliu";"Eixos viaris";"2,80153707";"41,99312546"
"483700,1";"4649002,1";"Carrer de Maria Àngels Anglada i d'Abadal";"Eixos viaris";"2,80320403";"41,99285813"
"485423,4";"4650842,6";"Carrer de Ramon Llull";"Eixos viaris";"2,82396068";"42,00946409"
"485631,3";"4646418,9";"Carrer d'Àngel Serradell i Pérez";"Eixos viaris";"2,82658076";"41,96962253"
"485708,6";"4646379,5";"Carrer de Palau-sacosta";"Eixos viaris";"2,82751102";"41,96927267"
"485654,1";"4646370,4";"Carrer de Josep Bosch i Puy, ""Piculives""";"Eixos viaris";"2,82685952";"41,96919063"
"485584,9";"4647797,4";"Placeta de Pere Sacoma";"Eixos viaris";"2,82597971";"41,98204186"
"484868,7";"4648138,7";"Rotonda de la Devesa";"Eixos viaris";"2,81732790";"41,98509970"
"484895,0";"4646726,4";"Carrer de Pau Vila i Dinarès";"Eixos viaris";"2,81769012";"41,97238282"
"484533,1";"4646721,6";"Carrer d'Antoni Gaudí i Cornet";"Eixos viaris";"2,81332111";"41,97233077"
"486115,6";"4645443,0";"Carrer de Joan Viñas i Bona";"Eixos viaris";"2,83244514";"41,96084969"
"485956,2";"4645373,9";"Carrer de Santiago Coquard i Sala";"Eixos viaris";"2,83052811";"41,96021640"
"485896,7";"4645314,0";"Carrer de Josep Maria Pons i Guri";"Eixos viaris";"2,82980549";"41,95968394"
"485037,5";"4646199,5";"Carrer de Josepa Arnall i Juan";"Eixos viaris";"2,81941739";"41,96763902"
"484956,9";"4646184,0";"Carrer de Josep Canal i Roquet";"Eixos viaris";"2,81844022";"41,96750237"
"484799,2";"4646031,9";"Carrer d'Emília Xargay i Pagès";"Eixos viaris";"2,81654941";"41,96612134"
"484628,4";"4645902,2";"Carrer d'Avel·lí Artís i Gener, ""Tísner""";"Eixos viaris";"2,81448911";"41,96495616"
"485820,3";"4646745,3";"Plaça de George Orwell";"Eixos viaris";"2,82885391";"41,97257113"
"485499,8";"4646949,6";"Jardins de la Font del Bou";"Eixos viaris";"2,82497457";"41,97440265"
"483111,6";"4648472,9";"Carrer de Can Benet del Riu";"Eixos viaris";"2,79610809";"41,98807221"
"485743,1";"4648232,0";"Jardins de Joan Fuster i Ortells";"Eixos viaris";"2,82788850";"41,98596265"
"485502,3";"4650559,9";"Passeig de Sant Joan Bosco";"Eixos viaris";"2,82492171";"42,00691668"
"485558,6";"4648319,3";"Pujada de la Catedral";"Eixos viaris";"2,82565303";"41,98674286"
"485504,2";"4647002,4";"Pont de la Font del Rei";"Eixos viaris";"2,82503361";"41,97488010"
"485461,6";"4647009,5";"Passera de la Font del Rei";"Eixos viaris";"2,82451443";"41,97494235"
"484743,2";"4647669,2";"Carrer de Rafael Masó i Valentí";"Eixos viaris";"2,81583110";"41,98087317"
"486604,4";"4646070,7";"Grup la Creueta";"Eixos viaris";"2,83833176";"41,96650534"
"485795,4";"4646600,1";"Carrer de Josep Clarà i Ayats";"Eixos viaris";"2,82855567";"41,97126472"
"485085,7";"4646371,9";"Plaça de Josep Irla i Bosch";"Eixos viaris";"2,81999232";"41,96918907"
"484658,1";"4647014,7";"Carrer de Josep Maria Gironella i Pous";"Eixos viaris";"2,81482215";"41,97497216"
"485568,0";"4647212,8";"Carrer de Josep Morató i Grau";"Eixos viaris";"2,82580093";"41,97677267"
"483727,4";"4649286,7";"Carrer de Josep Maria Prat i Roca";"Eixos viaris";"2,80352214";"41,99541657"
"485107,2";"4647177,4";"Plaça de Josep Pallach i Carolà";"Eixos viaris";"2,82023742";"41,97644886"
"485250,5";"4647946,2";"Plaça de Josep Pla";"Eixos viaris";"2,82194417";"41,98337767"
"484505,6";"4649066,9";"Avinguda de Josep Tarradellas i Joan";"Eixos viaris";"2,81292135";"41,99345080"
"485166,0";"4646751,1";"Carrer de Josep Tharrats";"Eixos viaris";"2,82096031";"41,97261314"
"484479,2";"4647764,4";"Carrer de Josep Viader i Moliner";"Eixos viaris";"2,81264183";"41,98172365"
"485026,1";"4647462,5";"Carrer de Juli Garreta";"Eixos viaris";"2,81925248";"41,97901422"
"485575,0";"4647597,8";"Carrer de Julià de Bolívar";"Eixos viaris";"2,82587598";"41,98024037"
"485709,2";"4647037,5";"Carrer de Julià de Chia";"Eixos viaris";"2,82750710";"41,97519908"
"485601,6";"4648489,0";"Plaça dels Jurats";"Eixos viaris";"2,82616797";"41,98827477"
"485416,3";"4645865,4";"Carrer de l'Albera";"Eixos viaris";"2,82399965";"41,96463789"
"484669,3";"4649109,3";"Avinguda de l'Amical Mauthausen";"Eixos viaris";"2,81490027";"41,99384130"
"486404,6";"4649318,8";"Carrer de Laureà Dalmau i Pla";"Eixos viaris";"2,83584297";"41,99575555"
"484509,5";"4646757,2";"Carrer de Lepant";"Eixos viaris";"2,81303050";"41,97265454"
"485626,0";"4648318,5";"Plaça dels Lledoners";"Eixos viaris";"2,82647397";"41,98673509"
"485594,7";"4647998,7";"Carrer de la Llebre";"Eixos viaris";"2,82609550";"41,98385238"
"484424,9";"4646824,3";"Carrer de Lleida";"Eixos viaris";"2,81200282";"41,97325631"
"485423,5";"4647977,5";"Rambla de la Llibertat";"Eixos viaris";"2,82403177";"41,98366010"
"484866,6";"4646416,7";"Carrer del Riu Llierca";"Eixos viaris";"2,81734808";"41,96959020"
"486982,7";"4646972,7";"Plaça del Llimoner";"Eixos viaris";"2,84287363";"41,97463570"
"485272,7";"4646575,5";"Plaça de Lluís Companys";"Eixos viaris";"2,82224408";"41,97102995"
"485023,0";"4646039,5";"Avinguda de Lluís Pericot";"Eixos viaris";"2,81925250";"41,96619768"
"485742,4";"4645913,5";"Carrer de Lluís Antoni Santaló i Sors";"Eixos viaris";"2,82793265";"41,96507617"
"483521,4";"4647135,4";"Carrer de Félix Lope de Vega";"Eixos viaris";"2,80109525";"41,97603901"
"484750,3";"4645105,6";"Carrer de Lola Anglada i Sarriera";"Eixos viaris";"2,81598207";"41,95778021"
"484811,0";"4645043,7";"Carrer de Frederica Montseny i Mañé";"Eixos viaris";"2,81671974";"41,95722297"
"486561,4";"4646454,0";"Carrer de Palol d'Onyar";"Eixos viaris";"2,83780405";"41,96996318"
"485475,5";"4647702,8";"Plaça de Jacint Verdaguer i Santaló";"Eixos viaris";"2,82466629";"41,98118423"
"486140,8";"4649213,3";"Plaça de Domènec Fita i Molat";"Eixos viaris";"2,83265795";"41,99480525"
"485770,8";"4648810,5";"Camí de l'Escola de Montjuïc";"Eixos viaris";"2,82820044";"41,99116898"
"485783,2";"4648968,9";"Mirador d'Agustí Pera i Planells";"Eixos viaris";"2,82835357";"41,99259226"
"485989,8";"4648803,0";"Passatge de la Vall Umbrosa";"Eixos viaris";"2,83084460";"41,99110986"
"485837,8";"4649225,5";"Passatge dels Fossats";"Eixos viaris";"2,82899933";"41,99490794"
"485851,7";"4649126,0";"Passatge del Glacis";"Eixos viaris";"2,82917075";"41,99401653"
"485925,0";"4649492,0";"Passatge de la Riera de Can Punxa";"Eixos viaris";"2,83005542";"41,99731429"
"485851,6";"4649566,1";"Passatge de la Muntanya de Can Simon";"Eixos viaris";"2,82916015";"41,99797945"
"485796,8";"4649461,1";"Passatge del Puig Aulet";"Eixos viaris";"2,82849860";"41,99703277"
"485925,4";"4649304,4";"Passatge del Puig Estela";"Eixos viaris";"2,83005992";"41,99562104"
"484438,8";"4645660,0";"Carrer de Manuel Cazurro i Ruiz";"Eixos viaris";"2,81220259";"41,96277282"
"485301,8";"4646190,1";"Plaça de Fra Ignasi Barnoya i Oms";"Eixos viaris";"2,82260371";"41,96756292"
"485332,8";"4647146,8";"Baixada de la Font del Canó";"Eixos viaris";"2,82295399";"41,97617388"
"484830,2";"4647660,8";"Plaça de Joan Brossa";"Eixos viaris";"2,81688151";"41,98079379"
"484553,7";"4647406,7";"Carrer d'Antònia Adroher i Pascual";"Eixos viaris";"2,81354451";"41,97850072"
"484783,9";"4645057,1";"Passeig de Josep Carner i Puig-Oriol";"Eixos viaris";"2,81638151";"41,95734852"
"484478,5";"4646641,4";"Parc de la Comtessa Ermessenda";"Eixos viaris";"2,81265941";"41,97160915"
"484308,3";"4646422,9";"Plaça d'Empúries";"Eixos viaris";"2,81061347";"41,96963333"
"484423,0";"4646434,0";"Carrer de Salvador Dabau i Caussà";"Eixos viaris";"2,81200108";"41,96974369"
"483746,8";"4646805,2";"Carrer de Tomàs Carreras i Artau";"Eixos viaris";"2,80382015";"41,97307149"
"483536,7";"4647073,5";"Passeig de Santa Eugènia";"Eixos viaris";"2,80127804";"41,97548091"
"484623,8";"4647116,4";"Plaça d'Europa";"Eixos viaris";"2,81439703";"41,97589016"
"486676,8";"4648391,3";"Plaça de les Sardanes";"Eixos viaris";"2,83914809";"41,98741104"
"484439,6";"4648183,8";"Passeig del Güell";"Eixos viaris";"2,81214789";"41,98549664"
"485179,6";"4648516,0";"Passeig de l'Onyar";"Eixos viaris";"2,82107272";"41,98851013"
"483157,8";"4649490,5";"GI-V-5312";"Eixos viaris";"2,79663423";"41,99724193"
"484556,7";"4648700,9";"Passera de Fontajau";"Eixos viaris";"2,81354672";"41,99015538"
"486981,1";"4645161,5";"C-250";"Eixos viaris";"2,84290164";"41,95832457"
"485037,0";"4648468,4";"Passeig del Roserar";"Eixos viaris";"2,81935964";"41,98807512"
"484738,5";"4648358,9";"Passeig de la Sardana";"Eixos viaris";"2,81575285";"41,98707865"
"484792,1";"4648445,2";"Passeig del Ter";"Eixos viaris";"2,81640250";"41,98786328"
"485557,1";"4651354,6";"Pont de l'Aigua";"Eixos viaris";"2,82556632";"42,01407795"
"486370,0";"4652288,8";"C-255";"Eixos viaris";"2,83536350";"42,02250461"
"484641,0";"4643803,5";"C-65";"Eixos viaris";"2,81470077";"41,94605137"
"486598,2";"4652844,3";"C-66";"Eixos viaris";"2,83810479";"42,02751619"
"488057,0";"4648677,6";"Camí costa d'en Terrades";"Eixos viaris";"2,85581413";"41,99000909"
"485415,8";"4647587,5";"Pont de l'Alferes Huarte";"Eixos viaris";"2,82394488";"41,98014735"
"485439,6";"4647415,8";"Pont de l'Areny";"Eixos viaris";"2,82423884";"41,97859865"
"482201,5";"4648677,4";"GI-531";"Eixos viaris";"2,78511601";"41,98989853"
"483258,2";"4644818,0";"GI-533";"Eixos viaris";"2,79798674";"41,95516502"
"489176,7";"4646630,5";"GI-V-6703 Ctra. dels Àngels";"Eixos viaris";"2,86936128";"41,97158860"
"483926,6";"4643628,1";"N II";"Eixos viaris";"2,80607945";"41,94446096"
"486027,3";"4648523,8";"Pont de la Font del Bisbe";"Eixos viaris";"2,83131003";"41,98858867"
"485252,8";"4651848,8";"N IIa";"Eixos viaris";"2,82187032";"42,01852155"
"482599,9";"4646724,4";"N-141";"Eixos viaris";"2,78997876";"41,97231746"
"487105,2";"4647523,9";"Variant N II";"Eixos viaris";"2,84434615";"41,97960040"
"484903,1";"4648422,1";"Passeig de la Barca";"Eixos viaris";"2,81774312";"41,98765826"
"485053,5";"4648411,1";"Plaça de les Botxes";"Eixos viaris";"2,81955425";"41,98756205"
"484974,4";"4648387,7";"Passeig Central";"Eixos viaris";"2,81860115";"41,98734438"
"484310,9";"4647069,2";"Carrer de la Mare de Déu de la Salut";"Eixos viaris";"2,81062035";"41,97546068"
"485324,0";"4646656,7";"Carrer de la Mare de Déu de Loreto";"Eixos viaris";"2,82286966";"41,97176046"
"484342,4";"4646810,4";"Carrer de la Mare de Déu del Mont";"Eixos viaris";"2,81101348";"41,97312859"
"484434,1";"4647211,4";"Carrer de la Mare de Déu del Remei";"Eixos viaris";"2,81211327";"41,97674208"
"484391,9";"4647102,4";"Carrer de la Mare de Déu dels Àngels";"Eixos viaris";"2,81159714";"41,97575951"
"484454,1";"4646957,6";"Plaça de Madrid";"Eixos viaris";"2,81236139";"41,97445479"
"486178,9";"4644806,1";"Camí de l'Església de Sant Miquel";"Eixos viaris";"2,83322033";"41,95511353"
"488020,2";"4649091,8";"Camí de la Costa Dreta";"Eixos viaris";"2,85535899";"41,99373728"
"487659,7";"4649405,7";"Camí de Sant Miquel";"Eixos viaris";"2,85099386";"41,99655980"
"487142,5";"4647196,1";"Camí de Vila-roja";"Eixos viaris";"2,84479992";"41,97665582"
"491498,9";"4648160,3";"Camí del Puig Batet";"Eixos viaris";"2,89736416";"41,98539730"
"488674,5";"4648112,1";"Camí dels Àngels";"Eixos viaris";"2,86327394";"41,98492944"
"484427,6";"4643578,8";"Camí vell de Fornells";"Eixos viaris";"2,81212492";"41,94402067"
"487157,1";"4646649,9";"Carrer de la Planura";"Eixos viaris";"2,84499292";"41,97172942"
"484932,6";"4647662,9";"Plaça del Poeta Marquina";"Eixos viaris";"2,81811270";"41,98081376"
"485830,2";"4647402,9";"Pujada dels Polvorins";"Eixos viaris";"2,82895877";"41,97848869"
"485274,7";"4647706,3";"Plaça de Pompeu Fabra";"Eixos viaris";"2,82223990";"41,98121652"
"485421,6";"4648556,7";"Carrer de Jaume Pons i Martí";"Eixos viaris";"2,82399327";"41,98887491"
"484999,5";"4648836,7";"Carrer del Pont de la Barca";"Eixos viaris";"2,81889150";"41,99138884"
"485425,6";"4647874,6";"Pujada del Pont de Pedra";"Eixos viaris";"2,82405847";"41,98273245"
"485582,5";"4651216,9";"Carrer del Pont Major";"Eixos viaris";"2,82587165";"42,01283549"
"485457,6";"4650942,9";"Grup Pont Major";"Eixos viaris";"2,82436880";"42,01036538"
"485312,3";"4650828,3";"Carrer de Portlligat";"Eixos viaris";"2,82262054";"42,00933594"
"485546,3";"4648699,9";"Carrer del Portal de França";"Eixos viaris";"2,82549882";"41,99016516"
"485476,4";"4648526,1";"Carrer del Portal de la Barca";"Eixos viaris";"2,82465800";"41,98860572"
"485654,5";"4647964,4";"Carrer del Portal Nou";"Eixos viaris";"2,82682063";"41,98354725"
"485661,7";"4648059,5";"Travessia del Portal Nou";"Eixos viaris";"2,82690281";"41,98440301"
"484860,8";"4647796,3";"Carrer del Porvenir";"Eixos viaris";"2,81724014";"41,98201927"
"483946,7";"4649570,9";"Carrer del Pou de la Torre";"Eixos viaris";"2,80615854";"41,99797894"
"485496,4";"4648528,6";"Carrer del Pou Rodó";"Eixos viaris";"2,82489940";"41,98862411"
"485673,8";"4648061,7";"Escales d'Onofre Pou";"Eixos viaris";"2,82704762";"41,98442124"
"485648,4";"4647554,6";"Carrer d'Enric Prat de la Riba";"Eixos viaris";"2,82675821";"41,97985441"
"485212,1";"4648010,9";"Carrer de la Premsa";"Eixos viaris";"2,82148384";"41,98395338"
"486905,1";"4646489,8";"Pujada del Primer de Maig";"Eixos viaris";"2,84195501";"41,97028420"
"485062,3";"4647073,4";"Carrer del Príncep";"Eixos viaris";"2,81969690";"41,97551132"
"484406,5";"4647452,2";"Carrer del Progrés";"Eixos viaris";"2,81176891";"41,97891213"
"485539,1";"4647975,3";"Carrer de Joaquim Pla i Cargol";"Eixos viaris";"2,82543213";"41,98364422"
"484576,6";"4647875,0";"Plaça de Prudenci Bertrana";"Eixos viaris";"2,81380983";"41,98272529"
"486952,8";"4646867,4";"Carrer del Pruner";"Eixos viaris";"2,84251387";"41,97368950"
"483895,6";"4649518,2";"Carrer del Puig d'Adri";"Eixos viaris";"2,80554418";"41,99750956"
"486266,6";"4649499,2";"Carrer del Puig d'Àguiles";"Eixos viaris";"2,83417255";"41,99738336"
"486140,0";"4646215,9";"Carrer del Puig de Montilivi";"Eixos viaris";"2,83272863";"41,96780329"
"485239,9";"4645909,5";"Carrer del Puigpedrós";"Eixos viaris";"2,82186251";"41,96503089"
"483750,1";"4647130,6";"Carrer del Puigmal";"Eixos viaris";"2,80385945";"41,97599873"
"483957,7";"4646736,1";"Carrer del Puigneulós";"Eixos viaris";"2,80636871";"41,97245435"
"484783,6";"4646537,4";"Carrer de Joan Maria Pou i Camps";"Eixos viaris";"2,81634323";"41,97067841"
"483754,6";"4649060,8";"Carrer de Joan Miró i Ferrà";"Eixos viaris";"2,80385438";"41,99338163"
"485846,2";"4649368,4";"Carrer de l'11 de Setembre";"Eixos viaris";"2,82910455";"41,99619605"
"485038,1";"4647998,5";"Avinguda del 20 de Juny";"Eixos viaris";"2,81938368";"41,98384202"
"486256,1";"4649580,7";"Carrer del 8 de Juliol de 1809";"Eixos viaris";"2,83404991";"41,99811272"
"483970,0";"4647311,5";"Carrer de Baix";"Eixos viaris";"2,80650994";"41,97763344"
"485905,3";"4649418,9";"Carrer de l'Abat Escarré";"Eixos viaris";"2,82981571";"41,99664744"
"485446,9";"4647950,9";"Carrer dels Abeuradors";"Eixos viaris";"2,82431009";"41,98341734"
"486881,6";"4646880,3";"Carrer de l'Acàcia";"Eixos viaris";"2,84165663";"41,97380541"
"484798,4";"4648973,6";"Carrer d'Enric Adroher i Pascual";"Eixos viaris";"2,81646127";"41,99261890"
"483696,2";"4646908,4";"Carrer de les Agudes";"Eixos viaris";"2,80321382";"41,97399814"
"485084,9";"4645938,8";"Carrer de Josep Aguilera i Martí";"Eixos viaris";"2,81999123";"41,96528916"
"485692,2";"4651288,3";"Carrer d'Agustí Riera i Pau";"Eixos viaris";"2,82719837";"42,01348598"
"484267,1";"4645911,0";"Carrer d'Alacant";"Eixos viaris";"2,81013231";"41,96503010"
"484059,1";"4646696,2";"Passatge del Puigneulós";"Eixos viaris";"2,80760088";"41,97209616"
"486161,2";"4645730,3";"Carrer del Puigsacalm";"Eixos viaris";"2,83299348";"41,96343542"
"485917,4";"4646175,9";"Plaça del Puigvistós";"Eixos viaris";"2,83003829";"41,96743907"
"485860,2";"4646573,4";"Carrer de la Punta del Pi";"Eixos viaris";"2,82934082";"41,97102271"
"485486,7";"4648083,6";"Plaça dels Raïms";"Eixos viaris";"2,82478967";"41,98461596"
"485114,9";"4646469,3";"Carrer dels Rajolers";"Eixos viaris";"2,82033983";"41,97007227"
"485279,1";"4648273,7";"Avinguda de Ramon Folch";"Eixos viaris";"2,82228605";"41,98632339"
"484450,5";"4647277,7";"Carrer de Ramon Muntaner";"Eixos viaris";"2,81230465";"41,97733684"
"484851,5";"4647999,9";"Carrer de Ramon Turró";"Eixos viaris";"2,81712627";"41,98384745"
"485329,1";"4648314,0";"Carrer de Jeroni Real de Fontclara";"Eixos viaris";"2,82288863";"41,98669359"
"484481,4";"4645612,3";"Carrer de Reggio Emília";"Eixos viaris";"2,81272276";"41,96234135"
"485749,2";"4647548,9";"Carrer del Regiment de Baza";"Eixos viaris";"2,82797751";"41,97980221"
"485528,9";"4648492,5";"Pujada del Rei Martí";"Eixos viaris";"2,82528661";"41,98830046"
"485669,4";"4648432,2";"Passeig de la Reina Joana";"Eixos viaris";"2,82699029";"41,98776263"
"485237,6";"4647586,7";"Plaça de la  Reina Sibil·la de Fortià";"Eixos viaris";"2,82179628";"41,98013503"
"484544,4";"4647746,3";"Carrer dels Remences";"Eixos viaris";"2,81342693";"41,98156281"
"484977,0";"4645232,4";"Carrer de Ricard Guinó i Boix";"Eixos viaris";"2,81871797";"41,95892841"
"484966,6";"4646465,3";"Carrer del Riu Ridaura";"Eixos viaris";"2,81855372";"41,97003344"
"485471,6";"4646193,5";"Carrer de la Riera Bugantó";"Eixos viaris";"2,82465529";"41,96759309"
"484688,5";"4645525,7";"Carrer de la Riera d'Oix";"Eixos viaris";"2,81522301";"41,96156181"
"484572,6";"4645640,0";"Carrer de la Riera d'Osor";"Eixos viaris";"2,81382017";"41,96259532"
"485568,2";"4650560,0";"Carrer de la Riera de Can Camaret";"Eixos viaris";"2,82571870";"42,00692690"
"484643,1";"4645393,7";"Carrer de la Riera de Llémena";"Eixos viaris";"2,81468342";"41,96037206"
"484604,5";"4645402,1";"Carrer de la Riera de Marroc";"Eixos viaris";"2,81421256";"41,96045236"
"484581,1";"4645258,5";"Carrer de la Riera de Mus";"Eixos viaris";"2,81393879";"41,95915494"
"485457,4";"4645637,3";"Carrer de la Riera Palagret";"Eixos viaris";"2,82450007";"41,96258512"
"486973,4";"4646725,9";"Carrer del Rierol";"Eixos viaris";"2,84277048";"41,97241090"
"484072,9";"4649256,3";"Carrer de la Riera Rimau";"Eixos viaris";"2,80768841";"41,99515342"
"485080,2";"4649029,1";"Paratge de la Riera Rissec";"Eixos viaris";"2,81986451";"41,99312866"
"487282,9";"4649261,2";"Pont de Sant Miquel";"Eixos viaris";"2,84644507";"41,99525684"
"488420,0";"4647118,0";"Camí de les dones";"Eixos viaris";"2,86022727";"41,97597312"
"484215,4";"4646219,9";"Carrer d'Albacete";"Eixos viaris";"2,80949651";"41,96780312"
"485422,0";"4647806,7";"Carrer de l'Albereda";"Eixos viaris";"2,82402394";"41,98211994"
"484764,3";"4645341,3";"Carrer d'Albí";"Eixos viaris";"2,81614489";"41,95990606"
"485703,5";"4648338,0";"Carrer dels Alemanys";"Eixos viaris";"2,82740304";"41,98691663"
"484597,9";"4648983,6";"Carrer de Valentí Almirall i Llozer";"Eixos viaris";"2,81403428";"41,99270506"
"486099,2";"4648151,2";"Carrer dels Almogàvers";"Eixos viaris";"2,83218805";"41,98523947"
"483914,1";"4649193,3";"Carrer dels Alps";"Eixos viaris";"2,80578249";"41,99458280"
"485054,4";"4647732,4";"Avinguda de Mariano Álvarez de Castro";"Eixos viaris";"2,81958359";"41,98144655"
"484132,1";"4649138,7";"Carrer d'Andalusia";"Eixos viaris";"2,80841602";"41,99409185"
"484034,7";"4649199,3";"Plaça d'Andalusia";"Eixos viaris";"2,80723116";"41,99463928"
"485652,6";"4646725,0";"Carrer d'Andreu Tuyet i Santamaria";"Eixos viaris";"2,82682672";"41,97238796"
"483636,7";"4649320,6";"Carrer de l'Aneto";"Eixos viaris";"2,80242248";"41,99572091"
"483689,6";"4649268,3";"Plaça de l'Aneto";"Eixos viaris";"2,80306384";"41,99525366"
"485607,6";"4648661,1";"Carrer de l'Àngel";"Eixos viaris";"2,82623619";"41,98982403"
"485706,1";"4649374,8";"Carrer d'Àngela Bivern i Puig";"Eixos viaris";"2,82741405";"41,99624756"
"485297,3";"4648145,2";"Carrer d'Anselm Clavé i Camps";"Eixos viaris";"2,82250655";"41,98517087"
"485285,3";"4646876,3";"Carrer d'Antic Roca";"Eixos viaris";"2,82239345";"41,97374120"
"482677,0";"4648506,0";"Carretera Antiga d'Amer";"Eixos viaris";"2,79086767";"41,98836901"
"485705,7";"4646545,3";"Carrer d'Anton Agullana";"Eixos viaris";"2,82747078";"41,97076772"
"484386,6";"4644384,2";"Carrer d'Aragó";"Eixos viaris";"2,81160892";"41,95127926"
"485505,8";"4647990,4";"Carrer de l'Arc";"Eixos viaris";"2,82502132";"41,98377870"
"485470,3";"4648122,1";"Carrer de l'Argenteria";"Eixos viaris";"2,82459555";"41,98496693"
"484291,0";"4647168,5";"Carrer de Guillem Bofill";"Eixos viaris";"2,81038837";"41,97635196"
"485172,5";"4648161,0";"Carrer dels Artillers";"Eixos viaris";"2,82099717";"41,98531264"
"484382,7";"4647027,2";"Plaça de l'Assumpció";"Eixos viaris";"2,81149050";"41,97508383"
"484111,3";"4644549,4";"Carrer d'Astúries";"Eixos viaris";"2,80828646";"41,95275987"
"484159,8";"4647301,2";"Carrer de l'Atlàntida";"Eixos viaris";"2,80879152";"41,97754720"
"485514,8";"4647831,1";"Carrer de l'Auriga";"Eixos viaris";"2,82513389";"41,98234680"
"485482,8";"4647829,5";"Travessia de l'Auriga";"Eixos viaris";"2,82474765";"41,98232820"
"486991,0";"4647039,5";"Carrer de l'Avellaner";"Eixos viaris";"2,84298078";"41,97523930"
"485895,3";"4649052,5";"Carrer de l'Avi Xaxu";"Eixos viaris";"2,82970376";"41,99335083"
"485120,6";"4647608,8";"Carrer de Bernat Bacià";"Eixos viaris";"2,82038343";"41,98033098"
"484918,3";"4647556,4";"Carrer de Bailèn";"Eixos viaris";"2,81794643";"41,97985879"
"484120,2";"4647019,7";"Carrer del Balandrau";"Eixos viaris";"2,80832839";"41,97500654"
"484130,8";"4646951,7";"Passatge del Balandrau";"Eixos viaris";"2,80845093";"41,97439429"
"484468,8";"4645531,7";"Carrer del Riu Brugent";"Eixos viaris";"2,81256802";"41,96161155"
"485903,2";"4646250,7";"Carrer de Sant Aniol";"Eixos viaris";"2,82986754";"41,96811432"
"484755,8";"4645721,4";"Carrer del Riu Cardener";"Eixos viaris";"2,81602644";"41,96332842"
"484828,0";"4646545,2";"Carrer del Riu Ser";"Eixos viaris";"2,81688614";"41,97075133"
"485136,4";"4647541,2";"Ronda de Sant Antoni Maria Claret";"Eixos viaris";"2,82057826";"41,97972783"
"485178,8";"4645734,8";"Carrer del Roc de Frausa";"Eixos viaris";"2,82113077";"41,96345357"
"485228,7";"4645978,1";"Carrer de Roca Colom";"Eixos viaris";"2,82172803";"41,96565214"
"485798,7";"4648364,1";"Carrer de Sant Cristòfor";"Eixos viaris";"2,82854927";"41,98715252"
"485497,4";"4647439,1";"Carrer de Jaume Roca i Delpech";"Eixos viaris";"2,82493834";"41,97881588"
"485957,0";"4648485,3";"Carrer de Sant Daniel";"Eixos viaris";"2,83046586";"41,98824517"
"485690,1";"4648201,4";"Plaça de Sant Domènec";"Eixos viaris";"2,82724943";"41,98568248"
"484650,4";"4649044,4";"Carrer de Narcís Roca i Farreras";"Eixos viaris";"2,81467257";"41,99325550"
"484511,5";"4647559,1";"Plaça de la Rodona";"Eixos viaris";"2,81303351";"41,97987791"
"483565,2";"4647244,7";"Carrer de Joan Gaspar Roig i Jalpí";"Eixos viaris";"2,80162329";"41,97702166"
"486317,1";"4649464,6";"Carrer de Tomàs Roig i Llop";"Eixos viaris";"2,83478914";"41,99706901"
"484288,6";"4647011,0";"Carrer de Roma";"Eixos viaris";"2,81035635";"41,97493785"
"485159,9";"4645090,4";"Passatge del Romaní";"Eixos viaris";"2,82091772";"41,95765291"
"485978,2";"4646419,8";"Carrer de Romanyà";"Eixos viaris";"2,83076866";"41,96963779"
"483858,0";"4649306,1";"Carrer de les Roques Altes";"Eixos viaris";"2,80510326";"41,99559940"
"485629,1";"4648156,4";"Pujada de Sant Domènec";"Eixos viaris";"2,82651414";"41,98527607"
"485189,1";"4644715,5";"Carrer del Ros de Palau";"Eixos viaris";"2,82128916";"41,95427597"
"485593,4";"4648616,9";"Carrer de la Rosa";"Eixos viaris";"2,82606828";"41,98941847"
"484209,1";"4646380,5";"Carrer del Rosselló";"Eixos viaris";"2,80941977";"41,96925307"
"487072,2";"4647052,1";"Carrer del Roure";"Eixos viaris";"2,84395817";"41,97535772"
"484273,6";"4647450,1";"Carrer d'Antoni Rovira i Virgili";"Eixos viaris";"2,81016356";"41,97889147"
"485253,3";"4646866,6";"Carrer de la Rutlla";"Eixos viaris";"2,82200747";"41,97365054"
"485559,3";"4648528,0";"Carrer de Sacsimort";"Eixos viaris";"2,82565997";"41,98862526"
"485149,8";"4646464,4";"Carrer de Sant Agustí";"Eixos viaris";"2,82076238";"41,97002790"
"486756,5";"4646457,6";"Carretera de Sant Feliu";"Eixos viaris";"2,84015744";"41,96999350"
"485444,6";"4648468,6";"Plaça de Sant Feliu";"Eixos viaris";"2,82427312";"41,98808275"
"485463,7";"4648369,9";"Pujada de Sant Feliu";"Eixos viaris";"2,82450494";"41,98719144"
"485138,7";"4649315,6";"Carrer de Pep Colomer i Martí";"Eixos viaris";"2,82055753";"41,99570566"
"485404,6";"4647332,6";"Pont de Tomás de Lorenzana";"Eixos viaris";"2,82381843";"41,97785045"
"485519,1";"4647778,4";"Placeta de les Homilies d'Organyà";"Eixos viaris";"2,82519555";"41,98186954"
"483554,0";"4646956,8";"Rotonda del Tren d'Olot";"Eixos viaris";"2,80149857";"41,97442751"
"483781,2";"4648764,8";"Carrer de Damià Escuder i Lladó";"Eixos viaris";"2,80418854";"41,99071622"
"484345,9";"4648958,7";"Plaça de Miquel Martí i Pol";"Eixos viaris";"2,81099248";"41,99247492"
"485548,0";"4647125,3";"Passatge del Riu Onyar";"Eixos viaris";"2,82556167";"41,97598873"
"483903,8";"4644138,3";"Rotonda de Fornells de la Selva";"Eixos viaris";"2,80578803";"41,94905390"
"486244,1";"4646035,8";"Carrer de Maria Assumpció Soler i Font";"Eixos viaris";"2,83398797";"41,96618391"
"483569,7";"4645957,7";"Carrer de l'Aurora";"Eixos viaris";"2,80170753";"41,96543017"
"483602,2";"4646093,5";"Carrer de Montserrat Llonch i Gimbernat";"Eixos viaris";"2,80210198";"41,96665576"
"483725,8";"4646437,6";"Carrer de Maria Castanyer i Figueras";"Eixos viaris";"2,80357687";"41,96975660"
"483624,7";"4646614,4";"Carrer de Matilde Alis i Clopés";"Eixos viaris";"2,80235298";"41,97134869"
"484156,3";"4646612,4";"Rotonda del Riu Güell";"Eixos viaris";"2,80877387";"41,97134155"
"484186,8";"4647853,2";"Carrer del Poble Sahrauí";"Eixos viaris";"2,80910257";"41,98251941"
"484237,2";"4647884,8";"Carrer de Jaume Faixó i Fusellas";"Eixos viaris";"2,80971738";"41,98279964"
"484250,7";"4647788,3";"Carrer de Carles Vivó i Siqués";"Eixos viaris";"2,80987688";"41,98193526"
"484264,7";"4644649,7";"Carrer del 8 de Març de 1908";"Eixos viaris";"2,81012985";"41,95366361"
"484238,6";"4644798,0";"Carrer de Can Turon";"Eixos viaris";"2,80981215";"41,95500509"
"484075,6";"4644256,6";"Plaça de l'Avellaneda";"Eixos viaris";"2,80786002";"41,95012018"
"484131,9";"4644503,6";"Carrer de Ricard Viladesau i Caner";"Eixos viaris";"2,80852902";"41,95234597"
"485754,7";"4648004,4";"Jardins d'Eusebi Colomer i Pous";"Eixos viaris";"2,82802681";"41,98390933"
"486908,4";"4646900,8";"Plaça de l'Acàcia";"Eixos viaris";"2,84198207";"41,97398599"
"484245,1";"4649503,5";"Camí del Pla de Dalt";"Eixos viaris";"2,80977054";"41,99738154"
"484215,5";"4649796,3";"Camí de Can Carreres";"Eixos viaris";"2,80940044";"42,00001988"
"484106,5";"4649716,4";"Carrer de Can Cases";"Eixos viaris";"2,80808647";"41,99929716"
"483928,0";"4648798,2";"Carrer de la Font de la Teula";"Eixos viaris";"2,80596232";"41,99102546"
"483092,0";"4648579,4";"Rotonda de la Carretera Antiga d'Amer";"Eixos viaris";"2,79587563";"41,98903551"
"484934,5";"4648928,8";"Rotonda del Pont de la Barca";"Eixos viaris";"2,81810439";"41,99221621"
"484340,5";"4647453,8";"Rotonda de Santa Eugènia";"Eixos viaris";"2,81097222";"41,97891983"
"486625,1";"4646155,9";"Rotonda d'Emili Grahit";"Eixos viaris";"2,83858326";"41,96727127"
"484249,7";"4647178,9";"Rotonda del Passeig d'Olot";"Eixos viaris";"2,80988115";"41,97644119"
"485362,7";"4647874,3";"Pont de Pedra";"Eixos viaris";"2,82329797";"41,98273128"
"485341,2";"4648623,0";"Pont de Pedret";"Eixos viaris";"2,82302579";"41,98947687"
"485422,5";"4648072,4";"Pont de les Peixateries Velles";"Eixos viaris";"2,82401735";"41,98451571"
"486223,7";"4648435,1";"Pont d'en Pericot";"Eixos viaris";"2,83367831";"41,98779954"
"485602,4";"4648519,7";"Pont de la Plaça dels Jurats";"Eixos viaris";"2,82617931";"41,98854499"
"485447,1";"4648175,9";"Pont de Sant Agustí";"Eixos viaris";"2,82431659";"41,98544386"
"484222,1";"4647494,5";"Carrer de Joan Masó i Valentí";"Eixos viaris";"2,80954678";"41,97928675"
"483456,0";"4649409,4";"Carrer de Joan Oliver i Sallarès, ""Pere Quart""";"Eixos viaris";"2,80024668";"41,99651874"
"483419,1";"4649443,3";"Carrer de Joan Salvat- Papasseit";"Eixos viaris";"2,79979898";"41,99682418"
"485351,3";"4648422,7";"Passeig de José Canalejas";"Eixos viaris";"2,82315153";"41,98766672"
"484422,9";"4646937,2";"Carrer de la Mare de Déu de Fàtima";"Eixos viaris";"2,81197568";"41,97427402"
"484525,2";"4647147,8";"Plaça de la Mare de Déu de Montserrat";"Eixos viaris";"2,81321335";"41,97616745"
"484410,9";"4646743,1";"Carrer de la Mare de Déu de Núria";"Eixos viaris";"2,81183599";"41,97252649"
"484290,7";"4646786,3";"Carrer de la Mare de Déu de Rocacorba";"Eixos viaris";"2,81038651";"41,97291139"
"485416,7";"4648308,5";"Pont d'en Gómez";"Eixos viaris";"2,82393906";"41,98664117"
"484423,5";"4646778,5";"Carrer de la Mare de Déu del Collell";"Eixos viaris";"2,81199197";"41,97284198"
"484588,1";"4647316,7";"Carrer de la Mare de Déu del Pilar";"Eixos viaris";"2,81396934";"41,97769081"
"486400,6";"4649391,8";"Carrer de Josep Maria Dalmau";"Eixos viaris";"2,83579299";"41,99641297"
"485218,2";"4645558,0";"Carrer del Mas Barril";"Eixos viaris";"2,82161790";"41,96186915"
"485016,9";"4644106,4";"Carrer del Mas Carreras";"Eixos viaris";"2,81921724";"41,94878762"
"483833,4";"4649405,7";"Carrer del Mas Catofa";"Eixos viaris";"2,80479869";"41,99649054"
"484898,4";"4644173,1";"Carrer del Mas Devesa";"Eixos viaris";"2,81779185";"41,94938882"
"484983,1";"4644423,3";"Carrer del Mas Figueres";"Eixos viaris";"2,81881101";"41,95164211"
"485005,0";"4645360,5";"Carrer del Mas Grau";"Eixos viaris";"2,81905258";"41,96008180"
"485244,6";"4644692,4";"Carrer del Mas Jardí";"Eixos viaris";"2,82195337";"41,95406984"
"483799,0";"4649569,1";"Carrer del Mas Vendrell";"Eixos viaris";"2,80438365";"41,99796693"
"484932,8";"4644703,5";"Carrer del Mas Verd";"Eixos viaris";"2,81818850";"41,95416302"
"484604,1";"4647947,2";"Passatge dels Massaguer";"Eixos viaris";"2,81414594";"41,98337432"
"483874,4";"4647182,2";"Carrer de la Maçana";"Eixos viaris";"2,80535472";"41,97646963"
"486438,9";"4649718,4";"Carrer de la Massolet";"Eixos viaris";"2,83624425";"41,99935879"
"486058,3";"4648197,5";"Carrer Medieval";"Eixos viaris";"2,83169201";"41,98565305"
"485447,8";"4650486,0";"Carrer de l'Illa de Menorca";"Eixos viaris";"2,82425934";"42,00625818"
"485479,1";"4648007,5";"Carrer dels Mercaders";"Eixos viaris";"2,82470704";"41,98393133"
"485505,9";"4647783,3";"Pujada de la Mercè";"Eixos viaris";"2,82502643";"41,98191432"
"485887,0";"4648110,0";"Carrer dels Merlets";"Eixos viaris";"2,82962980";"41,98486643"
"484831,7";"4645531,2";"Carrer del Mas Aragai";"Eixos viaris";"2,81694849";"41,96161862"
"484415,7";"4646856,4";"Carrer de Mestre Dalmau i Carles";"Eixos viaris";"2,81189334";"41,97354434"
"484687,8";"4647693,8";"Carrer de Mestre Francesc Civil";"Eixos viaris";"2,81515449";"41,98108825"
"483636,6";"4648997,1";"Carrer de Josep Baró i Güell";"Eixos viaris";"2,80243148";"41,99281177"
"485608,0";"4650923,9";"Carrer de Mestre Vicenç Bou";"Eixos viaris";"2,82619284";"42,01019703"
"485042,7";"4646579,2";"Carrer del Migdia";"Eixos viaris";"2,81946807";"41,97106165"
"485129,3";"4647182,2";"Passatge del Migdia";"Eixos viaris";"2,82050284";"41,97649431"
"487019,4";"4647007,5";"Carrer de la Mimosa";"Eixos viaris";"2,84331945";"41,97495154"
"485497,1";"4648050,4";"Carrer de Guillem Minali";"Eixos viaris";"2,82492327";"41,98431895"
"486368,7";"4649454,0";"Carrer de Jaume Ministral i Masià";"Eixos viaris";"2,83540516";"41,99697983"
"485107,8";"4648092,9";"Carrer de Miquel Blay";"Eixos viaris";"2,82021424";"41,98468995"
"484678,3";"4647811,5";"Plaça de Miquel de Palol";"Eixos viaris";"2,81504278";"41,98215086"
"484254,8";"4646927,9";"Carrer de Miquel Santaló";"Eixos viaris";"2,80994823";"41,97418061"
"483922,4";"4649409,6";"Carrer de la Modeguera Gran";"Eixos viaris";"2,80587316";"41,99652839"
"484814,1";"4649409,5";"Carrer de Francesc Ferrer i Gironès";"Eixos viaris";"2,81664317";"41,99654610"
"484678,5";"4646112,4";"Plaça de Celestina Vigneaux i Cibils";"Eixos viaris";"2,81508705";"41,96684854"
"484595,3";"4646129,5";"Plaça de Valentí Fargnoli";"Eixos viaris";"2,81408492";"41,96700003"
"484784,8";"4644694,0";"Carrer del Mas Palahí";"Eixos viaris";"2,81640296";"41,95407911"
"484855,4";"4644714,9";"Carrer de les Terreres";"Eixos viaris";"2,81725913";"41,95426061"
"484499,5";"4648061,2";"Rotonda de Joaquim Vayreda";"Eixos viaris";"2,81287542";"41,98439902"
"484935,6";"4646344,2";"Rotonda del Migdia";"Eixos viaris";"2,81818268";"41,96894304"
"485052,4";"4647299,8";"Plaça de Joaquim Pla i Dalmau";"Eixos viaris";"2,81957046";"41,97754663"
"485428,7";"4647929,2";"Carrer dels Germans Busquets";"Eixos viaris";"2,82409332";"41,98322787"
"483480,3";"4645372,6";"Carrer d'Antoni Barnés i Gultresa";"Eixos viaris";"2,80064989";"41,96015941"
"485402,5";"4646180,9";"Plaça de Josep Maria Puig i Salellas";"Eixos viaris";"2,82382288";"41,96747473"
"484245,5";"4644992,7";"Rotonda de Barcelona";"Eixos viaris";"2,80989142";"41,95675252"
"484468,1";"4645135,9";"Carrer de Joan Amades i Gelats";"Eixos viaris";"2,81257847";"41,95804490"
"484288,3";"4645080,7";"Carrer d'Ovidi Montllor";"Eixos viaris";"2,81040793";"41,95754597"
"483508,3";"4645105,7";"Rotonda de Marie Curie";"Eixos viaris";"2,80099525";"41,95775521"
"483390,8";"4645170,5";"Carrer de Marie Curie";"Eixos viaris";"2,79956955";"41,95833817"
"483436,9";"4645272,9";"Carrer de Jaume Pol i Perera";"Eixos viaris";"2,80012175";"41,95925781"
"483423,1";"4645278,7";"Carrer de Francesca Bonnemaison i Farriols";"Eixos viaris";"2,79996471";"41,95931158"
"482985,4";"4648675,1";"Carrer de Can Segalars";"Eixos viaris";"2,79458109";"41,98989784"
"485015,5";"4646120,5";"Carrer de Gabriel Roura i Güibas";"Eixos viaris";"2,81915389";"41,96692707"
"484931,9";"4646513,4";"Plaça de Manuel Vázquez Montalbán";"Eixos viaris";"2,81813008";"41,97046509"
"485609,5";"4648544,5";"Placeta de Maria Laffitte Masjoan";"Eixos viaris";"2,82626320";"41,98877029"
"483639,6";"4648639,4";"Carrer de Roberto Bolaño Ávalos";"Eixos viaris";"2,80247766";"41,98958746"
"485753,1";"4646069,0";"Jardins de Vicenç Albert Ballester i Camps";"Eixos viaris";"2,82806162";"41,96648141"
"485722,0";"4646197,3";"Passatge de Maria Aurèlia Capmany i Farnés";"Eixos viaris";"2,82768440";"41,96763371"
"485153,9";"4647413,2";"Plaça de Miquel Santaló";"Eixos viaris";"2,82078669";"41,97857530"
"484941,4";"4646934,0";"Carrer d'Oriol Martorell i Codina";"Eixos viaris";"2,81823999";"41,97425709"
"485409,1";"4647175,0";"Jardins de Pablo García Cortés";"Eixos viaris";"2,82388268";"41,97643650"
"487076,9";"4646457,7";"Plaça de Pablo Ruiz Picasso";"Eixos viaris";"2,84401952";"41,96999881"
"485113,5";"4647299,5";"Carrer de Sant Joan Baptista de La Salle";"Eixos viaris";"2,82030675";"41,97754779"
"485394,7";"4646291,9";"Carrer de Sant Salvador d'Horta";"Eixos viaris";"2,82372358";"41,96847433"
"483676,5";"4645345,0";"Rotonda de Santa Coloma de Farners";"Eixos viaris";"2,80301579";"41,95992031"
"486886,9";"4646638,9";"Plaça de Sebastià Salellas i Magret";"Eixos viaris";"2,84172237";"41,97162588"
"485542,8";"4648141,8";"Carrer de Bonaventura Carreras i Peralta";"Eixos viaris";"2,82546426";"41,98513938"
"484601,0";"4646683,1";"Carrer de Bru Barnoya i Xiberta";"Eixos viaris";"2,81414283";"41,97198985"
"483843,3";"4647328,4";"Carrer de la Sèquia Monar";"Eixos viaris";"2,80497653";"41,97778396"
"486297,3";"4648618,8";"Carrer de les Monges";"Eixos viaris";"2,83456739";"41,98944905"
"484012,1";"4648815,3";"Carrer de Montbó";"Eixos viaris";"2,80697599";"41,99118029"
"483783,6";"4646895,6";"Carrer del Montcalm";"Eixos viaris";"2,80426424";"41,97388285"
"483616,6";"4646834,6";"Carrer del Montfalgars";"Eixos viaris";"2,80225030";"41,97332999"
"485666,7";"4645885,3";"Avinguda de Montilivi";"Eixos viaris";"2,82701616";"41,96482261"
"486328,3";"4649245,6";"Carrer de Montjovi";"Eixos viaris";"2,83492706";"41,99509675"
"485660,4";"4648721,0";"Carrer de Montjuïc";"Eixos viaris";"2,82687458";"41,99036539"
"483764,2";"4646712,2";"Carrer del Montnegre";"Eixos viaris";"2,80403997";"41,97223424"
"485978,0";"4646681,7";"Carrer de Montori";"Eixos viaris";"2,83076241";"41,97199753"
"486148,8";"4648594,6";"Carrer de Mariano Montorro";"Eixos viaris";"2,83276913";"41,98923028"
"483846,1";"4647080,2";"Carrer del Montseny";"Eixos viaris";"2,80501955";"41,97555038"
"485595,7";"4647873,2";"Carrer d'en Mora";"Eixos viaris";"2,82611064";"41,98272657"
"485463,2";"4648516,5";"Carrer de les Mosques";"Eixos viaris";"2,82450131";"41,98851542"
"485338,5";"4646622,6";"Carrer de Mossèn Baldiri Reixac";"Eixos viaris";"2,82303948";"41,97145449"
"485549,5";"4651175,5";"Passatge de Mossèn Pere Rabat";"Eixos viaris";"2,82547411";"42,01246562"
"484506,4";"4645905,8";"Carrer del Riu Muga";"Eixos viaris";"2,81301673";"41,96498080"
"485585,8";"4647525,1";"Carrer de la Muntanya";"Eixos viaris";"2,82599845";"41,97959207"
"485849,6";"4648146,8";"Carrer de la Muralla";"Eixos viaris";"2,82917020";"41,98518999"
"484811,8";"4646484,3";"Carrer de Narcís Blanch i Illa";"Eixos viaris";"2,81668254";"41,97020159"
"485697,3";"4648506,4";"Plaça de Narcís Figueras";"Eixos viaris";"2,82732651";"41,98842964"
"484451,3";"4647454,1";"Carrer de Narcís Monturiol";"Eixos viaris";"2,81231204";"41,97893103"
"484352,2";"4646940,5";"Carrer de Narcís Xifra i Masmitjà";"Eixos viaris";"2,81113072";"41,97429965"
"485491,9";"4648011,2";"Carrer de la Neu";"Eixos viaris";"2,82485180";"41,98396758"
"483842,3";"4649267,2";"Carrer d'Alfred Nobel";"Eixos viaris";"2,80491115";"41,99524781"
"486949,7";"4646968,7";"Carrer del Noguer";"Eixos viaris";"2,84247542";"41,97459913"
"485307,3";"4648145,2";"Carrer del Nord";"Eixos viaris";"2,82262727";"41,98517106"
"485198,9";"4647867,6";"Carrer Nou";"Eixos viaris";"2,82131844";"41,98266517"
"485512,6";"4647850,8";"Carrer Nou del Teatre";"Eixos viaris";"2,82510928";"41,98251789"
"485323,8";"4647995,7";"Carrer de l'Obra";"Eixos viaris";"2,82282417";"41,98382036"
"485560,1";"4648092,6";"Plaça de l'Oli";"Eixos viaris";"2,82568276";"41,98469838"
"485563,7";"4648216,4";"Carrer de Miquel Oliva i Prat";"Eixos viaris";"2,82571593";"41,98581526"
"485583,5";"4647115,5";"Carrer de l'Olivera";"Eixos viaris";"2,82598437";"41,97589930"
"485455,0";"4648007,0";"Carrer de les Olles";"Eixos viaris";"2,82441732";"41,98393089"
"484152,4";"4647164,3";"Passeig d'Olot";"Eixos viaris";"2,80871072";"41,97631315"
"483584,6";"4649394,2";"Plaça de la Pau";"Eixos viaris";"2,80179257";"41,99638632"
"483905,1";"4647243,4";"Plaça de Leonor Joher Besalú";"Eixos viaris";"2,80572722";"41,97701967"
"484881,8";"4649062,2";"Plaça de Louis Braille";"Eixos viaris";"2,81746106";"41,99342209"
"485231,2";"4647653,6";"Passatge d'Aristides Maillol";"Eixos viaris";"2,82172217";"41,98073836"
"484557,0";"4645525,6";"Parc de Francesc Sabaté i Llopart";"Eixos viaris";"2,81364218";"41,96155926"
"485581,0";"4648203,8";"Mirador del Carrer de les Dones";"Eixos viaris";"2,82593354";"41,98569851"
"485926,6";"4647771,5";"Mirador de la  Torre d'Alfons XII";"Eixos viaris";"2,83010871";"41,98181387"
"486580,9";"4647466,1";"Mirador dels Polvorins";"Eixos viaris";"2,83801027";"41,97907825"
"486396,7";"4648191,7";"Mirador de la  Muntanya de la O";"Eixos viaris";"2,83577247";"41,98560492"
"487225,8";"4648688,7";"Mirador del Turó de Can Garcia";"Eixos viaris";"2,84576932";"41,99009511"
"484360,1";"4648063,1";"Plaça de Josep Maria Lidón Corbí";"Eixos viaris";"2,81119740";"41,98441428"
"483181,2";"4648699,1";"Carrer de Lluís Maria Xirinacs i Damians";"Eixos viaris";"2,79694666";"41,99011821"
"483476,2";"4648749,1";"Carrer de Pere Rodeja i Ponsatí";"Eixos viaris";"2,80050672";"41,99057479"
"483310,0";"4648729,7";"Passeig de Feliu Matamala i Teixidor";"Eixos viaris";"2,79850320";"41,99039115"
"486742,0";"4646205,5";"Parc de Miquel Pairolí i Sarrà";"Eixos viaris";"2,83999415";"41,96772358"
"484730,4";"4649034,0";"Plaça dela Font";"Eixos viaris";"2,81563871";"41,99316699"
"485168,1";"4647651,3";"Plaça dels Manaies de Girona";"Eixos viaris";"2,82096175";"41,98071917"
"484549,6";"4646676,9";"Carrer d'Oviedo";"Eixos viaris";"2,81351541";"41,97192578"
"485479,7";"4646944,7";"Plaça dels Països Catalans";"Eixos viaris";"2,82473330";"41,97435725"
"485546,6";"4648929,1";"Carrer de Palafrugell";"Eixos viaris";"2,82549316";"41,99223669"
"485485,0";"4648704,7";"Carrer de Palamós";"Eixos viaris";"2,82476226";"41,99020907"
"485201,5";"4645816,7";"Plaça de Palau";"Eixos viaris";"2,82140627";"41,96419255"
"485743,6";"4647318,7";"Camí del Palco dels Sastres";"Eixos viaris";"2,82791066";"41,97773056"
"484352,4";"4646509,4";"Carrer de Pamplona";"Eixos viaris";"2,81114219";"41,97041778"
"484481,4";"4647319,6";"Carrer del Pare Coll";"Eixos viaris";"2,81267772";"41,97771573"
"485485,6";"4646463,1";"Carrer de Francesc Palau i Quer";"Eixos viaris";"2,82481759";"41,97002515"
"485500,6";"4647227,4";"Carrer de Josep Pascual i Prats";"Eixos viaris";"2,82497978";"41,97690652"
"484553,2";"4647919,2";"Carrer de Pau Casals";"Eixos viaris";"2,81353103";"41,98312113"
"486647,7";"4649460,8";"Carrer de Pau Miranda";"Eixos viaris";"2,83877370";"41,99703865"
"483579,9";"4646897,0";"Carrer del Pedraforca";"Eixos viaris";"2,80180197";"41,97389664"
"485593,1";"4647642,0";"Pujada de les Pedreres";"Eixos viaris";"2,82609215";"41,98064599"
"485542,7";"4647701,6";"Jardins de les Pedreres";"Eixos viaris";"2,82547508";"41,98117645"
"485499,1";"4649389,4";"Carrer de Pedret";"Eixos viaris";"2,82491437";"41,99637888"
"485464,6";"4648732,8";"Ronda de Pedret";"Eixos viaris";"2,82450803";"41,99046087"
"485791,4";"4649258,1";"Ronda de Peius Pascual i Carbó";"Eixos viaris";"2,82844314";"41,99520433"
"485475,5";"4648035,1";"Carrer de les Peixateries Velles";"Eixos viaris";"2,82465806";"41,98418344"
"485503,9";"4651184,9";"Plaça de l'Om";"Eixos viaris";"2,82491835";"42,01254583"
"485520,8";"4647143,3";"Carrer del Riu Onyar";"Eixos viaris";"2,82522326";"41,97615033"
"484092,0";"4646956,8";"Carrer d'Orient";"Eixos viaris";"2,80799214";"41,97443855"
"484380,1";"4647324,8";"Carrer de Pere Compte";"Eixos viaris";"2,81145847";"41,97775876"
"484858,9";"4647708,0";"Carrer de Pere de Palol";"Eixos viaris";"2,81721826";"41,98122665"
"485050,1";"4645712,9";"Carrer de Pere Matas";"Eixos viaris";"2,81958666";"41,96325301"
"485672,2";"4648335,2";"Carrer de Pere de Rocabertí";"Eixos viaris";"2,82702887";"41,98688904"
"485318,8";"4647960,0";"Carrer del Perill";"Eixos viaris";"2,82276468";"41,98350503"
"485173,0";"4645638,6";"Carrer del Pic de la Dona";"Eixos viaris";"2,82107285";"41,96258884"
"485271,8";"4645915,6";"Carrer de la Pica d'Estats";"Eixos viaris";"2,82224854";"41,96508553"
"487282,4";"4646808,3";"Carrer de la Pineda";"Eixos viaris";"2,84649815";"41,97316350"
"485715,2";"4647767,9";"Carrer del Pirineu";"Eixos viaris";"2,82756178";"41,98177405"
"485268,6";"4646030,7";"Carrer del Pla Guillem";"Eixos viaris";"2,82220946";"41,96612124"
"483490,1";"4645518,5";"Accés AP7";"Eixos viaris";"2,80076646";"41,96147459"
"483420,8";"4649532,1";"Autopista AP7";"Eixos viaris";"2,79980854";"41,99762579"
"483529,7";"4649351,2";"Carrer de la Coma";"Eixos viaris";"2,80112971";"41,99599788"
"485145,8";"4645565,1";"Carrer del Comanegra";"Eixos viaris";"2,82073680";"41,96193082"
"485668,0";"4651239,5";"Carrer del Comerç";"Eixos viaris";"2,82690971";"42,01304422"
"483791,5";"4647176,7";"Carreró del Conflent";"Eixos viaris";"2,80435306";"41,97641388"
"485129,8";"4648002,9";"Plaça de la Constitució";"Eixos viaris";"2,82048210";"41,98387977"
"484951,9";"4647104,1";"Carrer del Cor de Maria";"Eixos viaris";"2,81835634";"41,97578841"
"485526,1";"4648174,6";"Plaça del Correu Vell";"Eixos viaris";"2,82527030";"41,98543631"
"485385,6";"4650286,8";"Carrer de Còrsega";"Eixos viaris";"2,82351561";"42,00445571"
"485518,1";"4648101,6";"Carrer de la Cort Reial";"Eixos viaris";"2,82517552";"41,98477867"
"484390,1";"4646646,4";"Carrer de la Corunya";"Eixos viaris";"2,81159718";"41,97165245"
"484136,6";"4646363,7";"Carrer de la Costa Brava";"Eixos viaris";"2,80853921";"41,96909849"
"484987,9";"4645719,8";"Carrer de Pere Costa i Cases";"Eixos viaris";"2,81882621";"41,96331486"
"483642,2";"4647280,1";"Carrer del Costabona";"Eixos viaris";"2,80255170";"41,97734750"
"486137,8";"4645913,2";"Carrer del Coll d'Ares";"Eixos viaris";"2,83269954";"41,96508322"
"483626,3";"4649147,2";"Carrer del Collsacabra";"Eixos viaris";"2,80230656";"41,99416256"
"485098,1";"4647120,8";"Carrer de la Creu";"Eixos viaris";"2,82013023";"41,97593531"
"485099,6";"4645681,1";"Pujada de la Creu de Palau";"Eixos viaris";"2,82017876";"41,96297473"
"485230,8";"4647117,9";"Travessia de la Creu";"Eixos viaris";"2,82172357";"41,97591078"
"486065,4";"4648222,2";"Carrer de les Creus";"Eixos viaris";"2,83177592";"41,98587834"
"484352,4";"4647144,4";"Carrer de Cristòfor Colom";"Eixos viaris";"2,81112529";"41,97613701"
"485160,7";"4647969,8";"Carrer de Cristòfol Grober";"Eixos viaris";"2,82085715";"41,98358313"
"485417,3";"4647843,5";"Carrer de la Croada";"Eixos viaris";"2,82396267";"41,98245309"
"485540,4";"4648323,0";"Carrer de Manuel Cúndaro";"Eixos viaris";"2,82543564";"41,98677855"
"484645,2";"4646688,0";"Plaça de Salvador Dalí i Domènech";"Eixos viaris";"2,81467375";"41,97203574"
"484782,9";"4646473,3";"Carrer del Riu Daró";"Eixos viaris";"2,81633282";"41,97010196"
"485672,9";"4648552,9";"Jardins de John Lennon";"Eixos viaris";"2,82702358";"41,98884349"
"484702,7";"4648547,6";"Passeig de la Devesa";"Eixos viaris";"2,81531333";"41,98878021"
"485157,8";"4647815,2";"Plaça de la Diputació";"Eixos viaris";"2,82082483";"41,98219605"
"485277,2";"4646800,5";"Carrer de Josep Ametller i Viñas";"Eixos viaris";"2,82229880";"41,97305654"
"485443,1";"4650484,7";"Carrer de l'Illa d'Eivissa";"Eixos viaris";"2,82421108";"42,00624010"
"485223,9";"4648046,6";"Carrer de Francesc Eiximenis";"Eixos viaris";"2,82161572";"41,98427783"
"484273,3";"4646071,9";"Carrer d'Elx";"Eixos viaris";"2,81020044";"41,96647129"
"484856,8";"4646640,1";"Carrer de la Universitat de Cervera";"Eixos viaris";"2,81722163";"41,97160750"
"484818,6";"4646687,9";"Carrer de la Universitat de Montpeller";"Eixos viaris";"2,81676178";"41,97203008"
"485661,9";"4647521,4";"Carrer de l'Univers";"Eixos viaris";"2,82691593";"41,97955743"
"484240,8";"4646309,5";"Carrer de València";"Eixos viaris";"2,80979581";"41,96861422"
"484561,6";"4646147,2";"Carrer de Valentí Fargnoli";"Eixos viaris";"2,81367412";"41,96716149"
"484268,5";"4646480,5";"Carrer de Valladolid";"Eixos viaris";"2,81012916";"41,97015492"
"484654,2";"4649160,0";"Carrer d'Antoni Varés i Martinell";"Eixos viaris";"2,81471784";"41,99430034"
"484905,7";"4644545,3";"Carrer del Camí Vell de Fornells";"Eixos viaris";"2,81786677";"41,95273944"
"485436,2";"4647734,1";"Carrer dels Vern";"Eixos viaris";"2,82419473";"41,98147172"
"485471,0";"4648071,1";"Carrer de Besadó";"Eixos viaris";"2,82460889";"41,98450761"
"483885,6";"4649212,9";"Carrer del Vesuvi";"Eixos viaris";"2,80543183";"41,99475333"
"485464,9";"4647906,3";"Plaça del Vi";"Eixos viaris";"2,82452847";"41,98302138"
"485564,8";"4647307,8";"Carrer de Vista Alegre";"Eixos viaris";"2,82575032";"41,97762823"
"485493,9";"4648075,4";"Plaça de les Voltes d'en Rosés";"Eixos viaris";"2,82487437";"41,98454404"
"484681,2";"4648941,5";"Rambla de Xavier Cugat";"Eixos viaris";"2,81504954";"41,99232842"
"486044,7";"4649413,7";"Carrer de Xavier Montsalvatge";"Eixos viaris";"2,83149412";"41,99660488"
"484376,7";"4646593,8";"Carrer de Zamora";"Eixos viaris";"2,81142961";"41,97117482"
"485225,8";"4644889,9";"Carrer dels Sarriera";"Eixos viaris";"2,82171917";"41,95584381"
"485496,2";"4646801,9";"Plaça de Miquel Coll i Alentorn";"Eixos viaris";"2,82494201";"41,97306961"
"485429,2";"4646798,2";"Plaça de Josep Ametller i Viñas";"Eixos viaris";"2,82413342";"41,97304136"
"484384,1";"4646356,4";"Carrer de Castelló de la Plana";"Eixos viaris";"2,81153246";"41,96904040"
"485546,6";"4645057,2";"Carrer de l'Església de Sant Miquel";"Eixos viaris";"2,82558834";"41,95736288"
"485405,2";"4646698,3";"Plaça d'Enric Claudi Girbal i Nadal";"Eixos viaris";"2,82384623";"41,97214024"
"486971,5";"4646578,5";"Plaça de Girona";"Eixos viaris";"2,84274959";"41,97108689"
"485447,7";"4646435,9";"Jardins de la Riera Gornau";"Eixos viaris";"2,82435966";"41,96977227"
"485320,9";"4646483,5";"Carrer de Jaume Marquès i Casanovas";"Eixos viaris";"2,82282570";"41,97020223"
"484416,5";"4647942,1";"Carrer de Mossèn Joan Pons";"Eixos viaris";"2,81187663";"41,98332559"
"484422,5";"4647465,5";"Passatge del Progrés";"Eixos viaris";"2,81196170";"41,97902953"
"487110,5";"4648907,1";"Camí de la Font del Ferro";"Eixos viaris";"2,84437615";"41,99206569"
"484497,3";"4646994,3";"Carrer de l'Empordà";"Eixos viaris";"2,81287942";"41,97478888"
"484291,4";"4646435,1";"Carrer d'Empúries";"Eixos viaris";"2,81040795";"41,96975008"
"485653,3";"4647036,4";"Carrer de les Enderrocades";"Eixos viaris";"2,82683120";"41,97518905"
"485332,5";"4646728,1";"Carrer d'Enric Claudi Girbal i Nadal";"Eixos viaris";"2,82296442";"41,97240909"
"485602,0";"4648186,0";"Carrer de l'Escola Pia";"Eixos viaris";"2,82618747";"41,98554578"
"484282,7";"4646862,0";"Carrer de l'Escorial";"Eixos viaris";"2,81028792";"41,97359574"
"484896,8";"4647484,3";"Plaça d'Espanya";"Eixos viaris";"2,81768272";"41,97920989"
"486002,9";"4646785,3";"Carrer de l'Esperanto";"Eixos viaris";"2,83104960";"41,97293465"
"485198,8";"4649186,1";"Carrer de l'Esport";"Eixos viaris";"2,82128521";"41,99454493"
"485345,8";"4647602,4";"Plaça de Salvador Espriu";"Eixos viaris";"2,82309954";"41,98028115"
"484726,4";"4648974,7";"Carrer de Damià Estela i Molinet";"Eixos viaris";"2,81559197";"41,99262651"
"483608,7";"4649281,8";"Carrer de l'Everest";"Eixos viaris";"2,80208550";"41,99536907"
"483979,9";"4647294,7";"Travessera de la Fàbrica";"Eixos viaris";"2,80661904";"41,97748051"
"483702,2";"4644993,5";"Carrer de Falgàs";"Eixos viaris";"2,80333929";"41,95675049"
"485935,6";"4646399,0";"Carrer del Far";"Eixos viaris";"2,83025017";"41,96945689"
"485920,5";"4646436,0";"Passatge del Far";"Eixos viaris";"2,83006825";"41,96978987"
"485158,7";"4645051,0";"Passatge de la Farigola";"Eixos viaris";"2,82090664";"41,95730163"
"485813,9";"4646835,4";"Carrer d'Emili Grahit";"Eixos viaris";"2,82876725";"41,97338161"
"485950,0";"4647893,4";"Carrer de la Ferradura";"Eixos viaris";"2,83039551";"41,98291311"
"485044,0";"4647673,7";"Carrer de Ferran Agulló i Vidal";"Eixos viaris";"2,81946438";"41,98091497"
"485568,9";"4648453,9";"Carrer de Ferran el Catòlic";"Eixos viaris";"2,82577047";"41,98794993"
"484939,0";"4647963,9";"Ronda de Ferran Puig";"Eixos viaris";"2,81818949";"41,98352490"
"485527,9";"4647606,7";"Carrer de R. Ferràndiz i M. Bellés";"Eixos viaris";"2,82529635";"41,98032054"
"485506,2";"4648017,2";"Carrer de les Ferreries Velles";"Eixos viaris";"2,82503273";"41,98402189"
"485070,9";"4648166,6";"Carrer de Figuerola";"Eixos viaris";"2,81976571";"41,98535574"
"483883,1";"4646785,4";"Carrer de Finestrelles";"Eixos viaris";"2,80547423";"41,97289417"
"484575,1";"4646024,0";"Carrer del Riu Fluvià";"Eixos viaris";"2,81384631";"41,96605394"
"484986,2";"4649096,7";"Camí de la Font de l'Abat";"Eixos viaris";"2,81872790";"41,99373032"
"485495,7";"4646229,1";"Passatge de la Font de l'Abella";"Eixos viaris";"2,82494405";"41,96791778"
"486969,2";"4646504,9";"Carrer de la Font";"Eixos viaris";"2,84272710";"41,97042036"
"485120,9";"4649221,1";"Carrer de la Font de la Lluna";"Eixos viaris";"2,82034258";"41,99485869"
"485300,6";"4646274,2";"Carrer de Joan Baptista Torroella i Bastons";"Eixos viaris";"2,82258954";"41,96831946"
"484220,9";"4648107,8";"Plaça de l'Assemblea de Catalunya";"Eixos viaris";"2,80950618";"41,98480778"
"485808,7";"4645973,7";"Carrer de Maria Aurèlia Capmany i Farnés";"Eixos viaris";"2,82872770";"41,96561776"
"485700,7";"4646149,0";"Carrer de Josep Maria Corredor i Pomés";"Eixos viaris";"2,82742006";"41,96720099"
"484159,7";"4649128,7";"Carrer de la Torre del Cerdà";"Eixos viaris";"2,80874228";"41,99400233"
"484180,1";"4649262,5";"Plaça de la Torre de Taialà";"Eixos viaris";"2,80899221";"41,99520964"
"484232,9";"4649241,2";"Passatge de la Torre de Taialà";"Eixos viaris";"2,80962061";"41,99502154"
"485697,6";"4646007,0";"Travessia de Josep Maria Corredor i Pomés";"Eixos viaris";"2,82738730";"41,96592199"
"486471,0";"4649507,4";"Passatge de Ricard Giralt i Casadesús";"Eixos viaris";"2,83664757";"41,99745896"
"485818,8";"4645572,3";"Carrer de la Universitat de Girona";"Eixos viaris";"2,82885805";"41,96200626"
"486556,0";"4646033,6";"Carrer del Pic de Peguera";"Eixos viaris";"2,83775333";"41,96617128"
"485969,4";"4645943,2";"Carrer de Salvador Ferrer C. Maura";"Eixos viaris";"2,83067139";"41,96535045"
"483782,1";"4645751,3";"Carrer de la Indústria";"Eixos viaris";"2,80428372";"41,96357921"
"484110,5";"4645947,3";"Plaça de Salt";"Eixos viaris";"2,80823665";"41,96535119"
"483909,7";"4646080,0";"Carrer de Salt";"Eixos viaris";"2,80580732";"41,96654500"
"483772,7";"4645946,8";"Carrer de Can Pau Birol";"Eixos viaris";"2,80415766";"41,96533530"
"484007,7";"4645628,6";"Carrer de Sarrià de Ter";"Eixos viaris";"2,80700231";"41,96247598"
"485127,8";"4649086,9";"Carrer de Manuel de Pedrolo";"Eixos viaris";"2,82043052";"41,99364293"
"483534,7";"4645502,1";"Carrer de la Torre Vedruna";"Eixos viaris";"2,80129788";"41,96133140"
"483186,0";"4649261,8";"Carrer del Camp de la Creu";"Eixos viaris";"2,79699094";"41,99518004"
"483355,1";"4649243,7";"Carrer del Castell de Bellaguarda";"Eixos viaris";"2,79903191";"41,99502151"
"483415,9";"4649094,8";"Carrer del Castell de Montgrí";"Eixos viaris";"2,79976054";"41,99368079"
"484621,7";"4644477,4";"Carrer d'Osca";"Eixos viaris";"2,81444187";"41,95212150"
"484526,2";"4644436,1";"Carrer de Terol";"Eixos viaris";"2,81329672";"41,95175037"
"486824,4";"4646790,4";"Avinguda de la Font de la Pólvora";"Eixos viaris";"2,84097067";"41,97299386"
"485933,2";"4648420,4";"Baixada de la Font del Bisbe";"Eixos viaris";"2,83017768";"41,98765931"
"485354,0";"4647188,7";"Carrer de la Font del Rei";"Eixos viaris";"2,82321849";"41,97655256"
"485226,6";"4647798,5";"Carrer de Fontanilles";"Eixos viaris";"2,82165817";"41,98204424"
"484660,0";"4648844,0";"Carrer de Fontajau";"Eixos viaris";"2,81479853";"41,99145437"
"485520,3";"4648271,2";"Carrer de la Força";"Eixos viaris";"2,82519547";"41,98630984"
"486203,5";"4649182,7";"Ronda del Fort Roig";"Eixos viaris";"2,83341932";"41,99452715"
"485020,0";"4649275,5";"Avinguda de França";"Eixos viaris";"2,81913384";"41,99534315"
"484523,9";"4647385,8";"Carrer de Francesc Artau";"Eixos viaris";"2,81318294";"41,97831099"
"484964,6";"4647243,8";"Carrer de Francesc de Ciurana i Hernández";"Eixos viaris";"2,81850969";"41,97704059"
"485083,2";"4647659,3";"Carrer de Doctor Francesc Coll i Turbau";"Eixos viaris";"2,81993551";"41,98078962"
"483996,8";"4647304,8";"Carrer de Francesc Estival i Cisa";"Eixos viaris";"2,80682396";"41,97757093"
"485960,4";"4649485,9";"Carrer de Francesc Macià";"Eixos viaris";"2,83047818";"41,99725187"
"484068,8";"4644285,2";"Carrer de les Illes Balears";"Eixos viaris";"2,80777478";"41,95038124"
"485490,8";"4648237,2";"Carrer de les Ballesteries";"Eixos viaris";"2,82483415";"41,98600306"
"485009,3";"4647088,2";"Carrer de Jaume Balmes";"Eixos viaris";"2,81905681";"41,97564541"
"486038,9";"4648148,8";"Carrer del Baluard";"Eixos viaris";"2,83145174";"41,98521137"
"485440,4";"4647719,9";"Carrer dels Banyoles";"Eixos viaris";"2,82424338";"41,98133669"
"485458,9";"4648539,7";"Carrer de la Barca";"Eixos viaris";"2,82444037";"41,98872248"
"484460,3";"4645942,6";"Carrer de Barcelona";"Eixos viaris";"2,81246062";"41,96531314"
"486950,9";"4646657,5";"Carrer del Barranc";"Eixos viaris";"2,84249439";"41,97179807"
"485827,2";"4648789,4";"Pujada de la Barrufa";"Eixos viaris";"2,82888911";"41,99098087"
"486467,5";"4648954,2";"Carrer de la Riera Bascanella";"Eixos viaris";"2,83661201";"41,99247822"
"483840,6";"4647126,7";"Carrer del Bassegoda";"Eixos viaris";"2,80494587";"41,97596456"
"484021,5";"4646941,6";"Carrer de Bastiments";"Eixos viaris";"2,80713559";"41,97430202"
"485569,1";"4648269,5";"Carrer de Lluís Batlle i Prats";"Eixos viaris";"2,82578706";"41,98629273"
"485487,3";"4647704,8";"Carrer de les Beates";"Eixos viaris";"2,82481110";"41,98120246"
"485482,8";"4647850,2";"Plaça dels Bell-lloc";"Eixos viaris";"2,82474713";"41,98251734"
"485623,8";"4648263,2";"Carrer de Bellmirall";"Eixos viaris";"2,82643909";"41,98623967"
"485498,8";"4648594,2";"Carrer del Bellaire";"Eixos viaris";"2,82492192";"41,98921858"
"485770,4";"4647644,2";"Carrer de la Bellavista";"Eixos viaris";"2,82822867";"41,98066722"
"486561,6";"4649353,3";"Carrer del Bellpuig";"Eixos viaris";"2,83773777";"41,99607348"
"485284,1";"4648390,1";"Carrer de Berenguer Carnicer";"Eixos viaris";"2,82234348";"41,98737726"
"486380,4";"4649089,0";"Carrer de Berenguer de Palol";"Eixos viaris";"2,83555851";"41,99369262"
"484666,9";"4647743,1";"Carrer de Bernat Boades";"Eixos viaris";"2,81489970";"41,98153817"
"484247,4";"4646396,5";"Carrer de Bilbao";"Eixos viaris";"2,80987796";"41,96939794"
"485653,0";"4648363,0";"Carrer de Bisbe Cartañà";"Eixos viaris";"2,82679882";"41,98714088"
"485141,3";"4647399,2";"Carrer de Tomás de Lorenzana";"Eixos viaris";"2,82064220";"41,97844898"
"484633,9";"4647402,7";"Carrer de Bisbe Sivilla";"Eixos viaris";"2,81451026";"41,97846626"
"484580,9";"4648917,3";"Carrer de Bluefields";"Eixos viaris";"2,81383077";"41,99211029"
"485807,2";"4646752,6";"Carrer de Carles de Bolós";"Eixos viaris";"2,82869683";"41,97263395"
"485065,8";"4648103,5";"Carrer de Bonastruc de Porta";"Eixos viaris";"2,81970695";"41,98478823"
"484922,4";"4645811,8";"Carrer de Lluís Borrassà";"Eixos viaris";"2,81803945";"41,96414223"
"486018,1";"4646723,2";"Carrer de Sant Grau";"Eixos viaris";"2,83124419";"41,97237653"
"483431,8";"4648826,4";"Carrer de Sant Gregori";"Eixos viaris";"2,79996127";"41,99126735"
"485307,0";"4646368,1";"Carrer de Sant Hipòlit";"Eixos viaris";"2,82267168";"41,96916622"
"484750,4";"4646590,8";"Carrer de Sant Ignasi";"Eixos viaris";"2,81594358";"41,97115512"
"484773,4";"4646385,8";"Carrer de Sant Isidre";"Eixos viaris";"2,81622648";"41,96930920"
"485678,7";"4650958,0";"Carrer de Sant Jordi";"Eixos viaris";"2,82703734";"42,01051354"
"485578,8";"4647897,0";"Carrer de Sant Josep";"Eixos viaris";"2,82590483";"41,98294242"
"485568,3";"4647991,8";"Plaça de Sant Josep";"Eixos viaris";"2,82578181";"41,98378886"
"485544,6";"4648266,1";"Carrer de Sant Llorenç";"Eixos viaris";"2,82548533";"41,98626525"
"485630,9";"4648103,2";"Pujada de Sant Martí";"Eixos viaris";"2,82652751";"41,98479874"
"484214,4";"4649313,9";"Carrer de Sant Medir";"Eixos viaris";"2,80940135";"41,99566966"
"484733,9";"4646270,9";"Carrer de Sant Miquel";"Eixos viaris";"2,81574671";"41,96827266"
"484485,4";"4646833,7";"Avinguda de Sant Narcís";"Eixos viaris";"2,81273883";"41,97333857"
"485510,6";"4648656,5";"Carrer de Sant Pau";"Eixos viaris";"2,82506526";"41,98977721"
"485546,7";"4648640,4";"Plaça de Sant Pere";"Eixos viaris";"2,82550027";"41,98963377"
"485110,6";"4649149,6";"Plaça de Sant Ponç";"Eixos viaris";"2,82022367";"41,99421003"
"486001,9";"4646212,3";"Carrer de Sant Roc";"Eixos viaris";"2,83105117";"41,96777381"
"485209,9";"4647840,8";"Avinguda de Sant Francesc";"Eixos viaris";"2,82145190";"41,98242220"
"484000,7";"4646894,5";"Carrer de Sant Sebastià";"Eixos viaris";"2,80688340";"41,97387828"
"485352,3";"4647995,2";"Carrer de Santa Clara";"Eixos viaris";"2,82317424";"41,98382090"
"483977,6";"4645753,6";"Carretera de Santa Coloma";"Eixos viaris";"2,80663688";"41,96360121"
"484266,0";"4647425,8";"Carrer de Santa Eugènia";"Eixos viaris";"2,81007974";"41,97866617"
"483685,7";"4647171,5";"Plaça de Santa Eugènia";"Eixos viaris";"2,80307375";"41,97636666"
"483453,1";"4647215,8";"Travessia de Santa Eugènia";"Eixos viaris";"2,80027223";"41,97675812"
"485623,0";"4648571,9";"Carrer de Santa Llúcia";"Eixos viaris";"2,82643156";"41,98901372"
"484699,3";"4646201,1";"Carrer de Santa Maria";"Eixos viaris";"2,81533817";"41,96765054"
"485270,7";"4648000,4";"Plaça de Santa Susanna";"Eixos viaris";"2,82218425";"41,98386440"
"484607,7";"4647042,2";"Carrer de Santander";"Eixos viaris";"2,81420585";"41,97522335"
"484754,6";"4646322,2";"Carrer de Santiago";"Eixos viaris";"2,81599880";"41,96874141"
"484216,2";"4646913,6";"Jardins d'Ignasi Bosch i Reitg";"Eixos viaris";"2,80948995";"41,97405376"
"484268,6";"4649161,9";"Carrer del Bosquet";"Eixos viaris";"2,81005741";"41,99430173"
"486537,6";"4649737,3";"Carrer del Bou d'Or";"Eixos viaris";"2,83743919";"41,99953162"
"483822,8";"4648794,2";"Carrer de la  Riera Bullidors";"Eixos viaris";"2,80468270";"41,99098727"
"483949,1";"4649166,9";"Carrer del Cadí";"Eixos viaris";"2,80620580";"41,99434033"
"485433,7";"4648418,1";"Carrer dels Calderers";"Eixos viaris";"2,82414156";"41,98763221"
"485286,0";"4647486,8";"Plaça de Francesc Calvet i Rubalcaba";"Eixos viaris";"2,82239026";"41,97923528"
"486497,5";"4649468,0";"Carrer del Camp d'Or";"Eixos viaris";"2,83696239";"41,99710815"
"484311,1";"4649101,0";"Carrer del Camp de la Bateria";"Eixos viaris";"2,81057818";"41,99376219"
"486916,6";"4646744,8";"Carrer del Camp de la Plana";"Eixos viaris";"2,84208209";"41,97258109"
"483904,1";"4644970,5";"Carrer del Camp de les Lloses";"Eixos viaris";"2,80577735";"41,95654749"
"483765,3";"4645184,3";"Carrer del Camp Gurnau";"Eixos viaris";"2,80409421";"41,95847207"
"483872,3";"4646903,6";"Carrer de Campcardós";"Eixos viaris";"2,80533823";"41,97395673"
"484084,1";"4646847,7";"Passatge del Campcardós";"Eixos viaris";"2,80789853";"41,97345667"
"486078,2";"4646217,4";"Carrer de Can Llobet";"Eixos viaris";"2,83198033";"41,96782021"
"484280,1";"4649086,2";"Carrer de Can Massa";"Eixos viaris";"2,81020430";"41,99362648"
"484861,4";"4645401,8";"Carrer de Can Prunell";"Eixos viaris";"2,81731386";"41,96044833"
"484479,3";"4649144,6";"Carrer de Can Sopa";"Eixos viaris";"2,81260538";"41,99415281"
"484115,8";"4649046,4";"Carrer de Can Sunyer";"Eixos viaris";"2,80821326";"41,99326290"
"484909,2";"4645298,8";"Carrer de Can Sureda";"Eixos viaris";"2,81789572";"41,95952156"
"484945,7";"4645538,6";"Passatge de Can Sureda";"Eixos viaris";"2,81832400";"41,96168385"
"482407,2";"4648396,4";"Carrer de Can Torroella";"Eixos viaris";"2,78761140";"41,98737229"
"485111,2";"4644128,2";"Carrer de Can Triola";"Eixos viaris";"2,82036285";"41,94898756"
"485311,6";"4647632,6";"Travessia dels Canaders";"Eixos viaris";"2,82268838";"41,98055072"
"484880,6";"4645777,7";"Carrer d'Antoni Canet";"Eixos viaris";"2,81753347";"41,96383520"
"485669,2";"4647721,4";"Carrer del Canigó";"Eixos viaris";"2,82700762";"41,98135891"
"484768,5";"4647868,6";"Carrer de Canonge Dorca";"Eixos viaris";"2,81612772";"41,98266598"
"484499,7";"4646969,4";"Carrer de Canonge Morera";"Eixos viaris";"2,81290422";"41,97456375"
"484303,9";"4647152,1";"Carrer de Canonge Rovira";"Eixos viaris";"2,81053364";"41,97620809"
"484253,7";"4646728,1";"Carrer de Santiago Sobrequés i Vidal";"Eixos viaris";"2,80994149";"41,97238827"
"484854,1";"4646602,3";"Carrer de Saragossa";"Eixos viaris";"2,81719847";"41,97126521"
"485383,6";"4650365,0";"Carrer de Sardenya";"Eixos viaris";"2,82348949";"42,00516720"
"486253,3";"4648629,0";"Carrer del Segle XVI";"Eixos viaris";"2,83403594";"41,98954735"
"484467,0";"4646580,8";"Carrer de Segòvia";"Eixos viaris";"2,81252825";"41,97105953"
"484612,5";"4646071,9";"Carrer del Riu Segre";"Eixos viaris";"2,81429160";"41,96647798"
"485129,9";"4647952,3";"Carrer de la Sèquia";"Eixos viaris";"2,82048336";"41,98342944"
"484005,2";"4649190,2";"Carrer de la Serra Alta";"Eixos viaris";"2,80688127";"41,99455763"
"486188,7";"4645944,6";"Carrer de la Serra de Bestracà";"Eixos viaris";"2,83331429";"41,96536332"
"485946,7";"4646320,1";"Carrer de la Serra de Finestres";"Eixos viaris";"2,83038482";"41,96874555"
"485458,9";"4646259,7";"Carrer de la Serra de Vall-lloreda";"Eixos viaris";"2,82449677";"41,96818730"
"485843,3";"4646230,9";"Carrer de les Serres";"Eixos viaris";"2,82914390";"41,96793311"
"485325,0";"4650418,8";"Carrer de Sicília";"Eixos viaris";"2,82278778";"42,00564347"
"485706,5";"4648824,8";"Carrer de Silvestre Santaló";"Eixos viaris";"2,82742743";"41,99129391"
"485627,4";"4647537,4";"Carrer del Sol";"Eixos viaris";"2,82650514";"41,97970092"
"484506,4";"4646477,8";"Carrer de Martí Sureda i Deulovol";"Eixos viaris";"2,81300167";"41,97013261"
"483894,0";"4646666,8";"Carrer del Taga";"Eixos viaris";"2,80561025";"41,97182260"
"483767,5";"4649187,6";"Carretera de Taialà";"Eixos viaris";"2,80400783";"41,99452574"
"485551,5";"4647867,4";"Carrer de Talarn";"Eixos viaris";"2,82557964";"41,98267172"
"486432,4";"4648524,5";"Carrer del Tambor Ansó";"Eixos viaris";"2,83619938";"41,98860476"
"485625,5";"4647080,9";"Carrer del Taquígraf Martí";"Eixos viaris";"2,82649217";"41,97558484"
"484507,0";"4647441,7";"Carrer de Santiago Rusiñol";"Eixos viaris";"2,81298834";"41,97881505"
"484344,8";"4646854,0";"Carrer de Tarragona";"Eixos viaris";"2,81103645";"41,97352492"
"483853,2";"4649217,0";"Carrer del Teide";"Eixos viaris";"2,80504533";"41,99479771"
"485374,0";"4650605,9";"Carrer de l'Illa de Tenerife";"Eixos viaris";"2,82337483";"42,00732862"
"484378,8";"4647128,9";"Carrer del Riu Ter";"Eixos viaris";"2,81143954";"41,97599342"
"485687,9";"4647540,6";"Carrer del Terç de Miquelets";"Eixos viaris";"2,82722931";"41,97972903"
"484767,3";"4646222,8";"Carrer del Riu Terri";"Eixos viaris";"2,81615828";"41,96784100"
"485425,0";"4650325,8";"Plaça de Tomàs Baraut i Obiols";"Eixos viaris";"2,82399766";"42,00480771"
"484911,1";"4647852,1";"Carrer de Tomàs Mieres";"Eixos viaris";"2,81785434";"41,98252462"
"484982,6";"4646501,7";"Carrer del Riu Tordera";"Eixos viaris";"2,81874591";"41,97035798"
"484404,4";"4648010,8";"Carrer del Torín";"Eixos viaris";"2,81172996";"41,98393780"
"483672,9";"4649245,2";"Carrer del Cantàbric";"Eixos viaris";"2,80285922";"41,99504616"
"484466,7";"4647578,2";"Carrer del Cap de Creus";"Eixos viaris";"2,81248982";"41,98004815"
"485779,3";"4647837,8";"Carrer dels Caputxins";"Eixos viaris";"2,82833264";"41,98240567"
"485188,0";"4647154,0";"Carrer del Cardenal Margarit";"Eixos viaris";"2,82121569";"41,97624324"
"484750,2";"4646463,8";"Carrer de Carles Rahola";"Eixos viaris";"2,81594687";"41,97001128"
"486595,3";"4648652,2";"Carrer de Carme Auguet i Comalada";"Eixos viaris";"2,83816428";"41,98976040"
"485852,2";"4646920,7";"Carrer del Carme";"Eixos viaris";"2,82923592";"41,97414788"
"485583,2";"4650828,2";"Carrer de Carme Gubert";"Eixos viaris";"2,82589325";"42,00934095"
"486353,7";"4649514,0";"Carrer de Manuel Carrasco i Formiguera";"Eixos viaris";"2,83522265";"41,99751997"
"484901,6";"4647741,7";"Travessia del Carril";"Eixos viaris";"2,81773647";"41,98152470"
"484272,4";"4646122,4";"Carrer de Cartagena";"Eixos viaris";"2,81018701";"41,96693061"
"484678,8";"4646885,2";"Carrer de Cassià Costal";"Eixos viaris";"2,81506691";"41,97381069"
"486974,3";"4647071,1";"Carrer del Castanyer";"Eixos viaris";"2,84277488";"41,97552723"
"485488,4";"4648048,8";"Plaça de les Castanyes";"Eixos viaris";"2,82481467";"41,98430077"
"485705,0";"4648573,1";"Pujada al Castell";"Eixos viaris";"2,82742146";"41,98903323"
"484385,4";"4644540,6";"Carrer del Castell de Cartellà";"Eixos viaris";"2,81159272";"41,95268428"
"485577,6";"4646779,1";"Carrer del Castell de Montsolís";"Eixos viaris";"2,82592019";"41,97287295"
"485342,0";"4646555,9";"Carrer del Castell de Peralada";"Eixos viaris";"2,82308943";"41,97085112"
"485313,5";"4646423,6";"Carrer del Castell de Requesens";"Eixos viaris";"2,82274272";"41,96966170"
"485737,6";"4646594,8";"Carrer del Castell de Solterra";"Eixos viaris";"2,82785580";"41,97120963"
"485986,1";"4646729,8";"Carrer del Castellet";"Eixos viaris";"2,83085782";"41,97243000"
"485386,9";"4647780,1";"Plaça de Catalunya";"Eixos viaris";"2,82359002";"41,98188510"
"484463,2";"4647106,3";"Rambla de Catalunya";"Eixos viaris";"2,81246608";"41,97579695"
"485544,8";"4648370,5";"Plaça de la Catedral";"Eixos viaris";"2,82548277";"41,98720194"
"484515,8";"4647986,3";"Carrer de Caterina Albert";"Eixos viaris";"2,81307055";"41,98372383"
"483491,0";"4649375,7";"Carrer dels Cavallers";"Eixos viaris";"2,80067023";"41,99621325"
"484028,9";"4649394,3";"Carrer Central";"Eixos viaris";"2,80715341";"41,99639545"
"484997,5";"4648142,2";"Carrer de Cerverí";"Eixos viaris";"2,81888507";"41,98513820"
"483805,5";"4649196,0";"Carrer del Cervino";"Eixos viaris";"2,80446638";"41,99460758"
"485526,4";"4648007,6";"Carrer dels Ciutadans";"Eixos viaris";"2,82527441";"41,98393219"
"485588,2";"4648278,7";"Carrer de la Claveria";"Eixos viaris";"2,82601620";"41,98637413"
"485884,6";"4648574,1";"Pujada a la Torrassa";"Eixos viaris";"2,82958243";"41,98904546"
"485827,3";"4647501,4";"Pujada de la Torre d'Alfons XII";"Eixos viaris";"2,82892017";"41,97938030"
"486098,7";"4649500,2";"Carrer de la Torre de Sant Lluís";"Eixos viaris";"2,83214406";"41,99738942"
"486257,8";"4649000,5";"Carrer de la Torre de Sant Narcís";"Eixos viaris";"2,83407555";"41,99288889"
"484181,8";"4649237,7";"Carrer de la Torre de Taialà";"Eixos viaris";"2,80900496";"41,99498450"
"485655,9";"4647903,7";"Carreró de la Torre dels Socors";"Eixos viaris";"2,82683419";"41,98299786"
"486036,4";"4648181,4";"Carrer de la Torre Gironella";"Eixos viaris";"2,83142681";"41,98550856"
"486103,6";"4648031,5";"Grup Torre Gironella";"Eixos viaris";"2,83223917";"41,98415874"
"484997,9";"4644291,3";"Carrer de la Torre Malla";"Eixos viaris";"2,81898329";"41,95045350"
"484990,0";"4645761,1";"Carrer de la Torre Rafela";"Eixos viaris";"2,81886134";"41,96369320"
"486416,1";"4649178,1";"Carrer de la Torre de Sant Daniel";"Eixos viaris";"2,83599110";"41,99449483"
"485785,6";"4648845,1";"Carrer de la Torre de Sant Joan";"Eixos viaris";"2,82838069";"41,99148448"
"486208,7";"4648809,3";"Carrer de la Torre Suchet";"Eixos viaris";"2,83348844";"41,99116776"
"487029,8";"4646756,3";"Carrer del Torrent";"Eixos viaris";"2,84344568";"41,97269103"
"485052,7";"4644411,8";"Carrer de les Torres de Palau";"Eixos viaris";"2,81964383";"41,95153534"
"485876,2";"4645993,2";"Carrer de la Tosa d'Alp";"Eixos viaris";"2,82954785";"41,96579912"
"486332,0";"4649652,8";"Carrer del Tramont";"Eixos viaris";"2,83496588";"41,99876252"
"485487,2";"4648488,1";"Carrer de Trasfigueres";"Eixos viaris";"2,82479174";"41,98826367"
"484328,5";"4649121,2";"Plaça de les Tres Alzines";"Eixos viaris";"2,81078289";"41,99394267"
"485603,9";"4650973,5";"Carrer dels Tres Reis";"Eixos viaris";"2,82613123";"42,01064727"
"485246,0";"4645737,1";"Carrer del Tretzevents";"Eixos viaris";"2,82195130";"41,96348187"
"485417,8";"4647710,0";"Carrer de Troia";"Eixos viaris";"2,82396597";"41,98125521"
"485115,7";"4649409,2";"Carrer de Josep Trueta i Raspall";"Eixos viaris";"2,82027745";"41,99655184"
"483577,2";"4647071,9";"Carrer del Turó";"Eixos viaris";"2,80177297";"41,97546375"
"485528,9";"4646313,0";"Carrer del Turó de Can Ponç";"Eixos viaris";"2,82534024";"41,96867494"
"486160,1";"4645882,4";"Carrer del Turó de Morou";"Eixos viaris";"2,83297784";"41,96480441"
"486024,0";"4646754,7";"Carrer del Turó Rodó";"Eixos viaris";"2,83131587";"41,97265584"
"485925,5";"4646655,8";"Carrer d'Ullastret";"Eixos viaris";"2,83012336";"41,97176242"
"485305,9";"4647434,8";"Carrer d'Ultònia";"Eixos viaris";"2,82262090";"41,97876729"
"485619,8";"4646730,1";"Carrer de Joaquim Ruyra i Oms";"Eixos viaris";"2,82642831";"41,97243239"
"484670,2";"4648081,6";"Carrer de Joaquim Vayreda";"Eixos viaris";"2,81493917";"41,98458249"
"482518,2";"4648545,4";"Carrer de la Joeria Petita";"Eixos viaris";"2,78894699";"41,98871675"
"485257,5";"4648090,8";"Plaça de Jordi de Sant Jordi";"Eixos viaris";"2,82202506";"41,98467476"
"484020,2";"4646866,4";"Passatge de Francesc Pi i Margall";"Eixos viaris";"2,80712556";"41,97362650"
"486805,5";"4646673,9";"Carrer dels Germans Lumière";"Eixos viaris";"2,84074397";"41,97193976"
"486826,4";"4646616,9";"Carrer d'Aurora Bertrana i Salazar";"Eixos viaris";"2,84099871";"41,97142673"
"486838,0";"4646619,8";"Carrer de Fructuós Gelabert i Badiella";"Eixos viaris";"2,84114347";"41,97145395"
"486810,3";"4646576,8";"Carrer de Georges Méliès";"Eixos viaris";"2,84080650";"41,97106620"
"485146,8";"4646043,8";"Rotonda de la Creu de Palau";"Eixos viaris";"2,82073680";"41,96623604"
"484620,6";"4645744,0";"Rotonda del Riu Cardener";"Eixos viaris";"2,81439670";"41,96353295"
"484495,5";"4645624,3";"Rotonda de Reggio Emília";"Eixos viaris";"2,81289139";"41,96244970"
"484339,3";"4645445,0";"Rotonda del Mas Gri";"Eixos viaris";"2,81101361";"41,96083442"
"484563,0";"4645355,0";"Rotonda de la Riera de Mus";"Eixos viaris";"2,81371904";"41,96002824"
"485655,3";"4645584,7";"Rotonda de Montilivi";"Eixos viaris";"2,82689075";"41,96211140"
"485384,9";"4646198,9";"Rotonda de Lluís Pericot";"Eixos viaris";"2,82360520";"41,96763652"
"484174,3";"4648745,3";"Rotonda de Fontajau";"Eixos viaris";"2,80893370";"41,99055309"
"484183,8";"4648955,0";"Rotonda de Taialà";"Eixos viaris";"2,80903670";"41,99244467"
"484406,0";"4648915,2";"Rotonda de Josep Tarradellas i Joan";"Eixos viaris";"2,81173009";"41,99208885"
"485273,9";"4648633,1";"Rotonda del Pont de Pedret";"Eixos viaris";"2,82220460";"41,98956567"
"485178,7";"4648330,1";"Rotonda del Rellotge";"Eixos viaris";"2,82106534";"41,98683487"
"483014,6";"4648710,3";"Rotonda de Domeny";"Eixos viaris";"2,79493019";"41,99021370"
"483499,5";"4649237,8";"Carrer de Susqueda";"Eixos viaris";"2,80077069";"41,99497050"
"483309,5";"4649023,4";"Carrer de Bescanó";"Eixos viaris";"2,79848277";"41,99303908"
"483348,6";"4648948,6";"Carrer de Ginestar";"Eixos viaris";"2,79895576";"41,99236441"
"483152,5";"4648945,2";"Carrer de Llorà";"Eixos viaris";"2,79658949";"41,99233322"
"483055,5";"4648958,9";"Carrer de Canet d'Adri";"Eixos viaris";"2,79541802";"41,99244822"
"483311,1";"4648865,2";"Carrer d'Adri";"Eixos viaris";"2,79851141";"41,99161607"
"483307,6";"4649144,8";"Carrer de Cartellà";"Eixos viaris";"2,79845519";"41,99412884"
"486300,2";"4649314,8";"Carrer de Francesc Mateu";"Eixos viaris";"2,83458738";"41,99571772"
"484811,6";"4647931,6";"Carrer de Francesc Rogés";"Eixos viaris";"2,81664516";"41,98323423"
"485762,1";"4646297,1";"Carrer de Francesc Romaguera";"Eixos viaris";"2,82816472";"41,96853510"
"485560,6";"4648505,7";"Carrer de Francesc Samsó";"Eixos viaris";"2,82567261";"41,98841813"
"484606,2";"4646058,9";"Carrer del Riu Freser";"Eixos viaris";"2,81421953";"41,96636078"
"484145,8";"4644321,4";"Carrer de Galícia";"Eixos viaris";"2,80870284";"41,95070703"
"485547,6";"4648572,9";"Carrer del Riu Galligants";"Eixos viaris";"2,82551402";"41,98902134"
"483986,5";"4649268,3";"Carrer de Federico García Lorca";"Eixos viaris";"2,80664974";"41,99525976"
"483248,0";"4649117,8";"Carrer de la Riera Garrap";"Eixos viaris";"2,79774362";"41,99388441"
"484212,3";"4647317,0";"Carrer de la Garrotxa";"Eixos viaris";"2,80943082";"41,97769237"
"485175,0";"4647793,1";"Carrer de Doctor Gaspar Casal";"Eixos viaris";"2,82104266";"41,98199824"
"484018,0";"4647256,9";"Carrer de les Gavarres";"Eixos viaris";"2,80709082";"41,97713905"
"485382,2";"4650193,2";"Plaça de Camil Geis";"Eixos viaris";"2,82348170";"42,00361804"
"485529,4";"4648117,5";"Carrer del General Fournàs";"Eixos viaris";"2,82530792";"41,98492298"
"485439,2";"4647703,1";"Plaça del General Marvà";"Eixos viaris";"2,82423171";"41,98119257"
"485382,2";"4647576,2";"Passeig del General Mendoza";"Eixos viaris";"2,82354681";"41,98004767"
"485318,7";"4645188,0";"Carrer dels Jocs Olímpics de Barcelona";"Eixos viaris";"2,82283388";"41,95853854"
"484003,3";"4645272,7";"Carrer de George Stephenson";"Eixos viaris";"2,80696372";"41,95926952"
"484021,3";"4645337,3";"Carrer dels Trens Petits";"Eixos viaris";"2,80717916";"41,95985532"
"485640,4";"4647841,4";"Passeig de Fora Muralla";"Eixos viaris";"2,82665463";"41,98243918"
"483752,7";"4649068,8";"Carrer de Josep Vicenç Foix i Mas";"Eixos viaris";"2,80383001";"41,99345364"
"483834,1";"4648988,6";"Carrer de Carles Riba i Bracons";"Eixos viaris";"2,80482224";"41,99273480"
"483828,5";"4649033,1";"Carrer de Montserrat Roig";"Eixos viaris";"2,80474856";"41,99313997"
"484046,8";"4649027,1";"Carrer de Joan Badia i Casañas";"Eixos viaris";"2,80738071";"41,99309038"
"484683,4";"4645895,8";"Carrer de Joaquim Riera i Bertran";"Eixos viaris";"2,81515304";"41,96489419"
"484702,5";"4645975,8";"Carrer de Josep Maria  Pagès i Vicens";"Eixos viaris";"2,81538025";"41,96561509"
"484768,6";"4647760,4";"Passatge de la Farinera Teixidor";"Eixos viaris";"2,81613051";"41,98169326"
"485695,7";"4647790,3";"Carrer de Pere III el Cerimoniós";"Eixos viaris";"2,82731980";"41,98198084"
"485731,5";"4648087,9";"Plaça de Josep Ferrater i Mora";"Eixos viaris";"2,82774715";"41,98465647"
"485636,8";"4648003,8";"Plaça de Federico Fellini";"Eixos viaris";"2,82660239";"41,98389818"
"485660,5";"4646785,6";"Plaça de Joaquim de Camps i Arboix";"Eixos viaris";"2,82692181";"41,97292851"
"483858,3";"4646978,1";"Plaça de Fidel Aguilar i Marcó";"Eixos viaris";"2,80516719";"41,97463194"
"483946,2";"4646931,6";"Plaça d'Isabel Vila i Pujol";"Eixos viaris";"2,80623063";"41,97421043"
"483973,4";"4646770,9";"Plaça de Pere Calders";"Eixos viaris";"2,80656090";"41,97276090"
"483833,2";"4646578,4";"Carrer d'Enric Marquès i Ribalta";"Eixos viaris";"2,80487644";"41,97102877"
"483669,6";"4645883,2";"Plaça de l'Aurora";"Eixos viaris";"2,80291639";"41,96476575"
"483755,1";"4645819,3";"Carrer de la Gerundense";"Eixos viaris";"2,80395601";"41,96419110"
"483585,0";"4645674,9";"Carrer d'Aiguaviva";"Eixos viaris";"2,80190851";"41,96288161"
"484544,6";"4647998,5";"Plaça de Mela Mutermilch";"Eixos viaris";"2,81342031";"41,98383248"
"487052,8";"4646552,7";"Grup Vila-roja";"Eixos viaris";"2,84372777";"41,97085405"
"486191,8";"4649513,7";"Carrer del General O'Donnell";"Eixos viaris";"2,83326665";"41,99750814"
"485808,5";"4647913,8";"Passeig del General Peralta";"Eixos viaris";"2,82868088";"41,98309070"
"483670,8";"4649477,6";"Grup Germans Sàbat";"Eixos viaris";"2,80282862";"41,99713565"
"483617,1";"4649444,4";"Plaça dels Germans Sàbat";"Eixos viaris";"2,80218962";"41,99683733"
"485279,4";"4647764,9";"Carrer dels Ginesta";"Eixos viaris";"2,82229880";"41,98173900"
"486405,5";"4649503,9";"Carrer de Ricard Giralt i Casadesús";"Eixos viaris";"2,83585076";"41,99742180"
"485882,6";"4646665,9";"Grup Girona per Girona";"Eixos viaris";"2,82960413";"41,97185171"
"485451,8";"4648319,7";"Passatge de Miquel Gómez";"Eixos viaris";"2,82436131";"41,98674089"
"485400,0";"4650747,0";"Carrer de Gran Canària";"Eixos viaris";"2,82368528";"42,00860804"
"485076,4";"4647867,8";"Gran Via de Jaume I";"Eixos viaris";"2,81984573";"41,98266287"
"487038,0";"4646819,9";"Carrer del Riu Guadiana";"Eixos viaris";"2,84355292";"41,97325860"
"484277,7";"4647227,0";"Carrer del Riu Güell";"Eixos viaris";"2,81021781";"41,97688307"
"484358,5";"4647462,1";"Plaça del Riu Güell";"Eixos viaris";"2,81118925";"41,97900125"
"484503,5";"4647819,5";"Carrer de Guillem Colteller";"Eixos viaris";"2,81293009";"41,98221949"
"483934,2";"4647223,6";"Carrer de les Guilleries";"Eixos viaris";"2,80607781";"41,97684013"
"484103,0";"4644327,7";"Carrer de Guipúscoa";"Eixos viaris";"2,80819593";"41,95076022"
"483953,6";"4649319,8";"Carrer de Miguel Hernández";"Eixos viaris";"2,80624992";"41,99571843"
"485508,0";"4647183,4";"Carrer de les Heroïnes de Santa Bàrbara";"Eixos viaris";"2,82507743";"41,97651038"
"483570,5";"4649326,0";"Carrer de l'Himàlaia";"Eixos viaris";"2,80162544";"41,99577357"
"484239,3";"4647016,8";"Avinguda de la Hispanitat";"Eixos viaris";"2,80976479";"41,97498191"
"486743,3";"4646733,8";"Carrer de l'Hortènsia";"Eixos viaris";"2,83999432";"41,97247912"
"485320,1";"4648074,8";"Carrer de les Hortes";"Eixos viaris";"2,82278598";"41,98453183"
"485165,1";"4647721,9";"Plaça de l'Hospital";"Eixos viaris";"2,82092377";"41,98134958"
"482671,2";"4648585,0";"Carrer de l'Hostal Nou";"Eixos viaris";"2,79079290";"41,98908040"
"484631,3";"4647541,1";"Carrer d'Ibèria";"Eixos viaris";"2,81448249";"41,97971814"
"485981,6";"4648662,6";"Carrer d'Ignasi Iglésias";"Eixos viaris";"2,83075138";"41,98983978"
"484441,7";"4647745,9";"Carrer de l'Illa";"Eixos viaris";"2,81218363";"41,98155177"
"485324,3";"4650528,2";"Carrer de l'Illa de Cabrera";"Eixos viaris";"2,82277296";"42,00663418"
"485404,2";"4650593,0";"Carrer de l'Illa de Formentera";"Eixos viaris";"2,82373741";"42,00722109"
"484869,6";"4647591,0";"Carrer de Ferran Soldevila";"Eixos viaris";"2,81735406";"41,98017308"
"484804,3";"4647340,6";"Carrer de Pierre Vilar";"Eixos viaris";"2,81657593";"41,97791116"
"485158,0";"4647685,3";"Passatge d'Emili Blanch i Roig";"Eixos viaris";"2,82084018";"41,98102521"
"486732,9";"4646544,4";"Carrer de Mas Ramada";"Eixos viaris";"2,83986582";"41,97077667"
"485602,9";"4647809,9";"Passatge de Maria Gay i Tibau";"Eixos viaris";"2,82619670";"41,98215027"
"483768,6";"4649298,1";"Plaça de Mossèn Josep Iglésias";"Eixos viaris";"2,80401683";"41,99552549"
"485376,2";"4648467,0";"Pont de Sant Feliu";"Eixos viaris";"2,82345222";"41,98807248"
"485229,1";"4645309,0";"Carrer de Mercè Rodoreda";"Eixos viaris";"2,82175689";"41,95962669"
"485148,6";"4645361,9";"Carrer de Mossèn Ferran Forns i Navarro";"Eixos viaris";"2,82077815";"41,96009352"
"485276,7";"4645483,7";"Carrer de l'Estudi General de Girona";"Eixos viaris";"2,82231969";"41,96119473"
"485408,7";"4645308,7";"Carrer de Joaquim Maria Masramon i de Ventós";"Eixos viaris";"2,82391692";"41,95962102"
"484142,8";"4649173,9";"Plaça de Rafael Alberti";"Eixos viaris";"2,80853581";"41,99440729"
"484246,3";"4646550,1";"Passeig de Ramon Berenguer II, ""Cap d'Estopes""";"Eixos viaris";"2,80986177";"41,97078494"
"484935,3";"4646642,1";"Carrer de Joan Roca i Pinet";"Eixos viaris";"2,81817505";"41,97162703"
"484699,6";"4648119,2";"Carrer del Camp de Mart";"Eixos viaris";"2,81528826";"41,98492531"
"485594,7";"4650920,3";"Carrer de Just Manuel Casero i Madrid";"Eixos viaris";"2,82602384";"42,01016976"
"485500,1";"4646829,2";"Plaça de Rafael Casanova i Comes";"Eixos viaris";"2,82498960";"41,97332187"
"485728,1";"4646614,1";"Carrer de Joan Coromines i Vigneaux";"Eixos viaris";"2,82774669";"41,97138960"
"485681,0";"4646516,4";"Plaça de la Ciutat de Figueres";"Eixos viaris";"2,82718182";"41,97050609"
"485584,9";"4648090,6";"Carrer del Sac";"Eixos viaris";"2,82597253";"41,98468081"
"484890,0";"4649796,5";"Plaça de la Vila de Perpinyà";"Eixos viaris";"2,81755084";"42,00003312"
"484444,2";"4645401,9";"Carrer de Vitòria-Gasteiz";"Eixos viaris";"2,81228184";"41,96044021"
"485317,5";"4650572,3";"Carrer de l'Illa de La Palma";"Eixos viaris";"2,82268732";"42,00703034"
"485458,1";"4650978,7";"Carrer de les Illes Filipines";"Eixos viaris";"2,82437998";"42,01068964"
"485295,5";"4650497,1";"Carrer de les Illes Formigues";"Eixos viaris";"2,82242353";"42,00635443"
"485335,3";"4650159,8";"Carrer de l'Illa de Fuerteventura";"Eixos viaris";"2,82291501";"42,00331094"
"485320,4";"4650462,1";"Carrer de les Illes Medes";"Eixos viaris";"2,82272630";"42,00603967"
"484670,5";"4648035,8";"Carrer dels Impressors Bro";"Eixos viaris";"2,81494037";"41,98416819"
"484736,8";"4647861,2";"Carrer dels Impressors Oliva";"Eixos viaris";"2,81574161";"41,98260231"
"485366,6";"4648215,9";"Plaça de la Independència";"Eixos viaris";"2,82333777";"41,98580262"
"485511,4";"4648355,6";"Placeta de l'Institut Vell";"Eixos viaris";"2,82508475";"41,98706623"
"485642,6";"4647382,8";"Carrer d'Isabel la Catòlica";"Eixos viaris";"2,82668998";"41,97830516"
"485582,2";"4648212,7";"Jardins dels Germans Maristes";"Eixos viaris";"2,82594539";"41,98577958"
"485328,3";"4648378,1";"Plaça de Jaume Vicens i Vives";"Eixos viaris";"2,82287496";"41,98727000"
"484675,7";"4646158,1";"Carrer de Joan Alsina i Hurtós";"Eixos viaris";"2,81504964";"41,96726279"
"485152,5";"4646693,5";"Carrer de Joan Bruguera";"Eixos viaris";"2,82079280";"41,97209049"
"485144,4";"4647442,1";"Carrer de Joan Maragall";"Eixos viaris";"2,82067732";"41,97883632"
"485435,9";"4650895,9";"Carrer de l'Illa de La Gomera";"Eixos viaris";"2,82410428";"42,00994167"
"484718,3";"4646920,2";"Carrer de Joan Planas i Castañer";"Eixos viaris";"2,81554879";"41,97412670"
"485202,6";"4646628,1";"Carrer de Joan Reglà";"Eixos viaris";"2,82139791";"41,97150599"
"484731,6";"4646685,1";"Carrer de Joan Tarrús i Bru";"Eixos viaris";"2,81571180";"41,97201039"
"483924,4";"4645400,8";"Carrer de Joan Torró i Cabratosa";"Eixos viaris";"2,80600693";"41,96042077"
"484985,9";"4647328,1";"Placeta de Joana de Jugan";"Eixos viaris";"2,81876100";"41,97780655"
"485545,2";"4646718,1";"Carrer de Joaquim Botet i Sisó";"Eixos viaris";"2,82553546";"41,97232296"
"487025,6";"4651187,0";"Can Rafel";"Edificis singulars";"2,84329955";"42,01259941"
"487219,2";"4650320,4";"Cal Pageset";"Edificis singulars";"2,84566138";"42,00479385"
"484076,8";"4647539,3";"Ca l'Escolà";"Edificis singulars";"2,80778323";"41,97968911"
"486828,2";"4652857,4";"Can Planas";"Edificis singulars";"2,84088287";"42,02763717"
"486106,0";"4647078,2";"Ca la Pilar";"Edificis singulars";"2,83229791";"41,97557545"
"486788,4";"4648132,6";"Can Rocater";"Edificis singulars";"2,84050601";"41,98508020"
"487150,1";"4651240,6";"Can Pantalé";"Edificis singulars";"2,84480802";"42,01307882"
"483918,5";"4649749,5";"Mas Bonet";"Edificis singulars";"2,80581556";"41,99959056"
"487611,7";"4649739,0";"Can Pi";"Edificis singulars";"2,85040726";"41,99956726"
"487099,7";"4651384,5";"Can Peres";"Edificis singulars";"2,84418892";"42,01437493"
"485735,5";"4650524,0";"Cal Carnisser";"Edificis singulars";"2,82773626";"42,00660571"
"486840,6";"4652571,5";"El Xalet";"Edificis singulars";"2,84103425";"42,02506148"
"486086,8";"4647703,8";"Cal Carboner";"Edificis singulars";"2,83204172";"41,98120426"
"487075,4";"4648513,3";"Can Llinàs";"Edificis singulars";"2,84396225";"41,98851650"
"485834,1";"4651045,7";"Mas Els Tres Reis";"Edificis singulars";"2,82891920";"42,01129994"
"486179,6";"4644834,3";"Mas Roqueta";"Edificis singulars";"2,83323174";"41,95536573"
"486139,7";"4652243,2";"Mas Mainau";"Edificis singulars";"2,83257433";"42,02209528"
"488562,0";"4650369,5";"Can Barris";"Edificis singulars";"2,86187794";"42,00525583"
"487170,1";"4648912,8";"Can Nofre";"Edificis singulars";"2,84510043";"41,99211171"
"488394,8";"4647906,9";"Can Salgueda";"Edificis singulars";"2,85989789";"41,98306999"
"487027,0";"4650339,4";"Cal Santo";"Edificis singulars";"2,84334244";"42,00496183"
"488532,3";"4648334,6";"Can Mola Sagalassa";"Edificis singulars";"2,86155540";"41,98692687"
"489485,6";"4648628,8";"Can Minguet";"Edificis singulars";"2,87305497";"41,98958812"
"486260,9";"4648407,9";"Can Poater ";"Edificis singulars";"2,83412564";"41,98754800"
"486020,0";"4652372,1";"Can Xifre";"Edificis singulars";"2,83113387";"42,02325502"
"486028,0";"4652053,0";"Mas Pou Petit";"Edificis singulars";"2,83123810";"42,02038206"
"487099,6";"4651220,5";"Església St. Jaume";"Edificis singulars";"2,84419253";"42,01289785"
"486323,8";"4648718,3";"Can Salip-Can Feliu";"Edificis singulars";"2,83487896";"41,99035016"
"488202,0";"4649991,3";"Cal Mistaire";"Edificis singulars";"2,85753829";"42,00184601"
"490528,0";"4647436,2";"Cal Gaig";"Edificis singulars";"2,88566604";"41,97886540"
"487245,3";"4649340,0";"Mas Miralles";"Edificis singulars";"2,84599662";"41,99596777"
"483451,8";"4648561,2";"Can Peirot";"Edificis singulars";"2,80021020";"41,98888101"
"487372,9";"4650437,7";"Can Millàs";"Edificis singulars";"2,84750642";"42,00585009"
"487048,7";"4650039,1";"Ca l'Onofre";"Edificis singulars";"2,84360265";"42,00226019"
"486830,6";"4648783,9";"Can Roure";"Edificis singulars";"2,84099844";"41,99094424"
"487261,6";"4650044,1";"Can Parassa";"Edificis singulars";"2,84617454";"42,00230870"
"487082,3";"4651669,1";"Can Greboleda";"Edificis singulars";"2,84397733";"42,01694154"
"487081,8";"4651746,4";"Can Grau";"Edificis singulars";"2,84396356";"42,01763503"
"487084,7";"4651727,1";"Can Gregori";"Edificis singulars";"2,84400021";"42,01746395"
"483835,5";"4647456,1";"Can Paquetilla";"Edificis singulars";"2,80487645";"41,97893665"
"484163,8";"4647525,4";"Cal Gras";"Edificis singulars";"2,80883377";"41,97956477"
"486413,0";"4652359,9";"Can Guillen";"Edificis singulars";"2,83588125";"42,02314482"
"486466,4";"4652381,5";"Can Gubau";"Edificis singulars";"2,83652093";"42,02334388"
"486343,0";"4650071,0";"Can Negrell";"Edificis singulars";"2,83508896";"42,00253649"
"485987,6";"4645233,9";"Can Forges";"Edificis singulars";"2,83090552";"41,95895602"
"486098,6";"4644854,6";"Cal Guenyo";"Edificis singulars";"2,83225390";"41,95554444"
"486857,1";"4650571,4";"Cal Rave";"Edificis singulars";"2,84128439";"42,00704855"
"483408,2";"4648539,3";"Mas Clarà";"Edificis singulars";"2,79969170";"41,98868196"
"483234,4";"4648407,6";"Can Segalars";"Edificis singulars";"2,79759485";"41,98748940"
"486773,0";"4649395,0";"Mas Carles";"Edificis singulars";"2,84029650";"41,99645535"
"486231,2";"4652301,1";"Mas Taberner";"Edificis singulars";"2,83368422";"42,02261928"
"485067,7";"4643559,9";"Can Figueres";"Edificis singulars";"2,81984642";"41,94386192"
"486850,9";"4649107,0";"Mas Jacomic";"Edificis singulars";"2,84123264";"41,99386272"
"485888,0";"4650187,1";"Can Rol";"Edificis singulars";"2,82959197";"42,00357323"
"488650,7";"4647583,4";"Can Mas";"Edificis singulars";"2,86299443";"41,98016457"
"487609,9";"4647409,9";"Can Venda";"Edificis singulars";"2,85043225";"41,97858172"
"487122,9";"4651387,4";"Can Borrell";"Edificis singulars";"2,84446664";"42,01440233"
"483897,6";"4647566,4";"Can Po Vell";"Edificis singulars";"2,80562182";"41,97992865"
"487693,4";"4646336,4";"Cementiri nou";"Edificis singulars";"2,85146864";"41,96891888"
"489590,1";"4647924,6";"Can Castelló";"Edificis singulars";"2,87433508";"41,98324883"
"486319,7";"4647277,1";"Can Figueres";"Edificis singulars";"2,83486420";"41,97737150"
"485825,7";"4650249,8";"Mas Ca la Rita";"Edificis singulars";"2,82882973";"42,00413051"
"489206,1";"4648803,2";"Ca l'Agustí - Can Jordi";"Edificis singulars";"2,86968346";"41,99116052"
"487635,7";"4650083,3";"Can Palahí Vell";"Edificis singulars";"2,85068981";"42,00266592"
"486823,2";"4647983,0";"Can Sirvent";"Edificis singulars";"2,84093186";"41,98373880"
"486996,8";"4649294,5";"Can Gafarrot";"Edificis singulars";"2,84299124";"41,99554939"
"485866,0";"4652233,9";"Can Behí";"Edificis singulars";"2,82927705";"42,02200036"
"487045,6";"4651322,2";"Can Ribas";"Edificis singulars";"2,84353811";"42,01381564"
"486315,8";"4652348,5";"Can Mas Garriga";"Edificis singulars";"2,83469776";"42,02304405"
"487350,3";"4648777,7";"Can Manton";"Edificis singulars";"2,84727651";"41,99089872"
"487079,0";"4651629,4";"Can Borrassó";"Edificis singulars";"2,84394198";"42,01658122"
"486005,0";"4651887,7";"Can Masnou";"Edificis singulars";"2,83096426";"42,01888656"
"486725,6";"4648204,4";"Can Jordi de Sant Daniel";"Edificis singulars";"2,83974385";"41,98572762"
"487470,8";"4649069,0";"Can Xifreu";"Edificis singulars";"2,84871904";"41,99353058"
"485842,7";"4647213,1";"El Refugi";"Edificis singulars";"2,82910817";"41,97678665"
"483664,1";"4648594,5";"Mas Lleter";"Edificis singulars";"2,80278073";"41,98918268"
"486785,7";"4651954,1";"Can Boada";"Edificis singulars";"2,84038378";"42,01950349"
"487654,3";"4648534,8";"Can Vifaràs";"Edificis singulars";"2,85095180";"41,98871493"
"486056,9";"4652327,7";"Can Mercader";"Edificis singulars";"2,83156979";"42,02285037"
"486558,3";"4647475,3";"Polvorí";"Edificis singulars";"2,83774450";"41,97915894"
"488124,4";"4647565,5";"Can Agullana";"Edificis singulars";"2,85664547";"41,97999470"
"486818,0";"4650613,1";"Mas Cisteller - Can Geli";"Edificis singulars";"2,84081249";"42,00742618"
"486273,5";"4647025,2";"Les Rohigues";"Edificis singulars";"2,83431485";"41,97510102"
"489551,7";"4648518,8";"Mas Llaurador ";"Edificis singulars";"2,87385373";"41,98859827"
"486775,8";"4650498,8";"Can Ginesta";"Edificis singulars";"2,84029581";"42,00638969"
"487064,5";"4651207,2";"Castell de Campdorà";"Edificis singulars";"2,84377011";"42,01278019"
"489322,3";"4647773,8";"Casa de Les Figues";"Edificis singulars";"2,87110265";"41,98188523"
"483985,6";"4649764,6";"Can Sunyer";"Edificis singulars";"2,80662415";"41,99972702"
"488580,1";"4650554,8";"Castell de Sant Miquel";"Edificis singulars";"2,86209171";"42,00692232"
"487209,9";"4650213,9";"Ca la Loreto";"Edificis singulars";"2,84554295";"42,00382998"
"487106,3";"4651557,4";"Can Pagès";"Edificis singulars";"2,84426966";"42,01593319"
"487962,7";"4646987,2";"Can Martí de les Vinyes";"Edificis singulars";"2,85470182";"41,97478638"
"486836,9";"4648334,7";"Can Tomas";"Edificis singulars";"2,84108093";"41,98690035"
"487372,2";"4649862,1";"Can Vila";"Edificis singulars";"2,84751879";"42,00067128"
"486310,0";"4652839,4";"Mas Hugas";"Edificis singulars";"2,83462590";"42,02746620"
"483935,0";"4647559,8";"Can Po Nou";"Edificis singulars";"2,80608070";"41,97986638"
"488331,4";"4650191,7";"Can Micaló";"Edificis singulars";"2,85909200";"42,00364926"
"487433,6";"4649645,8";"Can Miralletes";"Edificis singulars";"2,84826000";"41,99871782"
"487266,2";"4646438,5";"Can Turró";"Edificis singulars";"2,84631304";"41,96983077"
"487028,3";"4649213,9";"Can Massegú";"Edificis singulars";"2,84337939";"41,99482038"
"488107,6";"4648425,8";"Can Valls";"Edificis singulars";"2,85642287";"41,98774017"
"486830,9";"4652261,5";"Can Mingo";"Edificis singulars";"2,84092042";"42,02226927"
"488397,9";"4650401,8";"Cal Marxant - Can Micaló Nou";"Edificis singulars";"2,85988482";"42,00554163"
"486819,0";"4648916,1";"Cal Rajoler";"Edificis singulars";"2,84086265";"41,99214194"
"487631,4";"4652463,2";"Mas Font Picant";"Edificis singulars";"2,85059135";"42,02410160"
"486371,0";"4647234,9";"Torre Telecomunicacions";"Edificis singulars";"2,83549286";"41,97698512"
"486587,0";"4650007,1";"Mas Aulet";"Edificis singulars";"2,83803676";"42,00196426"
"490115,8";"4647812,0";"Can Casellas";"Edificis singulars";"2,88067451";"41,98224684"
"489562,3";"4647984,5";"Cal Moliner";"Edificis singulars";"2,87399601";"41,98378886"
"486133,2";"4648445,6";"Can Pericot";"Edificis singulars";"2,83259156";"41,98788803"
"487574,8";"4646641,5";"Can Pere";"Edificis singulars";"2,85002600";"41,97166405"
"487626,5";"4650282,4";"Can Turon";"Edificis singulars";"2,85057694";"42,00445810"
"484100,8";"4649973,4";"Can Bonet Petit";"Edificis singulars";"2,80800707";"42,00161174"
"486735,5";"4649337,2";"Can Palahí";"Edificis singulars";"2,83983900";"41,99593232"
"486182,7";"4645358,6";"Mas Vert";"Edificis singulars";"2,83325564";"41,96008530"
"488047,0";"4649525,2";"Can Lliure";"Edificis singulars";"2,85567615";"41,99764658"
"487019,7";"4650424,8";"Cal Sec";"Edificis singulars";"2,84324396";"42,00572726"
"483344,7";"4648505,3";"Can Bru";"Edificis singulars";"2,79892002";"41,98837439"
"487471,7";"4652577,8";"Cal Ros";"Edificis singulars";"2,84865624";"42,02512582"
"485625,7";"4644494,2";"Mas Jardí";"Edificis singulars";"2,82655535";"41,95229355"
"486446,9";"4652304,3";"Mas Raba de Baix";"Edificis singulars";"2,83628113";"42,02265003"
"488069,4";"4650283,2";"Can Bernat";"Edificis singulars";"2,85592638";"42,00447394"
"485858,1";"4652156,0";"Cal Pulidor";"Edificis singulars";"2,82918227";"42,02130671"
"487927,2";"4649750,0";"Can Rebaixí";"Edificis singulars";"2,85422261";"41,99967124"
"487468,8";"4649276,4";"Masia Muret";"Edificis singulars";"2,84869047";"41,99539492"
"488026,3";"4650054,5";"Can Sistac";"Edificis singulars";"2,85541180";"42,00241077"
"485934,9";"4647753,6";"Torre Alfons XII";"Edificis singulars";"2,83020571";"41,98165189"
"486970,2";"4652526,0";"Can Sunyer";"Edificis singulars";"2,84260557";"42,02465835"
"486681,6";"4648354,5";"Can Xaco";"Edificis singulars";"2,83920929";"41,98707788"
"487091,0";"4651404,7";"Can Sunyer";"Edificis singulars";"2,84409186";"42,01455493"
"487035,7";"4649984,1";"La Torre Bonica";"Edificis singulars";"2,84344689";"42,00176461"
"487109,9";"4649022,8";"Fàbrica de Can Saguer";"Edificis singulars";"2,84436155";"41,99310144"
"486188,4";"4652455,7";"Mas Borni";"Edificis singulars";"2,83316120";"42,02400554"
"488273,3";"4650098,9";"Can Baldiri";"Edificis singulars";"2,85839348";"42,00281078"
"487005,5";"4650236,8";"Mas Rei";"Edificis singulars";"2,84307906";"42,00403379"
"484015,0";"4650015,9";"Cal Rabaixí";"Edificis singulars";"2,80697955";"42,00198829"
"488210,9";"4647483,9";"Can Ferriol";"Edificis singulars";"2,85768522";"41,97925744"
"486743,4";"4652466,1";"Casa Barceló";"Edificis singulars";"2,83986492";"42,02411416"
"486918,3";"4648246,2";"Can Joan";"Edificis singulars";"2,84207281";"41,98610913"
"488586,2";"4650322,4";"Can Passaserres";"Edificis singulars";"2,86216867";"42,00483287"
"483175,7";"4648328,4";"Can Benet";"Edificis singulars";"2,79688484";"41,98677662"
"486033,9";"4652351,5";"Cal Oliveras";"Edificis singulars";"2,83129140";"42,02306612"
"486288,8";"4648056,9";"Can Quim";"Edificis singulars";"2,83447185";"41,98438715"
"486920,6";"4648688,1";"Mas Pi (Can Garcia)";"Edificis singulars";"2,84208712";"41,99009010"
"486720,4";"4652004,2";"Mas Verd";"Edificis singulars";"2,83959756";"42,01995272"
"484452,9";"4649780,8";"Can Faixeda";"Edificis singulars";"2,81226256";"41,99988049"
"486036,7";"4651980,6";"Mas Pou Petit";"Edificis singulars";"2,83133647";"42,01972472"
"486623,2";"4652397,2";"Ca l'Isidro";"Edificis singulars";"2,83841698";"42,02349067"
"486729,1";"4648680,9";"Cementiri Sant Daniel";"Edificis singulars";"2,83978139";"41,99001486"
"484042,2";"4649969,7";"Can Bonet Petit-masoveria";"Edificis singulars";"2,80730683";"42,00157454"
"487166,2";"4648083,8";"La Torre d'en Rosés";"Edificis singulars";"2,84507024";"41,98464513"
"487222,9";"4652915,6";"Mas El Molí";"Edificis singulars";"2,84564109";"42,02816605"
"489005,2";"4647140,6";"Can Pol";"Edificis singulars";"2,86728789";"41,97617964"
"486944,6";"4650920,4";"Mas Vidriaire";"Edificis singulars";"2,84232725";"42,01019331"
"487896,9";"4648376,7";"Mas Tarrago (Can Roca)";"Edificis singulars";"2,85387661";"41,98729563"
"486368,1";"4648477,6";"Can Puig dels Ferros";"Edificis singulars";"2,83542783";"41,98818034"
"488680,8";"4646705,2";"Ca l'Aureli";"Edificis singulars";"2,86337346";"41,97225714"
"487439,8";"4650375,8";"Mas Moret";"Edificis singulars";"2,84831683";"42,00529275"
"487052,3";"4652660,5";"Casa Ribas";"Edificis singulars";"2,84359312";"42,02586659"
"486649,2";"4652405,8";"Can Peres";"Edificis singulars";"2,83873086";"42,02356317"
"489970,3";"4648297,2";"Can Jordi dels Àngels";"Edificis singulars";"2,87891589";"41,98661324"
"486776,9";"4652848,0";"Can Verd del Pla";"Edificis singulars";"2,84025492";"42,02755523"
"485890,5";"4652224,0";"Cal Pastisser";"Edificis singulars";"2,82956715";"42,02191973"
"485973,6";"4652413,1";"Cal Taxista";"Edificis singulars";"2,83056518";"42,02362346"
"486059,9";"4644739,6";"Bon Pastor";"Edificis singulars";"2,83178604";"41,95450799"
"486428,5";"4648400,9";"Can Barraqueta";"Edificis singulars";"2,83615395";"41,98748787"
"489670,1";"4649243,9";"Can Rafart";"Edificis singulars";"2,87527761";"41,99512967"
"489382,1";"4648189,0";"Caseta vigilant abocador clausurat";"Edificis singulars";"2,87181941";"41,98563282"
"487693,0";"4649290,9";"Can Mortorià";"Edificis singulars";"2,85140679";"41,99552456"
"488839,3";"4649270,1";"Ca la Ferriola";"Edificis singulars";"2,86524379";"41,99536151"
"488689,4";"4650331,9";"Can Micaló Vell";"Edificis singulars";"2,86341229";"42,00491541"
"487957,1";"4646539,6";"Can Nardis";"Edificis singulars";"2,85465065";"41,97075131"
"486330,2";"4646884,5";"La Caseta de la Pedrera";"Edificis singulars";"2,83500612";"41,97383207"
"487083,5";"4647509,9";"Mas Alot";"Edificis singulars";"2,84408090";"41,97947394"
"487137,4";"4651218,5";"Cal Campaner";"Edificis singulars";"2,84465150";"42,01288046"
"490283,3";"4648197,7";"Can Casellas Vell";"Edificis singulars";"2,88269614";"41,98571650"
"490788,7";"4647344,2";"Can Viola";"Edificis singulars";"2,88880586";"41,97803987"
"490830,8";"4647493,7";"Can Bosch";"Edificis singulars";"2,88931050";"41,97938236"
"486577,6";"4648444,8";"L'Horta";"Edificis singulars";"2,83795172";"41,98788671"
"486010,7";"4652549,7";"Planta Incineradora";"Edificis singulars";"2,83100886";"42,02484901"
"488940,5";"4649025,4";"Les Bordes";"Edificis singulars";"2,86646786";"41,99315630"
"486362,4";"4648004,9";"Església del Calvari";"Edificis singulars";"2,83536637";"41,98392009"
"490283,7";"4647842,5";"Can Canova";"Edificis singulars";"2,88270200";"41,98251913"
"486548,1";"4652459,9";"Antigues escoles Campdorà";"Edificis singulars";"2,83750963";"42,02404780"
"488595,7";"4648071,5";"Can Sans";"Edificis singulars";"2,86232106";"41,98455903"
"485933,2";"4652276,9";"Can Peres";"Edificis singulars";"2,83008530";"42,02238884"
"488712,4";"4650221,8";"Can Mistaire Vell";"Edificis singulars";"2,86369214";"42,00392501"
"490303,9";"4647673,2";"Cal Tet";"Edificis singulars";"2,88294622";"41,98099725"
"487083,5";"4647239,3";"Mas Terrats";"Edificis singulars";"2,84408683";"41,97704214"
"487115,4";"4651246,6";"Can Feliu";"Edificis singulars";"2,84438519";"42,01313228"
"487994,0";"4649023,9";"Can Joan";"Edificis singulars";"2,85504647";"41,99312444"
"488916,3";"4646779,1";"Can Corneli";"Edificis singulars";"2,86622045";"41,97292699"
"484259,6";"4650220,3";"Can Carverol";"Edificis singulars";"2,80992036";"42,00383956"
"486032,8";"4648473,8";"Can Colomer";"Edificis singulars";"2,83137158";"41,98813843"
"489291,3";"4648919,5";"Can Punxa Sàrries";"Edificis singulars";"2,87070756";"41,99220645"
"489367,1";"4648834,8";"Cal Geroni";"Edificis singulars";"2,87162666";"41,99144191"
"488343,8";"4646867,1";"Mas Barrell";"Edificis singulars";"2,85930284";"41,97371131"
"486511,9";"4650388,4";"Cal Cucut";"Edificis singulars";"2,83711030";"42,00539449"
"488487,8";"4647264,8";"Can Ros";"Edificis singulars";"2,86103311";"41,97728907"
"490869,3";"4647787,6";"Ca la Carme";"Edificis singulars";"2,88977670";"41,98203077"
"489188,7";"4649016,0";"Cal Dineret";"Edificis singulars";"2,86946223";"41,99307869"
"489103,2";"4648595,6";"Mas Estela";"Edificis singulars";"2,86844380";"41,98928571"
"490012,6";"4649014,5";"Ca la Bosca";"Edificis singulars";"2,87941074";"41,99307156"
"486207,7";"4652821,2";"Depuradora";"Edificis singulars";"2,83338210";"42,02730228"
"487849,7";"4648871,2";"Ca les Mulanes";"Edificis singulars";"2,85329897";"41,99175320"
"483635,6";"4648591,9";"Can Roureda";"Edificis singulars";"2,80243071";"41,98915506"
"487829,0";"4649770,7";"Can Xironi";"Edificis singulars";"2,85303888";"41,99984987"
"486572,3";"4648263,9";"Cal Jutge - Can Xicó";"Edificis singulars";"2,83789549";"41,98625642"
"486783,0";"4650448,9";"Ca la Mula";"Edificis singulars";"2,84039354";"42,00593950"
"487378,8";"4647239,8";"La Casota";"Edificis singulars";"2,84764758";"41,97704692"
"488166,5";"4647073,9";"Can Nagret";"Edificis singulars";"2,85716236";"41,97556404"
"488352,1";"4649886,5";"Can Figueres";"Edificis singulars";"2,85935163";"42,00090255"
"489318,3";"4648039,8";"Pou de la Casa de les Figues";"Hidrologia";"2,87104953";"41,98428095"
"490598,3";"4647895,2";"Font Freda";"Hidrologia";"2,88650365";"41,98300031"
"488394,4";"4650185,7";"Font dels Marxants";"Hidrologia";"2,85985287";"42,00359615"
"489453,8";"4648512,5";"Font d'en Minguet";"Hidrologia";"2,87267072";"41,98854292"
"487570,4";"4647687,5";"Font dels Lleons";"Hidrologia";"2,84995561";"41,98108496"
"488208,6";"4646483,3";"Font Beriguena";"Hidrologia";"2,85768113";"41,97025073"
"489574,0";"4647928,6";"Bassa de Can Castelló";"Hidrologia";"2,87414186";"41,98328464"
"488934,6";"4646718,8";"Font Catius ";"Hidrologia";"2,86643885";"41,97237783"
"488011,3";"4648786,5";"Font dels Capellans";"Hidrologia";"2,85525656";"41,99099012"
"487949,1";"4649179,1";"Font del Molí";"Hidrologia";"2,85449997";"41,99452879"
"489254,8";"4647284,9";"Font d'en Lliure";"Hidrologia";"2,87029074";"41,97748004"
"487229,2";"4649402,5";"Font d'en Miralles";"Hidrologia";"2,84580209";"41,99652592"
"488184,6";"4650348,3";"Font Martina";"Hidrologia";"2,85731376";"42,00506111"
"487888,6";"4648087,8";"Font de la Llusia";"Hidrologia";"2,85378599";"41,98469258"
"486524,8";"4648181,3";"Font de les Curculles";"Hidrologia";"2,83731791";"41,98551706"
"488142,3";"4648870,5";"Font del Llor";"Hidrologia";"2,85683642";"41,99174866"
"486667,2";"4648207,5";"Font d'en Fita";"Hidrologia";"2,83904361";"41,98575366"
"487837,8";"4648845,6";"Resclosa de les Mulanes";"Hidrologia";"2,85315463";"41,99151884"
"488124,0";"4648405,5";"Mina d'aigua de Can Valls";"Hidrologia";"2,85662850";"41,98756029"
"491302,3";"4648005,7";"Font del Palet";"Hidrologia";"2,89500035";"41,98399913"
"488876,1";"4648153,0";"Font de l'Ermitó";"Hidrologia";"2,86571167";"41,98530159"
"488300,5";"4647486,1";"Font del Cossi";"Hidrologia";"2,85877153";"41,97928580"
"488836,0";"4648754,8";"Font d'en Boix";"Hidrologia";"2,86521738";"41,99071403"
"490231,9";"4648169,4";"Font d'en Casellas Vell";"Hidrologia";"2,88206886";"41,98546367"
"486228,0";"4648144,5";"Mina d'aigua del Calvari";"Hidrologia";"2,83374549";"41,98517869"
"487755,6";"4648872,5";"Font de les Mulanes";"Hidrologia";"2,85216408";"41,99176075"
"486454,6";"4653025,6";"Font de l'Om";"Hidrologia";"2,83636111";"42,02914392"
"487682,3";"4648440,4";"Font d'en Tomàs";"Hidrologia";"2,85129180";"41,98786874"
"489875,2";"4648199,7";"Bassa del Mas Jordi";"Hidrologia";"2,87777073";"41,98572937"
"487181,1";"4648847,9";"Font del Ferro";"Hidrologia";"2,84523465";"41,99152645"
"489784,0";"4647165,2";"Font de la Mina";"Hidrologia";"2,87669014";"41,97641530"
"488398,4";"4650424,6";"Dipòsit de Cal Marxant";"Hidrologia";"2,85989644";"42,00574880"
"488343,7";"4649869,5";"Font de Can Riera";"Hidrologia";"2,85924329";"42,00074930"
"488793,1";"4650318,6";"Font d'en Micaló (o d'en Borni)";"Hidrologia";"2,86466840";"42,00479982"
"489830,2";"4646762,0";"Font de les Núvies";"Hidrologia";"2,87725234";"41,97278620"
"488362,4";"4650038,8";"Font d'en Mistaire";"Hidrologia";"2,85946937";"42,00227170"
"488034,5";"4647512,3";"Font d'en Faust";"Hidrologia";"2,85556017";"41,97951598"
"488078,9";"4649526,7";"Mina d'aigua de Can LLiure";"Hidrologia";"2,85605043";"41,99765606"
"490272,4";"4648199,7";"Pou de Can Caselles Vell";"Hidrologia";"2,88256331";"41,98573438"
"486027,2";"4648509,3";"Font del Bisbe";"Hidrologia";"2,83131036";"41,98846258"
"488529,0";"4648041,3";"Font de Can Sans";"Hidrologia";"2,86152490";"41,98428787"
"488588,4";"4648630,9";"Font de les Perdius";"Hidrologia";"2,86222570";"41,98959365"
"488699,3";"4647537,0";"Font d'en Mas";"Hidrologia";"2,86358679";"41,97975097"
"486182,7";"4648410,6";"Font d'en Pericot";"Hidrologia";"2,83318393";"41,98757365"
"485994,1";"4652816,5";"Font del Cimà";"Hidrologia";"2,83080921";"42,02725349"
"487592,3";"4652414,0";"Font Picant";"Hidrologia";"2,85012130";"42,02365967"
"487210,2";"4648833,4";"Font de la Pinya";"Hidrologia";"2,84558508";"41,99140083"
"483663,5";"4645106,0";"Pla d'abastaments";"Zona industrial";"2,80286556";"41,95776744"
"483910,3";"4648629,2";"Parc de Domeny";"Parcs i jardins";"2,80574964";"41,98950298"
"485613,8";"4647235,9";"Parc de Vista Alegre";"Parcs i jardins";"2,82634353";"41,97698065"
"487197,7";"4648711,8";"Turó de Can Garcia";"Relleu";"2,84543078";"41,99030181"
"489147,7";"4648644,3";"Puig Estela";"Relleu";"2,86897409";"41,98972765"
"485009,7";"4648361,2";"Jardins de la Devesa";"Parcs i jardins";"2,81902435";"41,98711088"
"488967,2";"4647391,6";"Puig Ventós";"Relleu";"2,86682452";"41,97843979"
"489079,4";"4648249,7";"Puig Cucut (o de les Àligues)";"Relleu";"2,86816049";"41,98616907"
"486682,9";"4646770,5";"Grup Sant Daniel";"Llocs";"2,83925724";"41,97281134"
"486227,9";"4646454,7";"Puig de Montilivi";"Relleu";"2,83377300";"41,96995741"
"486870,6";"4646630,0";"Mas Ramada";"Llocs";"2,84152944";"41,97155356"
"485483,9";"4648456,1";"Basílica de Sant Feliu";"Edificis singulars";"2,82474424";"41,98797539"
"484901,0";"4646814,6";"Parc del Migdia";"Parcs i jardins";"2,81776028";"41,97317552"
"485593,6";"4648386,4";"Catedral";"Edificis singulars";"2,82607392";"41,98734694"
"486006,8";"4647543,8";"Parc de Les Pedreres";"Parcs i jardins";"2,83107984";"41,97976178"
"485369,1";"4649095,5";"Illa del Ter";"Llocs";"2,82335207";"41,99372852"
"488573,3";"4650568,2";"Puig de Sant Miquel";"Relleu";"2,86200690";"42,00704831"
"485734,2";"4648401,5";"Passeig Arqueològic";"Parcs i jardins";"2,82777574";"41,98748461"
"484432,0";"4648557,8";"Parc de les Ribes del Ter";"Parcs i jardins";"2,81205348";"41,98886499"
"485803,5";"4648315,4";"Jardins dels Alemanys";"Parcs i jardins";"2,82861081";"41,98671128"
"487819,1";"4648698,7";"Massís de les Gavarres";"Relleu";"2,85294037";"41,99019459"
"486905,2";"4648796,0";"Vall de Sant Daniel";"Relleu";"2,84190362";"41,99106257"
"489543,6";"4646670,8";"Vall Preona";"Relleu";"2,87379002";"41,97195382"
"485684,1";"4647980,4";"Passeig de la Muralla";"Llocs";"2,82718238";"41,98369190"
"483252,5";"4649014,0";"Zona Industrial de Domeny Nord";"Zona industrial";"2,79779485";"41,99295681"
"485875,3";"4648291,6";"Torre Gironella";"Llocs";"2,82948058";"41,98649642"
"485662,4";"4647896,8";"Torre dels Socors";"Llocs";"2,82691886";"41,98293494"
"488082,5";"4647855,6";"Puig de les Àguiles";"Relleu";"2,85613262";"41,98260600"
"488546,2";"4649837,7";"Collet d'en Figueres";"Relleu";"2,86169511";"42,00046407"
"484430,7";"4645267,7";"Parc Comercial Mas Gri";"Zona industrial";"2,81211644";"41,95923304"
"485560,0";"4648268,2";"Call";"Llocs";"2,82567843";"41,98628355"
"489075,6";"4648886,8";"Pla d'en Punxa";"Relleu";"2,86810036";"41,99190626"
"485607,8";"4648677,4";"Jardins de l'Àngel";"Parcs i jardins";"2,82623580";"41,98996813"
"484440,3";"4649654,2";"Puig d'en Roca";"Relleu";"2,81212101";"41,99874542"
"487153,5";"4651349,0";"Nucli de Campdorà";"Llocs";"2,84484187";"42,01406059"
"485642,1";"4650254,2";"El Bou d'Or";"Llocs";"2,82661980";"42,00417223"
"485628,6";"4648440,2";"Jardins de la Francesa";"Parcs i jardins";"2,82649513";"41,98783394"
"485215,5";"4648504,0";"La Copa";"Llocs";"2,82150763";"41,98840272"
"491533,0";"4648051,0";"Puig d'en Roure";"Relleu";"2,89778824";"41,98441595"
"485502,6";"4644215,7";"Pla d'enTriola";"Relleu";"2,82507814";"41,94977843"
"482748,8";"4648568,1";"Zona Industrial Torroella-Nestlé";"Zona industrial";"2,79172299";"41,98892898"
"485198,3";"4643460,1";"Pla d'en Figueres";"Relleu";"2,82142930";"41,94297272"
"486167,5";"4649304,4";"Muntanya de Montjüic";"Relleu";"2,83298179";"41,99562533"
"488896,0";"4647902,5";"Olivet d'en Salgueda";"Relleu";"2,86595785";"41,98304120"
"484962,6";"4649444,5";"Turó de la Bateria";"Relleu";"2,81842923";"41,99686417"
"487188,5";"4648855,4";"Paratge de la Font del Ferro";"Llocs";"2,84531899";"41,99159862"
"488555,2";"4648270,0";"Pla de la Segalassa";"Relleu";"2,86183431";"41,98635078"
"484542,4";"4648199,0";"Camp de Mart";"Llocs";"2,81339088";"41,98564278"
"487264,1";"4652378,6";"Bosc de Jonquers";"Llocs";"2,84616012";"42,02333019"
"488878,2";"4649120,5";"Coll de la Ferriola";"Relleu";"2,86571751";"41,99401106"
"488758,0";"4648885,4";"Puig del Matxo";"Relleu";"2,86427318";"41,99189279"
"486088,7";"4646825,1";"Les Tres Roquetes";"Llocs";"2,83208664";"41,97329644"
"486072,3";"4650738,5";"Pedrera de Can Camaret";"Llocs";"2,83180077";"42,00853916"
"486629,4";"4650771,4";"Muntanya d'en Massolet";"Relleu";"2,83852651";"42,00884603"
"486023,2";"4647922,3";"Les Pedreres";"Relleu";"2,83127603";"41,98317560"
"486429,0";"4647078,6";"Pla del Fort dels Caputxins";"Relleu";"2,83619654";"41,97558108"
"487564,4";"4647716,4";"Paratge de la Font dels Lleons";"Llocs";"2,84988257";"41,98134606"
"486197,1";"4651215,8";"Pedrera d'en Rubau";"Llocs";"2,83329909";"42,01283751"
"489124,5";"4648490,8";"Collet d'en Pau Birol";"Relleu";"2,86869927";"41,98834030"
"486403,7";"4648173,3";"Muntanya de la O";"Relleu";"2,83585739";"41,98544292"
"486710,4";"4651287,7";"Muntanya de Can Ribes";"Relleu";"2,83949301";"42,01349482"
"485575,2";"4645255,5";"Bosc de Palau";"Llocs";"2,82593341";"41,95914674"
"486573,6";"4646316,4";"Pla de la Creueta";"Relleu";"2,83795203";"41,96872046"
"488952,4";"4649036,5";"Puig de les Bordes";"Relleu";"2,86661254";"41,99325554"
"483429,4";"4645291,4";"Zona ind. Vilablareix Margesa Transports";"Zona industrial";"2,80003675";"41,95942879"
"484278,9";"4644774,7";"Can Turon";"Zona industrial";"2,81029543";"41,95478972"
"486538,3";"4646446,5";"Zona industrial Crta. Sant Feliu";"Zona industrial";"2,83752665";"41,96989073"
"487236,3";"4652951,1";"La Farinera";"Llocs";"2,84580943";"42,02849051"
"483976,2";"4644462,1";"Polígon l'Avellaneda";"Zona industrial";"2,80665996";"41,95197356"
"483636,5";"4646052,4";"Polígon Mas Marroc";"Zona industrial";"2,80251345";"41,96628720"
"483807,8";"4645784,7";"Zona Industrial Mas Xirgu";"Zona industrial";"2,80458450";"41,96387694"
"484358,8";"4649389,6";"Les Tres Alzines";"Llocs";"2,81113796";"41,99635704"
"483383,8";"4648313,6";"Deveses d'en Bru";"Llocs";"2,79939628";"41,98664594"
"487089,1";"4651084,7";"Feixes del Castell";"Llocs";"2,84407475";"42,01167279"
"487570,1";"4649091,9";"Puig dels Embusters";"Relleu";"2,84992592";"41,99373031"
"487656,6";"4649094,2";"Planes de Can Mortirià";"Relleu";"2,85096418";"41,99375868"
"488459,4";"4649072,9";"Puig de Miralles";"Relleu";"2,86065963";"41,99357271"
"486666,7";"4648397,9";"Plaça de les Sardanes";"Llocs";"2,83902723";"41,98746491"
"486388,1";"4647992,5";"Les Creus";"Llocs";"2,83568051";"41,98381246"
"488406,5";"4648427,3";"Serrat d'en Sans";"Relleu";"2,86003247";"41,98776264"
"488734,3";"4649679,5";"Pla de la Ginestera";"Relleu";"2,86396820";"41,99904373"
"488815,5";"4649546,9";"Serrat de la Tramuntana";"Relleu";"2,86494877";"41,99784700"
"488690,2";"4648599,0";"Massís de les Gavarres";"Relleu";"2,86345771";"41,98931592"
"489044,8";"4648338,3";"Serra de la Cucut";"Relleu";"2,86773630";"41,98697018"
"489017,7";"4648149,2";"Pla de les Boles";"Relleu";"2,86741389";"41,98526755"
"488968,1";"4648008,1";"Puig Vistós";"Relleu";"2,86682501";"41,98399692"
"488744,1";"4647947,0";"Collet de Tres Camins";"Relleu";"2,86412212";"41,98344435"
"488883,2";"4647905,6";"Olivet d'en Salgueda";"Llocs";"2,86580087";"41,98306804"
"489014,2";"4647822,8";"Coll de Trobada";"Relleu";"2,86738378";"41,98232232"
"489017,3";"4647455,9";"Coll Redó";"Relleu";"2,86742685";"41,97901692"
"489476,5";"4647619,2";"La Puntillera";"Llocs";"2,87296438";"41,98050028"
"489698,3";"4647526,2";"Pla del Llop";"Relleu";"2,87564578";"41,97966559"
"489841,5";"4647653,7";"Les Vinyes Mortes";"Llocs";"2,87736971";"41,98081129"
"489691,7";"4648105,5";"La Juliana";"Llocs";"2,87555113";"41,98488036"
"490232,1";"4648079,3";"Clot d'en Tibau";"Relleu";"2,88208242";"41,98465308"
"490454,3";"4648334,4";"Les Sorreres";"Llocs";"2,88475822";"41,98695250"
"486315,7";"4647975,5";"Via Crucis del Calvari";"Llocs";"2,83479967";"41,98365808"
