url,identificador,locale,send,foto,nombre,telefono,fax,correo-electronico,web,horario,descripcion,direccion,localizacion,categorias
"http://www.gijon.es/directorios/show/10584-palacio-de-congresos","10584","es","fecha-actualizacion2017-07-21 14:45:01 +0200","http://www.gijon.es/data/images/f0/f9/97106/3008x2000_v1_ExteriorPalacioCongresosGijon.jpg","Palacio de Congresos","34 985 18 01 60","protocolo@camaragijon.es","http://www.feriasturias.es/feriasturias/contenidos/es/","El Palacio de Congresos de Gijón es diferente, ese es el adjetivo que mejor lo define.<br/><br/>Por los espacios ajardinados que lo rodean, por la luz que define sus espacios, por su flexibilidad, por su compromiso con la sostenibilidad (certificado con la ISO 14.000), por su ubicación: a un paso de la bahía de San Lorenzo y rodeado de hoteles. Y por su versatilidad: por albergar desde los 50 a los 7.000 participantes.<br/><br/>El Palacio de Congresos de Gijón está situado en el Recinto Ferial “Luis Adaro”. Cuenta con pabellones de distintos tamaños (hasta 5.400 m<sup>2</sup>) con personalidad arquitectónica propia, se abren a las calles de un espacio de 160.000 m<sup>2</sup> sembrado de zonas ajardinadas.<br/><br/>El recinto pone a disposición de los organizadores de grandes reuniones más que un espacio ferial, un campus congresual, una ciudad autónoma en la que realmente se puede seguir y disfrutar el cambio de las estaciones reflejado en sus árboles.","Paseo Dr. Fleming, 481, 33203 Gijón, Asturias","Edificios Municipales, Sala de Exposiciones, Club de Empresas de Turismo de Negocios, Centros de Congresos, Administración, Cultura y Ocio"
"http://www.gijon.es/directorios/show/10406-21-cajero-ciudadano-oficina-emtusa","10406","es","fecha-actualizacion2016-01-19 14:00:25 +0100","http://www.gijon.es/data/images/f0/f8/81641/1817x1245_v1_CajeroEmtusaPlazaHumedal.jpg","21 Cajero Ciudadano - Oficina EMTUSA","https://sedeelectronica.gijon.es/page/7862-cajeros-ciudadanos","Abierto 24 horas","Uno de los cajeros que integran la Red Municipal de Cajeros Ciudadanos donde puede acceder a diversos servicios en régimen de autoservicio. En el caso de que se produzca alguna incidencia durante su utilización puede comunicarlo a través del servicio de INCIDENCIA RELACIONADA CON LOS CAJEROS CIUDADANOS disponible en la Oficina Virtual del Ayuntamiento indicando claramente la descripción de la incidencia, el cajero en el que se produjo, la fecha y la hora aproximada.","Plaza del Humedal","43.538877 -5.66603","Cajeros Ciudadanos, Administración"
"http://www.gijon.es/directorios/show/10331-alpee-departamento-de-orientacion-laboral","10331","es","fecha-actualizacion2017-05-11 10:11:07 +0200","http://www.gijon.es/data/images/f0/f9/94736/130x108_v1_logodirectorioimpulsaempleo.png","ALPEE - Departamento de Orientación Laboral","985 181 557","985 181 562","opea@gijon.es","http://empleo.gijon.es","Lunes a Viernes: 9:00-14:00h.","C/ Avelino González Mallada, 27 - 33204 - Gijón","43.532956 -5.648196","Servicios Municipales, Zona Wifi, Administración, Comunicaciones"
"http://www.gijon.es/directorios/show/10154-teatro-jovellanos","10154","es","fecha-actualizacion2015-09-25 10:16:47 +0200","http://www.gijon.es/data/images/f0/f7/72466/130x108_v1__MG_4213.jpg","Teatro Jovellanos","985 182 929","985 182 939","info@teatrojovellanos.com","http://www.teatrojovellanos.com","(Oficina) Lunes a Viernes: 9.30-14.30h. y 17.30-20.30h<br/>(Taquilla) 12.00-14.00h. y 17.30-20.30h.","<b>Autor</b>: El arquitecto fue Mariano Marín Magallón y en 1939 acometió las obras de restauración José Mª Mendoza y Ussía. <br/><br/><b>Fecha</b>: 1899.<br/> <br/>Junto a las viviendas que lo rodean, se enmarca en un estilo ecléctico-historicista. Se distinguen dos partes en la composición: una <b>arcada de pilastras decoradas con trofeos alegóricos</b> que se extienden por toda la superficie hasta la altura de los cuerpos laterales, y un piso superior a modo, de remate, en el que se abre una galería que soporta una amplia cornisa moldurada. El proyecto original fue bastante reformado en la restauración de 1939. Asimismo, en la década de los 90 se llevó a cabo <b>obras de restauración</b> que permitieron recuperar el Teatro para la ciudad.","Estamos también en:  C/ Cabrales, 82 - 33201 Gijón","43.539167 -5.661325","Servicios Municipales, Monumentos, Teatro, Edificios y lugares de interés, Administración, Cultura y Ocio, Turismo"
"http://www.gijon.es/directorios/show/10072-comite-tecnico-plan-estrategico-de-gijon","10072","es","fecha-actualizacion2014-11-12 13:15:28 +0100","http://www.gijon.es/data/images/f0/f6/68676/130x108_v1_peg2024.png","Comité Técnico. Plan Estratégico de Gijón","985 181 597","985 181 562","peg@gijon.es","http://peg2024.gijon.es","Agencia Local de Promoción Económica y Empleo - C/ Avelino González Mallada, 27 - Planta Primera - 33204","Servicios Municipales, Administración"
"http://www.gijon.es/directorios/show/9848-alpee-agencia-de-colocacion-0300000029","9848","es","fecha-actualizacion2017-05-11 10:09:41 +0200","http://www.gijon.es/data/images/f0/f9/94736/130x108_v1_logodirectorioimpulsaempleo.png","ALPEE - Agencia de Colocación 0300000029","985 181 557 / 985 181 741 (empresas)","985 181 562","candidaturaagenciacolocacion@gijon.es - ofertasagenciacolocacion@gijon.es","http://empleo.gijon.es","Lunes a Viernes: 09:00 - 14:00 h.","C/ Avelino González Mallada, 27 - Planta Baja - 33204","Servicios Municipales, Zona Wifi, Administración, Comunicaciones"
"http://www.gijon.es/directorios/show/9845-alpee-agencia-de-activacion-juvenil","9845","es","fecha-actualizacion2017-05-11 10:08:58 +0200","http://www.gijon.es/data/images/f0/f9/94736/130x108_v1_logodirectorioimpulsaempleo.png","ALPEE - Agencia de Activación Juvenil","985 181 557","985 181 562","agenciadeactivacion@gijon.es","http://agenciadeactivacion.gijon.es","Lunes a Viernes: 09:00 - 14:00 h.","La Agencia de Activación Juvenil es una experiencia piloto que se pone en marcha en la ciudad de Gijón con el apoyo económico de la Unión Europea.","C/ Avelino González Mallada, 27 - Planta Baja - 33204","Servicios Municipales, Zona Wifi, Administración, Comunicaciones"
"http://www.gijon.es/directorios/show/9700-delegacion-de-urbanismoseccion-de-integracion-corporativa","9700","es","fecha-actualizacion2014-11-13 11:33:06 +0100","Delegación de Urbanismo<br/>Sección de Integración Corporativa","En este local se Ubica la Unidad de Integración Corporativa.","Bajo Izda.","Servicios Municipales, Administración"
"http://www.gijon.es/directorios/show/9699-delegacion-de-urbanismoedificio-pelayo","9699","es","fecha-actualizacion2014-01-22 12:06:31 +0100","Delegación de Urbanismo<br/>Edificio &quot;Pelayo&quot;","En este edificio se ubica el <a href="http://www.gijon.es/page/12764-servicio-de-patrimonio" title="Ir a Servicio de Patrimonio">Servicio de Patrimonio</a>.","Edificio Pelayo - Plaza Mayor, 5 - Plantas 2 y 3","Servicios Municipales, Administración"
"http://www.gijon.es/directorios/show/9629-alpee-servicio-de-promocion-desarrollo-e-innovacion","9629","es","fecha-actualizacion2017-05-11 10:03:40 +0200","http://www.gijon.es/data/images/f0/f9/94736/130x108_v1_logodirectorioimpulsaempleo.png","ALPEE - Servicio de Promoción, Desarrollo e Innovación","985 181 555","985 181 562","agencialocal@gijon.es","http://empleo.gijon.es","c/ Avelino González Mallada nº 27, 33204 Gijón","Servicios Municipales, Zona Wifi, Empleo, Empleo y promoción económica, Administración, Comunicaciones"
"http://www.gijon.es/directorios/show/9628-alpee-servicio-de-promocion-desarrollo-e-innovacion","9628","es","fecha-actualizacion2017-05-11 10:02:59 +0200","http://www.gijon.es/data/images/f0/f9/94736/130x108_v1_logodirectorioimpulsaempleo.png","ALPEE. Servicio de Promoción, Desarrollo e Innovación","985 181 556/ 985 181 555","985 181 562","agencialocal@gijon.es","http://empleo.gijon.es","c/ Avelino González Mallada nº 27, 33204 Gijón","43.532745 -5.649676","Servicios Municipales, Empleo, Administración"
"http://www.gijon.es/directorios/show/9603-alpee-coordinacion-planes-de-empleo","9603","es","fecha-actualizacion2017-05-11 10:02:08 +0200","http://www.gijon.es/data/images/f0/f9/94736/130x108_v1_logodirectorioimpulsaempleo.png","ALPEE - Coordinación Planes de Empleo ","985 181 558/59","985 181 594","inserta@gijon.es","../../../","Lunes a Viernes: 09:00 - 14:00 h.","C/ Avelino González Mallada, 27 - Planta Primera - 33204","Servicios Municipales, Zona Wifi, Administración, Comunicaciones"
"http://www.gijon.es/directorios/show/9551-alpee-servicio-de-orientacion-formacion-y-empleo","9551","es","fecha-actualizacion2017-05-11 10:01:15 +0200","http://www.gijon.es/data/images/f0/f9/94736/130x108_v1_logodirectorioimpulsaempleo.png","ALPEE. Servicio de Orientación, Formación y Empleo","985 181 555","985 181 594","agencialocal@gijon.es","../../../","Lunes a Viernes: 9:00 - 14:00h.","C/ Avelino González Mallada, 27 - Planta Primera - 33204","43.53262 -5.651929","Servicios Municipales, Zona Wifi, Empleo, Empleo y promoción económica, Administración, Comunicaciones"
"http://www.gijon.es/directorios/show/9351-alpee-seccion-de-promocion-del-empleo","9351","es","fecha-actualizacion2017-05-11 10:00:14 +0200","http://www.gijon.es/data/images/f0/f9/94736/130x108_v1_logodirectorioimpulsaempleo.png","ALPEE - Sección de Promoción del Empleo","985 181 564/ 985 181 567/ 985 181 569/ 985 181 570/ 985 181 579/ 985 181 686","985 181 562","secretariatecnica.alpee@gijon.es","http://empleo.gijon.es","Lunes a Viernes: 09:00 - 14:00 h.","C/ Avelino González Mallada, 27 - Planta Primera - 33204","Servicios Municipales, Zona Wifi, Administración, Comunicaciones"
"http://www.gijon.es/directorios/show/9333-alpee-departamento-de-innovacion-para-el-empleo","9333","es","fecha-actualizacion2017-05-11 09:59:25 +0200","http://www.gijon.es/data/images/f0/f9/94736/130x108_v1_logodirectorioimpulsaempleo.png","ALPEE - Departamento de Innovación para el Empleo","985 181 563/ 985 181 593/ 985 181 573/ 985 181 572/ 985 181 574","985 181 562","nuevosproyectos@gijon.es","../../../","Lunes a Viernes: 09:00 - 14:00 h.","El Departamento de Innovación para el Empleo de la Agencia Local de Promoción Económica y Empleo del Ayuntamiento de Gijón se encarga de coordinar y gestionar las siguientes actuaciones:<br/><br/>- Observatorio Socioeconómico Local<br/>- Formulación de nuevos proyectos e iniciativas y obtención de financiación a nivel regional, nacional o europea<br/>- Gestión de iniciativas innovadoras de empleo<br/>- Seguimiento y Evaluación del Acuerdo para el crecimiento y la diversificación de la actividad económica, el impulso del talento y la mejora de la empleabilidad en un marco de cohesión social &quot;Gijón crece 2016/2019&quot;<br/>- Gestión de la comunicación de la Agencia: portal web <a href="http://empleo.gijon.es" title="Ir a http://empleo.gijon.es" rel="external">http://empleo.gijon.es</a>; perfil de facebook <a href="http://www.facebook.com/EmpleoGijon" title="Ir a http://www.facebook.com/EmpleoGijon" rel="external">http://www.facebook.com/EmpleoGijon</a> y perfil de twitter <a href="http://twitter.com/@empleo_gijon" title="Ir a http://twitter.com/@empleo_gijon" rel="external">@empleo_gijon</a><br/>- Representación de la Agencia en el Foro de Desarrollo Económico de Eurocities y en la Red RETOS de Territorios Socialmente Responsables","C/ Avelino González Mallada, 27 - Planta Primera - 33204","Servicios Municipales, Zona Wifi, Administración, Comunicaciones"
"http://www.gijon.es/directorios/show/9329-alpee-departamento-de-formacion","9329","es","fecha-actualizacion2017-05-11 10:06:55 +0200","http://www.gijon.es/data/images/f0/f9/94736/130x108_v1_logodirectorioimpulsaempleo.png","ALPEE - Departamento de Formación","985 181 601/985 181 687/688","985 181 594","formacion.alpee@gijon.es","http://empleo.gijon.es","Lunes a Viernes: 09:00 - 14:00 h.","C/ Avelino González Mallada, 27 - Planta Primera - 33204","43.53271 -5.649413","Servicios Municipales, Zona Wifi, Administración, Comunicaciones"
"http://www.gijon.es/directorios/show/8225-punto-limpio-de-tremanes","8225","es","fecha-actualizacion2014-01-22 12:05:54 +0100","http://www.gijon.es/data/images/f0/f3/37214/249x179_v1_pl_tremanes.jpg","Punto Limpio de Tremañes","985 14 14 14","emulsa@emulsa.org","Lunes a Viernes: 8:15-20:00h. Sábados: 8:15-18:00h.","Depósito gratuito y limitado de: escombros de particulares, podas, céspedes, vegetales, muebles, aceites, férricos, papel, cartón, vidrio, envases, pilas, neumáticos, medicamentos, disolventes, frigoríficos, alquitranes y fluorescentes.","Avda. Los Campones, 152 (Entrada por Calle Trinchera)","Servicios Municipales, Puntos Limpios, Administración, Medio Ambiente"
"http://www.gijon.es/directorios/show/6869-centro-de-cultura-de-roces-alfonso-camin-biblioteca-de-roces","6869","es","fecha-actualizacion2017-03-28 12:26:01 +0200","Centro de Cultura de Roces Alfonso Camin (Biblioteca de Roces)","985 181 692","bibliotecaroces@gijon.es","http://www.gijon.eshttp://www.bibliotecaspublicas.es/redgijon/index.jsp","<p>Lunes a viernes de 9.00 a 14.00 h y de 16.00 a 20.00 h</p>","Ofrece diversos servicios y dispone de diferentes equipamientos tales como:<br/>Salón polivalente(con capacidad para 90 personas), Fonoteca e Información, asesoramiento y recursos para las asociaciones y colectivos del barrio. Biblioteca: Sala de lectura, Sección infantil y juvenil, Sección adultos, Prensa y revistas, Préstamo de libros, discos, revistas, cd-rom, vídeo y dvd, Información bibliográfica y de referencia, <br/>Préstamo interbibliotecario y Catálogo colectivo. Red Municipal. Mediateca (4 Puestos): Acceso gratuito a Internet y Cursos de información digital.","Avda. Salvador Allende, 13","43.518957 -5.683378","Cajeros Ciudadanos, Edificios Municipales, Servicios Municipales, Mediatecas, Zona Wifi, Bibliotecas, Lineas de autobuses urbanos, Administración, Comunicaciones, Cultura y Ocio, Movilidad"
"http://www.gijon.es/directorios/show/6868-centro-municipal-de-contrueces-biblioteca-de-contrueces","6868","es","fecha-actualizacion2017-03-28 12:25:50 +0200","Centro Municipal de Contrueces (Biblioteca de Contrueces)","985 185 114","bibliotecacontrueces@gijon.es","http://www.gijon.eshttp://www.bibliotecaspublicas.es/redgijon/index.jsp","Lunes a viernes de 9.00 a 20.00 h","<p><strong>Biblioteca:</strong> Sala de lectura. Sección adultos (18 puestos). Prensa y revistas (18 puestos). Sección infantil y juvenil (18 puestos). Bebeteca. Sección Asturiana. Centros de interés: Cómic. Préstamo de libros, discos, revistas, cd-rom, vídeo y dvd. Préstamo interbibliotecario. Información bibliográfica y de referencia. Actividades de animación a la lectura: Bebé cuentos, La hora de los cuentos, Club de lectura, Programa de formación en el uso de la biblioteca para escolares. Consulta Catálogo Colectivo de la Red de Bibliotecas del Principado de Asturias. Consulta Red Municipal de Bibliotecas</p><p><strong>Mediateca:</strong> 13 puestos. Acceso gratuito a internet y cursos de formación digital</p><p>2 <strong>aulas </strong>polivalentes. Información, asesoramiento y recursos para las asociaciones y colectivos del barrio.  </p><p><strong>Cajero ciudadano</strong></p>","C/ Rio Nalón, 2","43.521928 -5.664131","Cajeros Ciudadanos, Edificios Municipales, Servicios Municipales, Mediatecas, Zona Wifi, Bibliotecas, Sala de Exposiciones, Administración, Comunicaciones, Cultura y Ocio"
"http://www.gijon.es/directorios/show/6809-alpee-escuela-de-segunda-oportunidad-e2o","6809","es","fecha-actualizacion2017-05-11 10:06:06 +0200","http://www.gijon.es/data/images/f0/f9/94736/130x108_v1_logodirectorioimpulsaempleo.png","ALPEE. Escuela de Segunda Oportunidad - E2O","985 181 799/985 181 798","escuelasegundaoportunidad.alpee@gijon.es","http://empleo.gijon.es","Lunes a jueves: 9:00 a 19:30 h. Viernes: 9:00 a 14.00 h.","Avelino González Mallada, 27 planta semisótano - 33204 - Gijón","Servicios Municipales, Zona Wifi, Administración, Comunicaciones"
"http://www.gijon.es/directorios/show/5841-19-cajero-ciudadano-viesques","5841","es","fecha-actualizacion2016-01-19 13:58:55 +0100","19 Cajero Ciudadano - Viesques","Información municipal llamando a 985 18 11 05","https://sedeelectronica.gijon.es/page/7862-cajeros-ciudadanos","<a href="https://acerca.gijon.es/eParticipa/Products/Carpeta/Public/Requests/InetReqPublic.aspx?qs=8rH62eAXeBeQM4ln894ypC7GLKLmVKLj3hN9M0IG5nC6yB3%2bC8sYxk7DzSyO1cz2%3C/div%3E%0A%0A%0A%20%20%20%20%3C/div%3E%0A%20%20%20%20%3Cdiv%20class=">Abierto 24 horas (acceso con tarjeta ciudadana)</a>","C/ Anselmo Solar, 23","43.530346 -5.64424","Cajeros Ciudadanos, Administración"
"http://www.gijon.es/directorios/show/3469-conseyu-de-moceda-de-xixon","3469","es","fecha-actualizacion2016-07-11 13:33:32 +0200","http://www.gijon.es/data/images/f0/f3/30333/130x108_v1_CMX.jpg","Conseyu de Mocedá de Xixón","985 155 072","985 990 739","info@cmx.es","http://www.cmx.es","<span style="font-weight: bold;">Del 16 de Septiembre al 14 de junio:</span><br/>Mañanas: De 09:00 a 14:00 h.<br/>Tardes: De 17:00 a 21:00 h.<br/><br/><span style="font-weight: bold;">Del 15 de junio al 15 de septiembre:</span><br/>De lunes a viernes de 08:00 a 15:00 h.","El <span style="font-weight: bold;">Centro de Recursos</span> para jóvenes y asociaciones juveniles de Gijón es un centro municipal cuyo objetivo es ofrecer a las asociaciones juveniles y a los jóvenes en general de la ciudad una serie de recursos y prestaciones modernas y un espacio de comunicación, formación y asesoramiento. Además de informar y asesorar a las asociaciones, el Centro de Recursos ofrece la posibilidad de realizar asambleas, juntas, congresos, cursos, presentaciones, exposiciones, etc. Servicios que ofrece: hotel de asociaciones juveniles, area de información, area de talleres, area de exposiciones, salón de actos y aula.<br/><br/><h3>Horario del Centro de recursos Mocedá:</h3>El mismo que el del Conseyu de Mocedá de Xixón<br/><br/><span style="font-weight: bold;">Nota: </span>En exposiciones concretas el horario del Espaciu Astragal puede variar.","Avda. de Manuel Llaneza, 68","43.534431 -5.667998","Edificios Municipales, Servicios Municipales, Sala de Exposiciones, Servicios municipales, 2010, Gijón, Turismo, Administración, Cultura y Ocio, Turismo"
"http://www.gijon.es/directorios/show/3466-oficina-de-informacion-juvenil-oij","3466","es","fecha-actualizacion2014-01-22 12:03:20 +0100","http://www.gijon.es/data/images/f0/f3/30310/130x108_v1_c130x108_v1_DirectoriovariosFotowebOIJ5.jpg","Oficina de información Juvenil (OIJ)","985 181 000","985 347 291","oij@gijon.es","Lunes a viernes de 10 a 14 h. Martes y jueves de 17 a 19 h. Julio y agosto sólo mañanas.","Centro de Cultura Antiguo Instituto - C/Jovellanos, 21","43.541448 -5.662229","Servicios Municipales, Mediatecas, Turismo, Servicios municipales, Administración, Comunicaciones, Turismo"
"http://www.gijon.es/directorios/show/3462-02-cajero-ciudadano-piscina-el-llano","3462","es","fecha-actualizacion2016-01-19 13:57:41 +0100","02 Cajero Ciudadano - Piscina El Llano","https://sedeelectronica.gijon.es/page/7862-cajeros-ciudadanos","<div style="TEXT-ALIGN: justify"><p>Uno de los cajeros que integran la Red Municipal de Cajeros Ciudadanos donde puede acceder a diversos servicios en régimen de autoservicio.</p><p></p><p>Puede realizar, entre otros, los siguientes trámites: Pago de recibos municipales, alquiler de instalaciones deportivas, alquiler de locales de ensayo, obtención del volante del padrón, cambio del PIN de la tarjeta ciudadana, recarga de la tarjeta ciudadana, consulta de movimientos, pago del abono mensual, inscripción de cursos, consulta del censo electoral. <a href="../../../page/8076-servicios-disponibles">Catálogo completo de servicios de los cajeros ciudadanos</a>.</p></div>","43.527289 -5.661899","Cajeros Ciudadanos, Administración"
"http://www.gijon.es/directorios/show/3457-01-cajero-ciudadano-c-m-integrado-de-pumarin-gijon-sur","3457","es","fecha-actualizacion2016-01-19 13:58:27 +0100","01 Cajero Ciudadano - C. M. Integrado de Pumarín "Gijón-Sur"","https://sedeelectronica.gijon.es/page/7862-cajeros-ciudadanos","Abierto 24 horas (acceso con tarjeta ciudadana)","<div style="TEXT-ALIGN: justify">Uno de los cajeros que integran la Red Municipal de Cajeros Ciudadandos donde puede acceder a diversos servicios en régimen de autoservicio.<br/></div>","C/ Ramón Areces nº7","Cajeros Ciudadanos, Administración"
"http://www.gijon.es/directorios/show/3444-20-cajero-ciudadano-empresa-municipal-de-la-vivienda-s-l","3444","es","fecha-actualizacion2016-01-19 13:48:48 +0100","20 Cajero Ciudadano - Empresa Municipal de la Vivienda S. L.","https://sedeelectronica.gijon.es/page/7862-cajeros-ciudadanos","Abierto 24 horas (acceso con tarjeta ciudadana fuera del horario del centro)","<div style="TEXT-ALIGN: justify">Uno de los cajeros que integran la Red Municipal de Cajeros Ciudadandos donde puede acceder a diversos servicios en régimen de autoservicio. </div>","Cajeros Ciudadanos, Sede electrónica, Administración"
"http://www.gijon.es/directorios/show/3443-centro-municipal-integrado-de-el-llano","3443","es","fecha-actualizacion2016-06-06 14:06:54 +0200","http://www.gijon.es/data/images/f0/f4/42473/1776x846_v1_ElLlanoPG.JPG","Centro Municipal Integrado de El Llano","985 185 240","985 185 244","cmillano@gijon.es","http://www.gijon.es","Lunes a sábado: de 08:00 a 22:00h. Domingos de 8:00 a 15.00 horas. Cajero: 24h","<p align="justify">Es el equipamiento más moderno de la red de centros integrados. Fue inaugurado en el año 2007 tras seguir, en su diseño, las pautas sobre equipamientos de proximidad publicadas en los estudios de la fundación Kaleidos.Red, de la que le ayuntamiento de Gijón fue patrono fundador. Se situa en una área de reciente crecimiento y reforma urbana y atiende a una extensa zona muy poblada con los recursos más modernos, por ejemplo una gran ludoteca. Aunque ofrece servicios deportivos en su gran sala polivalente, no tiene una zona deportiva propiamente dicha pues, al otro lado de la calle, comparte espacio con una de las zona mejor equipadas, en instalaciones deportivas, de Gijón.</p><p align="justify">Dispone de: oficina de atención a la ciudadanía, Servicios Sociales, concejalía de distrito, salón de actos, sala de exposiciones, ludoteca, sala polivalente, aulas, taller de cocina, sala de estudio (120 puestos), biblioteca, mediateca y cajero ciudadano.</p><p align="center"><img src="/data/images/f0/f4/42473/700x333_v1_ElLlanoPG.JPG" alt="Fachada centro de El Llano" class="nicedit_sin-alinear magnify" height="333" width="700" width="700" height="333"/><br/></p><p><br/></p><p style="font-weight: bold;"><a href="http://issuu.com/agendasdeloscentrosintegrados/docs/red_de_centros_municipales_integrad" title="Ir a http://issuu.com/agendasdeloscentrosintegrados/docs/red_de_centros_municipales_integrad" rel="external">Espacios en el centro municipal integrado de El Llano (ver espacios).</a><br/></p><p></p><table><thead><tr><th style="text-align: center;">Espacio<br/></th><th style="text-align: center;">Puestos y aforo<br/></th></tr></thead><tbody><tr><td>Salón de Actos<br/></td><td style="text-align: right;">156<br/></td></tr><tr><td>Aulas 1 y 2<br/></td><td style="text-align: right;">18<br/></td></tr><tr><td>Aulas 3 y 4<br/></td><td style="text-align: right;">36<br/></td></tr><tr><td>Aula de cocina<br/></td><td style="text-align: right;">16<br/></td></tr><tr><td>Sala Polivalente<br/></td><td style="text-align: right;">350 m2<br/></td></tr><tr><td>Sala de estudio<br/></td><td style="text-align: right;">120<br/></td></tr><tr><td>Biblioteca<br/></td><td style="text-align: right;">Adultos:43<br/>Infantil:12<br/>Lectura de prensa:24<br/></td></tr><tr><td>Mediateca<br/></td><td style="text-align: right;">16<br/></td></tr><tr><td>Sala de exposiciones <br/>(Los patios interiores están <br/>habilitados para exponer)<br/></td><td style="text-align: right;">26 metros lineales<br/></td></tr><tr><td>Sala de reuniones (1 y 2)<br/></td><td style="text-align: right;">10 y 14<br/></td></tr><tr><td style="vertical-align: top;">Ludoteca<br/></td><td style="vertical-align: top; text-align: right;">40<br/></td></tr></tbody></table>","Calle Río de Oro, 37","Servicio Atención a la Ciudadanía, Edificios Municipales, Cajeros Ciudadanos, Servicios Municipales, Servicios Sociales, Mediatecas, Zona Wifi, Ludotecas, Bibliotecas, Teatro, Sala de Exposiciones, Otros Espacios Deportivos, Pabellones, Piscinas Municipales, Pistas Polideportivas, Aparcamientos, Establecimientos de Recarga del Monedero Transporte, Lineas de autobuses urbanos, Museos y salas de exposiciones, Centros culturales, Teatros, Aseos públicos, Otras salas de congresos, Administración, Comunicaciones, Cultura y Ocio, Deporte, Movilidad, Turismo"
"http://www.gijon.es/directorios/show/3229-albergue-juvenil-palacio-san-andres-de-cornellana-cerrado-temporalmente-por-reforma","3229","es","fecha-actualizacion2017-07-28 17:06:03 +0200","http://www.gijon.es/data/images/f0/f2/28667/169x133_v1_3084_11101110200694746.jpg","Albergue Juvenil Palacio San Andrés de Cornellana (Cerrado temporalmente por reforma)","+34 985 160 673","+ 34 984033668","info@alberguegijon.com","http://www.alberguegijon.com","<div style="text-align: justify;">El Albergue Juvenil se encuentra en el <span style="font-weight: bold;">barrio de Contrueces</span> y está casi en el límite de la zona urbana, facilitando así el disfrute tanto del Gijón rural como del urbano. Se encuentra en un <span style="font-weight: bold;">entorno tranquilo</span> pero a la vez muy cerca del centro de la ciudad, al que se puede acceder a pie o utilizando el transporte público o privado.<br/></div><br/><div style="text-align: justify;">Es un palacio de finales del S. XVII, remodelado en 1992 para su uso como albergue, conservando varios de sus elementos arquitectónicos singulares. Una nueva remodelación en el año 2001 amplía las <span style="font-weight: bold;">plazas del albergue a las 116</span> que posee en la actualidad, además de incorporar mejoras que lo convierten en un equipamiento turístico diferente e interesante para el usuario.<br/></div><br/><h3>Horario:</h3><div style="text-align: justify;">El albergue permanece <span style="font-weight: bold;">abierto las 24 horas del día</span>, así el usuario puede entrar y salir de el cuando lo necesite, siempre respetando el descanso del resto de personas alojadas y del horario de silencio que va desde las 0:00 horas hasta las 8:00 horas.<br/></div><br/><div style="text-align: justify;"><span style="font-weight: bold;">Horario comedor:</span> el desayuno se puede tomar de 8:00 a 9:30, la hora de la comida es de 13:00 a 14:30, y la de las cena de 20:00 a 21:30. <br/></div><br/><h3>Tipo de habitaciones:</h3><ul><li>20 habitaciones de 4 plazas con baño.</li><li>4 habitaciones individuales con baño.</li><li>1 habitación de 6 plazas.</li><li>1 habitación de 18 plazas.</li></ul><h3>Instalaciones:</h3><ul><li>Sala de estar, TV, video y sala de juegos.</li><li>Comedor para 80 personas.</li><li>Aulas polivalentes.</li><li>Zona lavado y secado de ropa.</li></ul><h3>Servicios:</h3><ul><li>Punto de información juvenil.</li><li>Ctro. iniciativas juveniles.</li><li>Escuela de formación para el tiempo libre.</li></ul><h3>Residencia de estudiantes:</h3><div style="text-align: justify;">Disponemos de un servicio especialmente destinado a estudiantes, con un ambiente idóneo y precios adaptados. 4 modalidades de alojamiento: Sólo alojamiento, alojamiento y desayuno, media pensión y pensión completa.<br/></div><br/><h3>Reservas:</h3>Descuentos para menores de 26 años en todas las modalidades de alojamiento.<br/><br/><h3>Tarjeta turística:</h3>Punto de venta Gijón Card.<br/><br/><h3>Accesibilidad:</h3><ul><li>Alta:<ul><li>Acceso</li><li>Cafetería</li><li>Restaurante</li><li>Baños</li></ul></li><li>Media:<ul><li>Movilidad interior</li><li>Habitaciones (4 adaptadas)</li></ul></li><li>Baja:<ul><li>Aseos</li></ul></li></ul><h3>Observaciones: </h3><div style="text-align: justify;">El baño accesible se halla en la zona nueva, mientras que las duchas situadas en la parte antigua no son accesibles. La habitación se considera practicable por disponer de poco espacio. Gravilla en camino de acceso.<br/></div><br/><br/><h3>Información sobre las salas del Albergue Juvenil Palacio San Andrés de Cornellana</h3><br/><table><thead><tr><th>Salas</th><th>Teatro</th><th>m<sup>2</sup></th><th>Altura</th></tr></thead><tbody><tr><td>Aula</td><td>50</td><td>57</td><td>5</td></tr><tr><td>Capilla</td><td>50</td><td>60</td><td>8</td></tr><tr><td>Comedor - estar<br/></td><td>120</td><td>130</td><td>5</td></tr></tbody></table>","Camino de los Caleros, s/n. Contrueces - 33209 Gijón","43.465332 -5.592878","Sin clasificar, Albergue, Alojamiento, Conexion WiFi, RDSI/Cable/ADSL, Parking gratuito, Lavanderia, Salas de reuniones, Zonas verdes, Edificios Municipales, Servicios Municipales, 2010, Turismo, Accesible, Administración"
"http://www.gijon.es/directorios/show/2759-recinto-ferial","2759","es","fecha-actualizacion2017-07-11 09:17:32 +0200","http://www.gijon.es/data/images/f0/f2/27954/475x300_v1_RecintoFerial.jpg","Recinto Ferial","+34 985 18 01 17","985 33 77 11","mariocueto@camaragijon.es","http://www.feriasturias.es","<div style="text-align: justify;">El Recinto Ferial, donde se levanta el Palacio de Congresos, es una externa zona de 160.000 m<sup>2</sup> que representa una transición entre el denso tejido urbano de Gijón y la belleza y la tranquilidad de los alrededores.<br/></div><br/><div style="text-align: justify;">Este recinto permite multiplicar la capacidad del Palacio de Congresos, logrando así una gran versatilidad y permitiendo la realización de congresos de gran amplitud.<br/></div><br/><div style="text-align: justify;">La renovación realizada en el primer semestre de 2006 ha traido consigo un nuevo Pabellón Central además de un nuevo diseño de la puerta principal de acceso al recinto con un nuevo edificio de oficinas y porche cubierto.<br/></div><br/><h3>Pabellones:</h3><span style="FONT-WEIGHT: bold">Información sobre los Pabellones del Recinto Ferial</span><br/><br/><table><thead><tr><th>Pabellones<br/></th><th>Superficie m<sup>2</sup><br/></th></tr></thead><tbody><tr><td>Pabellón de Asturias<br/></td><td>Sala 1 - 1.200<br/>Sala 2 - 1.200<br/>Sala 3 - 1.300</td></tr><tr><td>Pabellón de las Naciones<br/></td><td>3.000</td></tr><tr><td>Pabellón Central<br/></td><td>5.400</td></tr></tbody></table><br/><br/><h3>Otras instalaciones:</h3>Stands Versátiles en los alrededores del Palacio de Congresos.","Avda. Dr. Fleming, 481","43.538567 -5.63718","Empresas, Congresos, Centros de Congresos, Edificios Municipales, Administración, Club de Empresas de Turismo de Negocios"
"http://www.gijon.es/directorios/show/1908-biblioteca-municipal-de-vega-la-camocha","1908","es","fecha-actualizacion2014-01-22 12:03:10 +0100","http://www.gijon.es/data/images/f0/f3/31641/267x200_v1_B.Camochaext200.jpg","Biblioteca Municipal de Vega - La Camocha","985 18 17 92","bibliotecacamocha@gijon.es","http://www.bibliotecaspublicas.es/redgijon/index.jsp","De 9:00 a 20:00h. Julio y agosto de 9.00 a 15.00 h","C/Charles Chaplin, s/n. - 33350 - c/ Charles Chaplin, s/n   C.P. 33350","43.48751 -5.6516","Bibliotecas, 2010, Gijón, Cultura, Bibliotecas, Servicios Municipales, Administración, Cultura y Ocio"
"http://www.gijon.es/directorios/show/1828-oficina-de-atencion-al-ciudadano-en-el-edificio-administrativo-antiguo-hogar-casa-rosada","1828","es","fecha-actualizacion2015-05-12 13:38:28 +0200","Oficina de Atención al Ciudadano en el Edificio Administrativo Antiguo Hogar (Casa Rosada)","984491960","984 491 963","http://www.gijon.es","<p sizset="0" sizcache="1480"><span>Lunes a viernes: de 8:3</span><span>0 a 17:00 h. Julio y Agosto: Lunes a viernes: de 8:30 a14:00 h. Cajero: 24h</span></p>","Paseo de la Infancia, 2","43.538233 -5.665955","Servicios Municipales, Cajeros Ciudadanos, Mediatecas, Zona Wifi, Servicio Atención a la Ciudadanía, Administración, Comunicaciones"
"http://www.gijon.es/directorios/show/1826-parque-cientifico-tecnologico-de-gijon","1826","es","fecha-actualizacion2015-10-28 11:54:39 +0100","http://www.gijon.es/data/images/f0/f7/73569/4082x3007_v1_SMT_346-1.jpg","Parque Científico Tecnológico de Gijón","+34 984 84 71 00","985 091 213","innovacion@gijon.es","<div align="center"><img src="/data/images/f0/f7/73726/480x370_v1_peq1parquecientifytecno.jpg" alt="parque cientifico y tecnologico" class="nicedit_sin-alinear" height="370" width="480" width="480" height="370"/></div> <br/><br/><p><u><b>Información sobre las salas del Parque Científico Tecnológico de Gijón</b></u></p><table><thead><tr><th>Sala</th><th>Teatro <br/></th><th>Otras disposiciones<br/></th><th>m<sup>2</sup></th><th>Altura</th></tr></thead><tbody><tr><td>Salón de conferencias<br/></td><td>60</td><td><br/></td><td>107</td><td>3</td></tr><tr><td>Salón de juntas<br/></td><td><br/></td><td>25 (mesa)<br/></td><td>50</td><td>2,50</td></tr><tr><td>Cafetería comedor<br/></td><td><br/></td><td>60</td><td>94</td><td>3</td></tr></tbody></table>","C/ Los Prados, 166","Gijón, Servicios Municipales, Otras salas de congresos, Administración"
"http://www.gijon.es/directorios/show/1825-sala-de-tiro-con-arco-la-camocha","1825","es","fecha-actualizacion2014-01-22 12:03:09 +0100","http://www.gijon.es/data/images/f0/f4/48874/645x280_v1_Tiroconarco.jpg","Sala de Tiro con Arco La Camocha","mantenimiento.pdm@gijon.es","http://deporte.gijon.es/page/95-pagina-de-inicio","<a href="http://deporte.gijon.es/page/11880-horarios-de-apertura-de-las-instalaciones-deportivas" title="Ir a Horarios de apertura de las instalaciones deportivas" rel="external">Horarios generales de IDM</a>","<div style="text-align: center;"><img src="/data/images/f0/f4/48875/645x280_v1_saladetiroconarco2.jpg" alt="sala tiro con arco" class="nicedit_sin-alinear" width="645" height="280"/><br/></div>","C/La Camocha. <br/><span style="font-weight: bold;">Coordenadas:</span> W 5º 38' 51'' - N 43º 29' 20''","Otros Espacios Deportivos, Edificios Municipales, Administración, Deporte"
"http://www.gijon.es/directorios/show/1812-direccion-general-economico-financiera","1812","es","fecha-actualizacion2014-01-22 12:03:08 +0100","http://www.gijon.es/data/images/f0/f2/27123/113x150_v1_H.madrid.jpg","Dirección General Económico Financiera","985 185 171","985 181 397","Plaza Mayor, 2 - 1º (Edificio Antiguo Hotel Madrid)","43.54487 -5.662352","Servicios Municipales, 2010, Gijón, Administración"
"http://www.gijon.es/directorios/show/1809-centro-de-servicios-sociales-de-el-llano","1809","es","fecha-actualizacion2015-10-05 09:31:41 +0200","http://www.gijon.es/data/images/f7/7317/152x200_v1_DirectorioserviciosmunicipalesCentroMunicipalDelLLano.jpg","Centro de Servicios Sociales de El Llano","985 185 249","utsllano.fmss@gijon.es","http://sociales.gijon.es","Lunes a Viernes: de 9:00 a 14:00 h. Martes: de 15:30 a 17:00 h. Junio, julio,agosto y septiembre: lunes a viernes de 9:00 a 14:00 h. Asistente Social previa cita.","Servicios Sociales: Información y Tramitación de Prestaciones Sociales en General.","C/ Río de Oro, 37.","43.527098 -5.663581","Servicios Sociales, 2010, Gijón, Administración"
"http://www.gijon.es/directorios/show/1808-centro-de-servicios-sociales-de-el-natahoyo","1808","es","fecha-actualizacion2015-10-05 09:34:05 +0200","http://www.gijon.es/data/images/f0/f4/45486/1400x318_v1_Calendario2012web_septiembre.jpg","Centro de Servicios Sociales de El Natahoyo","984 491 969","utsnatahoyo.fmss@gijon.es","http://sociales.gijon.es","Lunes a Viernes: de 9:00 a 14:00 h. Martes: de 15:30 a 17:00 h. Junio, julio, agosto y septiembre: lunes a viernes de 9:00 a 14:00 h. Asistente Social previa cita.","Servicios sociales: Información y Tramitación de Prestaciones Sociales en General.","Avda. de Moreda, 11.","Servicios Sociales, 2010, Gijón, Administración"
"http://www.gijon.es/directorios/show/1807-centro-de-servicios-sociales-de-la-arena","1807","es","fecha-actualizacion2015-10-05 09:32:25 +0200","http://www.gijon.es/data/images/f7/7316/250x188_v1_Directoriobibliotecasarena.jpg","Centro de Servicios Sociales de La Arena","985 181 691","utsarena.fmss@gijon.es","http://sociales.gijon.es","Lunes a Viernes: de 9:00 a 14:00 h. Martes: de 15:30 a 17:00 h. Junio, julio,agosto y septiembre: lunes a viernes de 9:00 a 14:00 h. Asistente Social previa cita.","Servicios sociales:Información y Tramitación de Prestaciones Sociales en General","C/ Canga Argüelles, 16- 18.","43.538936 -5.650465","Servicios Sociales, 2010, Gijón, Administración"
"http://www.gijon.es/directorios/show/1806-biblioteca-municipal-del-poligono-de-pumarin","1806","es","fecha-actualizacion2014-01-22 12:03:08 +0100","http://www.gijon.es/data/images/f7/7315/250x200_v1_Directoriobibliotecaspumarin.jpg","Biblioteca Municipal del Polígono de Pumarín","985 185 127","<a title="Ir a bibliotecapoligono@gijon.es " href="http://bibliotecapoligono@gijon.es">bibliotecapoligono@gijon.es</a>","http://bibliotecas.gijon.es/","Lunes a viernes de 9.00 a 20.00 h. Julio y agosto 9.00 a 15.00 h","Ofrece diversos servicios y dispone de diferentes equipamientos tales como: <ul><li>Sala de lectura. </li><li>Sección adultos. <br/></li><li>Sección infantil y juvenil. <br/></li><li>Bebeteca. Sección Asturiana. <br/></li><li>Centros de interés: Informática y Novela por temas. <br/></li><li>Préstamo de libros, discos, revistas, cd-rom, vídeo y dvd. <br/></li><li>Prensa y revistas. <br/></li><li>Préstamo interbibliotecario. <br/></li><li>Información bibliográfica y de referencia. <br/></li><li>Actividades de animación a la lectura: Bebé cuentos, La hora de los cuentos, Club de lectura, Programa de formación en el uso de la biblioteca para escolares (cita previa concertada). <br/></li><li>1 sala de estudio. <br/></li><li>Consulta Catálogo Colectivo de la Red de Bibliotecas del Principado de Asturias. <br/></li><li>Consulta Red Municipal de Bibliotecas. <br/></li><li>Mediateca (8 puestos): acceso gratuito a Internet y cursos de formación digital.</li></ul>","Biblioteca del Polígono de Pumarín - C/Puerto de Piedrafita, 3 - C/Puerto de Piedrafita, 3 C.P. 33207","43.530073 -5.67527","Bibliotecas, 2010, Gijón, Servicios Municipales, Administración, Cultura y Ocio"
"http://www.gijon.es/directorios/show/1805-centro-de-servicios-sociales-de-el-coto","1805","es","fecha-actualizacion2015-10-05 09:34:32 +0200","http://www.gijon.es/data/images/f0/f3/35992/130x108_v1_CMIElCoto.jpg","Centro de Servicios Sociales de El Coto","985 181 740","utscoto.fmss@gijon.es","http://sociales.gijon.es","Lunes a Viernes: de 9:00 a 14:00 h. Martes: de 15:30 a 17:00 h. Junio, julio, agosto y septiembre: lunes a viernes de 9:00 a 14:00 h.Asistente Social previa cita.","Servicios Sociales: Información y Tramitación de Prestaciones Sociales en General.","Plaza de la República, s/n.","43.532251 -5.644991","Servicios Sociales, 2010, Gijón, Edificios Municipales, Administración"
"http://www.gijon.es/directorios/show/1804-centro-de-servicios-sociales-gijon-sur","1804","es","fecha-actualizacion2015-10-05 09:32:07 +0200","http://www.gijon.es/data/images/f0/f3/35995/130x108_v1_CMIGijonSur.jpg","Centro de Servicios Sociales Gijón-Sur","985 181 642","utsgijonsur.fmss@gijon.es","http://sociales.gijon.es","Lunes a Viernes: de 9:00 a 14:00 h. Martes: de 15:30 a 17:00 h. Junio, julio, agosto y septiembre: lunes a viernes de 9:00 a 14:00 h. Asistente Social previa cita.","Servicios sociales: Información y Tramitación de Prestaciones Sociales en General.","C/ Ramón Areces, 7.","43.524939 -5.678068","Servicios Sociales, 2010, Gijón, Edificios Municipales, Administración"
"http://www.gijon.es/directorios/show/1802-centro-de-servicios-sociales-de-la-calzada","1802","es","fecha-actualizacion2015-10-05 09:31:24 +0200","http://www.gijon.es/data/images/f0/f3/35993/130x108_v1_AteneoLaCalzada.jpg","Centro de Servicios Sociales de La Calzada","985 181 407","utscalzada.fmss@gijon.es","http://sociales.gijon.es","Lunes a Viernes: de 9:00 a 14:00 h. Martes: de 15:30 a 17:00 h. Junio, julio,agosto y septiembre: lunes a viernes de 9:00 a 14:00 h. Asistente Social previa cita.","C/ Ateneo Obrero de La Calzada, 1.","43.539241 -5.694659","Servicios Sociales, 2010, Gijón, Administración"
"http://www.gijon.es/directorios/show/1801-centro-municipal-de-apoyo-a-la-integracion","1801","es","fecha-actualizacion2014-01-22 12:03:08 +0100","Centro Municipal de Apoyo a la Integración","985 181 671","fmss@gijon.es","Centro de día que oferta actividades ocupacionales y educativas: talleres ocupacionales, aula educativa, servicio de transporte y comedor. Atiende a personas adultas con discapacidad intelectual, al término de la etapa escolar.","Avda. de Moreda, 11","43.514697 -5.626813","Servicios Sociales, 2010, Gijón, Administración"
"http://www.gijon.es/directorios/show/1796-centro-de-servicios-sociales-de-contrueces","1796","es","fecha-actualizacion2015-10-05 09:32:45 +0200","http://www.gijon.es/data/images/f0/f3/36007/130x108_v1_CSSContrueces.jpg","Centro de Servicios Sociales de Contrueces","985 181 524","utscontrueces.fmss@gijon.es","http://sociales.gijon.es","Lunes a Viernes: de 9:00 a 14:00 h. Martes: de 15:30 a 17:00 h. Junio, julio,agosto y septiembre: lunes a viernes de 9:00 a 14:00 h. Asistente Social previa cita.","C/ Río Narcea, 2.","43.521979 -5.66689","Servicios Sociales, 2010, Gijón, Administración"
"http://www.gijon.es/directorios/show/1789-laboral-culture-city","1789","es","fecha-actualizacion2017-07-24 13:31:12 +0200","http://www.gijon.es/data/images/f7/7306/200x150_v1_DirectorioMONUMENTOSunivlaboral.jpg","Laboral Culture City","+34 985 18 58 58","visitaslaboral@recrea.asturias.es","http://www.laboralciudaddelacultura.com","<div style="text-align: justify;">En el año 2001, el Gobierno del Principado de Asturias asume la gestión de La Laboral y decide dotar de nueva vida, usos y servicios al colosal edificio. Desde 2008 dispone de una amplia oferta de salas para actos empresariales, culturales y sociales. Espacios versátiles que permiten celebrar cada evento en un entorno único.<br/><br/><b>Dependencias:</b><br/>En un lugar privilegiado de la plaza se encuentra el Teatro, convertido en el de mayor capacidad de Asturias y que atestigua mejoras en el mobiliario y en las condiciones acústicas, incluidas durante el proceso de remodelación. A ello hay que sumarle las pintorescas salas, las de ensayo, de reunión, las congresuales y los espacios auxiliares. Todo ello pensado para albergar actividades formativas, culturales, seminarios, presentaciones, congresos, convenciones, jornadas de formación y todo tipo de banquetes, entre otros; proporcionando un marco exitoso a los organizadores de eventos.<br/><br/><br/></div><br/><br/><h4 style="font-weight: bold;">Descuento del 30% en visita guiada con la tarjeta turística Gijón Card</h4><br/><h3>Salas:</h3><span style="FONT-WEIGHT: bold">Información salas en el Teatro de la Laboral</span><br/><br/><table><thead><tr><th>Sala</th><th>Cóctel</th><th>Teatro</th><th>Escuela</th><th>m<sup>2</sup></th></tr></thead><tbody><tr><td>S1 Sala 1</td><td><br/></td><td>180<br/></td><td>95</td><td>185</td></tr><tr><td>S2 Sala 2</td><td><br/></td><td>230</td><td>150</td><td>243</td></tr><tr><td>SEA Sala Ensayos Amarilla</td><td><br/></td><td>40</td><td>25</td><td>58</td></tr><tr><td>SEN Sala Ensayos Naranja</td><td><br/></td><td>20</td><td>12<br/></td><td>28</td></tr><tr><td>SEAZ Sala Ensayos Azul</td><td><br/></td><td>120</td><td>80<br/></td><td>163<br/></td></tr><tr><td>Sala Pinturas</td><td>200</td><td>180</td><td><br/></td><td>219</td></tr><tr><td>Hall Sala Pinturas <br/></td><td>180</td><td>125</td><td><br/></td><td>230</td></tr><tr><td>Hall Teatro</td><td>350<br/></td><td><br/></td><td><br/></td><td>279</td></tr><tr><td>Teatro <br/></td><td><br/></td><td>1426</td><td><br/></td><td><br/></td></tr></tbody></table><br/><span style="FONT-WEIGHT: bold">Otros espacios</span><br/><br/><table><thead><tr><th>Espacio</th><th>Cóctel</th><th>Teatro</th><th>Escuela</th><th>m<sup>2</sup><br/></th></tr></thead><tbody><tr><td>Patio Corintio<br/></td><td>500</td><td><br/></td><td><br/></td><td>500</td></tr><tr><td>SA Sala Paraninfo<br/></td><td><br/></td><td>65</td><td>50</td><td>100</td></tr><tr><td>Paraninfo<br/></td><td><br/></td><td>155</td><td><br/></td><td>222</td></tr><tr><td>Plaza<br/></td><td><br/></td><td><br/></td><td><br/></td><td>7500</td></tr></tbody></table><br/><h3>Equipamiento:</h3>Consultar equipamiento de cada sala.<br/><br/><h3>Otras instalaciones:</h3>Sala de prensa, cafetería...","C/ Luis Moya Blanco, 261, 33203 - Gijón","43.524126 -5.61374","Ocio, Centros de Congresos, Gijón, Gijón Card, Gijón card. Tarjeta turística, Turismo responsable, Club de Empresas de Turismo de Negocios, Edificios Municipales, Teatro, Museos y salas de exposiciones, Centros culturales, Edificios y lugares de interés, Puntos de información turística, Parques y jardines, Teatros, Turismo, Administración, Cultura y Ocio, Turismo"
"http://www.gijon.es/directorios/show/1393-vigilancia-y-salvamento-playa-de-san-lorenzo","1393","es","fecha-actualizacion2015-05-29 12:04:11 +0200","http://www.gijon.es/data/images/f7/7005/250x91_v1_Directorioseguridadbeach_city.JPG","Vigilancia y Salvamento, Playa de San Lorenzo","985 181 746","<p><br/></p><p>A PARTIR DE 1 DE JUNIO LOS HORARIOS DEL SERVICIO DEVIGILANCIA Y SALVAMENTO EN PLAYAS SON:</p><p>SAN LORENZO DE 10:00 A 21:00 HORAS | PONIENTE Y ARBEYAL DE 12 A 20 HORAS.</p>","Paneles informativos en todos los accesos a la playa: Situación escalera 12, servicio de megafonía e información, Unidad de primeros auxilios(servicio médico y ambulancia).Codiciones de baño: Alto riesgo.Medidas de prevención.","Playa de San Lorenzo","43.540548 -5.64892","Protección Marítima, Servicios Municipales, Administración, Seguridad Ciudadana"
"http://www.gijon.es/directorios/show/1382-servicio-de-jardines","1382","es","fecha-actualizacion2014-03-27 11:49:13 +0100","http://www.gijon.es/data/images/f6/6998/250x333_v1_DirectorioserviciosmunicipalesUTJardines.jpg","Servicio de Jardines","985 181 285","985 175 699","ma@gijon.es","Lunes a Viernes: 9:00-14:00h.","Plaza Mayor, 2","Servicios Municipales, Administración"
"http://www.gijon.es/directorios/show/1381-unidad-tecnica-de-instalaciones","1381","es","fecha-actualizacion2014-01-22 12:02:55 +0100","Unidad Técnica de Instalaciones","985 181 137","Paseo de la Infancia s/n","Servicios Municipales, Administración"
"http://www.gijon.es/directorios/show/1362-tesoreria-general","1362","es","fecha-actualizacion2014-02-20 12:58:10 +0100","http://www.gijon.es/data/images/f6/6990/150x113_v1_DirectorioserviciosmunicipalesSTesoreriaMuni.jpg","Tesorería General","985 181 101","985 181 182","(Invierno)Lunes a Viernes: 9:00-17:00h. (Verano)Lunes a Viernes: 9:00-14:00h.","Es el Órgano encargado del manejo y custodia de fondos, de las funciones de recaudación, así como de la gestión de ingresos y la contabilidad, la administración y rentabilización de los excedentes líquidos y la concertación de operaciones de crédito.Se estructura en las siguientes unidades administrativas: Servicio de Tesorería, Servicio de Gestión de Ingresos y Sección de Contabilidad.","C/Cabrales, 2","43.544749 -5.661931","Servicios Municipales, Gijón, Administración"
"http://www.gijon.es/directorios/show/1351-divertia-gijon","1351","es","fecha-actualizacion2015-09-15 10:30:14 +0200","http://www.gijon.es/data/images/f0/f7/71385/150x150_v1_divertia.jpg","Divertia Gijón","985 182 929","turismogijon@gijon.info","De 9:00 a 14:00 h. de lunes a viernes.","Divertia Gijón S.A. es la empresa municipal que desde 2014 aglutina las áreas de Turismo, Festejos, Teatro Jovellanos, Festival Internacional de Cine y Jardín Botánico.<br/>Divertia tiene su sede en la Casa de la Palmera (c/ Cabrales, 82) y gestiona la mayoría de las actividades culturales y festivas de la ciudad, entre las que destacan el Antroxu, la Semana Grande, la Fiesta de la Sidra, los conciertos en diferentes espacios o toda la programación desarrollada en el Teatro Jovellanos.<br/>Asimismo, desde Divertia también se estructura la estrategia turística de la propia ciudad y otros espacios emblemáticos como el Jardín Botánico Atlántico.","Calle Cabrales nº 82 (Casa de la Palmera)","43.539652 -5.660024","Puntos de Inf. Turística, Servicios Municipales, Servicios municipales, Turismo, Administración, Turismo"
"http://www.gijon.es/directorios/show/1348-servicios-centrales-de-la-red-municipal-de-bibliotecas","1348","es","fecha-actualizacion2015-02-18 14:22:15 +0100","http://www.gijon.es/data/images/f7/7831/156x217_v1_servicios_centrales.jpg","Servicios Centrales de la Red Municipal de Bibliotecas","985 181 052/053","985 350 709","bibliotecacentral@gijon.es","Lunes a viernes de 9.00 a 14.00 hb","C/Jovellanos, 21","Servicios Municipales, Bibliotecas, Administración, Cultura y Ocio"
"http://www.gijon.es/directorios/show/1347-servicio-tecnico-de-urbanismo","1347","es","fecha-actualizacion2014-01-22 12:02:54 +0100","Servicio Técnico de Urbanismo","010 (llamadas desde Gijón) / 985 18 11 05 (llamadas de fuera de Gijón)","Lunes a Viernes: 12:00-14:00h.","Edificio de Servicios " Antiguo Hogar Materno e Infantil" - Paseo de la Infancia 2 - Planta 1ª","43.538357 -5.666072","Servicios Municipales, Administración"
"http://www.gijon.es/directorios/show/1345-servicio-de-sistemas-de-informacion","1345","es","fecha-actualizacion2015-05-12 13:10:28 +0200","http://www.gijon.es/data/images/f6/6978/202x303_v1_Directorioedificiosmunicipalesinfor.jpg","Servicio de Sistemas de Información","985 181 192","985 175 120","soporte@gijon.es","Cita previa","Plaza Mayor, 9","43.545161 -5.662701","Servicios Municipales, Zona Wifi, Administración, Comunicaciones"
"http://www.gijon.es/directorios/show/1343-servicio-de-planificacion-y-presupuestos","1343","es","fecha-actualizacion2014-01-22 12:02:54 +0100","http://www.gijon.es/data/images/f6/6976/150x113_v1_Directorioedificiosmunicipalesconsitorial.jpg","Servicio de Planificación y Presupuestos","985 181 222 /163","985 181 117","n@gijon.es","Cita previa","Plaza Mayor, 1","Servicios Municipales, Administración"
"http://www.gijon.es/directorios/show/1334-delegacion-de-urbanismoedificio-antiguo-hogar","1334","es","fecha-actualizacion2014-11-13 11:28:40 +0100","Delegación de Urbanismo<br/>Edificio &quot;Antíguo Hogar&quot;","En este edificio se ubican los siguientes servicios:<br/><ul><li><a href="http://www.gijon.es/page/12761-servicio-de-licencias-y-disciplina" title="Ir a Servicio de Licencias y Disciplina">Servicio Administrativo de Urbanismo.</a></li><li><a href="http://www.gijon.es/page/12762-servicio-administrativo-de-urbanismo" title="Ir a Servicio Administrativo de Urbanismo">Servicio de Licencias y Disciplina.</a></li><li><a href="http://www.gijon.es/page/12763-servicio-tecnico-de-urbanismo" title="Ir a Servicio Técnico de Urbanismo">Servicio Técnico de Urbanismo.</a></li></ul>","Paseo de la Infancia 2","43.538215 -5.665929","Servicios Municipales, Administración"
"http://www.gijon.es/directorios/show/1333-centro-de-servicios-sociales-de-la-zona-centro-edificio-gota-de-leche","1333","es","fecha-actualizacion2015-10-05 09:31:06 +0200","http://www.gijon.es/data/images/f6/6968/250x164_v1_DirectorioserviciosmunicipalesFMSS-gotaleche.jpg","Centro de Servicios Sociales de la Zona Centro (Edificio Gota de Leche)","985 182 820","utscentro.fmss@gijon.es","http://sociales.gijon.es","Lunes a Viernes: de 9:00 a 14:00 h. Martes: de 15:30 a 17:00 h. Junio, julio,agosto y septiembre: lunes a viernes de 9:00 a 14:00 h. Asistente Social previa cita.","Información y Tramitación de Prestaciones Sociales en General.","C/ Palacio Valdés, 2 (Plaza del Humedal).","43.539173 -5.666547","Servicios Sociales, Administración"
"http://www.gijon.es/directorios/show/1321-servicio-de-trafico-y-regulacion","1321","es","fecha-actualizacion2015-01-23 10:43:20 +0100","http://www.gijon.es/data/images/f6/6957/250x188_v1_DirectorioserviciosmunicipalesS-traficoregulacion.jpg","Servicio de Tráfico y Regulación","985 181 551","985 181 549","Lunes a Viernes: 9:00-14:00h.","Avda. de Hermanos Felgueroso, 26","43.535197 -5.658761","Tráfico, Servicios Municipales, Administración, Seguridad Ciudadana"
"http://www.gijon.es/directorios/show/1315-delegacion-de-urbanismounidad-de-integracion-corporativa","1315","es","fecha-actualizacion2014-11-13 12:00:20 +0100","Delegación de Urbanismo<br/>Unidad de Integración Corporativa","En este local se ubica la <a href="http://www.gijon.es/page/12765-seccion-de-integracion-corporativa" title="Ir a Sección de Integración Corporativa">Unidad de Integración Corporativa.</a>","Calle Instituto, 16 Bajo Izda","Servicios Municipales, Administración"
"http://www.gijon.es/directorios/show/1303-seccion-de-control-de-gestion","1303","es","fecha-actualizacion2014-01-22 12:02:53 +0100","http://www.gijon.es/data/images/f6/6943/150x113_v1_Directorioedificiosmunicipalesconsitorial.jpg","Sección de Control de Gestión","985 181 222 /163","985 181 117","Cita previa","Plaza Mayor, 1","Servicios Municipales, Administración"
"http://www.gijon.es/directorios/show/1278-punto-limpio-de-roces-centro-de-recogidas-especiales","1278","es","fecha-actualizacion2014-01-22 12:02:52 +0100","http://www.gijon.es/data/images/f6/6929/245x235_v1_Directorioserviciosmunicipales018.jpg","Punto Limpio de Roces. Centro de recogidas especiales","985 14 14 14","emulsa@emulsa.org","Lunes a Viernes: 8:15-20:00h. Sábados: 8:15-18:00h.","Depósito gratuito y limitado de: escombros de particulares, podas, céspedes, vegetales, muebles, aceites, férricos, papel, cartón, vidrio, envases, pilas, neumáticos, medicamentos, disolventes, frigoríficos, alquitranes y fluorescentes.","Ctra. Carbonera, 98 (Roces) - Ctra. Carbonera, 98 (Entrada por Camino de La Nozaleda)","43.514973 -5.681431","Servicios Municipales, Puntos Limpios, Administración, Medio Ambiente"
"http://www.gijon.es/directorios/show/1277-punto-limpio-de-somio","1277","es","fecha-actualizacion2014-01-22 12:02:52 +0100","http://www.gijon.es/data/images/f0/f3/37216/258x184_v1_pl_somio.png","Punto Limpio de Somió","985 14 14 14"," ","emulsa@emulsa.org","Lunes a Viernes: 9:00-14:00h. y 16:00-19:30h. <br/>Sábados: 10:00 a 14:00 y 16:00 a 18:15 horas<br/><br/><span style="font-weight: bold;"> AGOSTO CERRADO</span>","Depósito gratuito y limitado de: escombros de particulares, podas, céspedes, vegetales, muebles, aceites, férricos, papel, cartón, vidrio, envases, pilas, neumáticos, medicamentos, disolventes, frigoríficos, alquitranes y fluorescentes.","Ctra. Piles-Infanzón. (Aparcamiento Feria de Muestras)","43.541705 -5.636802","Servicios Municipales, Puntos Limpios, Administración, Medio Ambiente"
"http://www.gijon.es/directorios/show/1276-punto-limpio-de-la-calzada","1276","es","fecha-actualizacion2015-06-02 08:35:19 +0200","http://www.gijon.es/data/images/f6/6928/250x167_v1_Directorioserviciosmunicipalespuntocalzada.jpg","Punto Limpio de La Calzada","985 14 14 14","emulsa@emulsa.org","Lunes a Viernes: 9:00-14:00h. y 16:00-19:30h. Sábados: 10:00-14:30h.","Depósito gratuito y limitado de: podas, céspedes, vegetales, muebles, aceites, férricos, papel, cartón, vidrio, envases, pilas, neumáticos, medicamentos, disolventes, frigoríficos, alquitranes y fluorescentes.","C/Simón Bolívar, s/n. (esquina Juan Carlos I)","43.535618 -5.700027","Servicios Municipales, Puntos Limpios, Administración, Medio Ambiente"
"http://www.gijon.es/directorios/show/1267-policia-local-centralita","1267","es","fecha-actualizacion2014-09-01 15:23:36 +0200","http://www.gijon.es/data/images/f6/6921/250x188_v1_Directorioserviciosmunicipalespolicialocal-centralita.jpg","Policía Local/Centralita","985 181 100 ,  092","985 181 534","http://www.gijon.es","Abierto 24h.","C/San José, 2","43.535219 -5.658692","Policía, Servicios Municipales, Zona Wifi, Seguridad, Administración, Comunicaciones, Seguridad Ciudadana, Turismo, Gijón con Calidad"
"http://www.gijon.es/directorios/show/1006-policia-local-trafico","1006","es","fecha-actualizacion2015-05-12 13:42:49 +0200","http://www.gijon.es/data/images/f6/6814/282x212_v1_DirectorioseguridadCcis-1.jpg","Policía Local - Tráfico","985 181 100 /092","985 181 534","Lunes a Viernes: 9:00-14:00h.","Tramites:Pago de recibos municipales,alquiler de locales de ensayo,adquisición de tarjeta transporte,entrada a la ludoteca,servicio del centro médico deportivo,volante del padrón,olvido/cambio del PIN de la tarjeta ciudadana,recarga,consulta de movimientos,abono mensual,reserva de instalaciones deportivas,inscripción de cursos y consulta del censo electoral.","C/San José, 2","43.535176 -5.658723","Servicios Municipales, Cajeros Ciudadanos, Policía, Zona Wifi, Administración, Comunicaciones, Seguridad Ciudadana"
"http://www.gijon.es/directorios/show/1003-oficina-proyecto-urban","1003","es","fecha-actualizacion2017-02-08 16:50:29 +0100","Oficina Proyecto Urban","urban@gijon.es","Servicios Municipales, Administración"
"http://www.gijon.es/directorios/show/1002-oficina-de-normalizacion-llinguistica","1002","es","fecha-actualizacion2017-05-08 14:01:15 +0200","http://www.gijon.es/data/images/f6/6811/250x333_v1_DirectorioserviciosmunicipalesCC-antinstituto.jpg","Oficina de Normalización Llingüística","985 181 389","llinguaasturiana@gijon.es","Llunes a Vienres: 9:00-14:00h.","C/Xovellanos, 21","43.541475 -5.662253","Servicios Municipales, Administración"
"http://www.gijon.es/directorios/show/999-centro-municipal-de-empresas-de-gijon","999","es","fecha-actualizacion2017-02-08 18:01:43 +0100","http://www.gijon.es/data/images/f0/f9/92190/1204x1204_v1_01_impulsacuadrado-2.jpg","Centro Municipal de Empresas de Gijón","984 84 71 00","985 308 228","impulsa@gijon.es","http://impulsa.gijon.es","El Centro Municipal de Empresas de Gijón S.A. nace en el año 1992 como instrumento para facilitar la aparición y consolidación de nuevas iniciativas económicas en el Concejo de Gijón, utilizando para ello las antiguas instalaciones de la fábrica de Cristasa en La Calzada. Su misión es facilitar la generación, desarrollo y consolidación de iniciativas empresariales, que contribuyan a la creación de empleo estable y bienestar en nuestra ciudad. Al mismo tiempo, satisfacer las expectativas del Ayuntamiento de Gijón y de nuestros/as trabajadores/colaboradores, y que todo ello redunde en contribuir a la mejora de la calidad de vida de los ciudadanos/as de nuestro municipio.","Avda de la Argentina, 132 33213 - Gijón","43.538493 -5.704855","2010, Gijón, Servicios Municipales, Administración"
"http://www.gijon.es/directorios/show/998-oficina-de-politicas-de-igualdad","998","es","fecha-actualizacion2014-01-22 12:02:46 +0100","http://www.gijon.es/data/images/f6/6808/250x188_v1_DirectorioserviciosmunicipalesCMI-arena.jpg","Oficina de Políticas de Igualdad","985 181 627   /30/31","985 181 636","oficinaigualdad@gijon.es","http://igualdad.gijon.es/","Lunes a Viernes:9:00-14:00h.","<p style="text-align: justify;">La Oficina de Políticas de Igualdad delAyuntamiento de Gijón, es el Organismo Municipal encargado de poner en marchaactuaciones, dirigidas a promocionar la igualdad efectiva entre mujeres yhombres. Teniendo como marco la Ley orgánica 3/2007 “Ley orgánica para laIgualdad efectiva de Mujeres y Hombres” en vigor desde el 24 de marzo de 2007,que implica el reconocimiento de nuevos derechos para unas y otros en materiade igualdad.</p><div style="text-align: justify;"></div><p style="text-align: justify;">Está ubicada en la Casa de Encuentro de lasMujeres y es sede del Consejo de Asociaciones de Mujeres de la ciudad.</p><div style="text-align: justify;">Los programas que se ponen en marcha, desde la Oficina de Políticas deIgualdad, tienen como objetivo erradicar toda discriminación por razón de sexo,prevenir y sensibilizar para la erradicación de la violencia de género,fomentar la participación social de las mujeres, promoción de la salud, yacciones de formación desde la infancia desarrollando el programa Educarpara la Igualdad desde la colaboración con los Centros escolares de infantil,primaria, secundaria y bachillerato.</div>","Centro Municipal integrado La Arena - C/Canga Argüelles, 16-18 - 33202 Gijón (Asturias)","Servicios Municipales, Administración"
"http://www.gijon.es/directorios/show/995-oficina-municipal-de-informacion-a-inmigrantes-omii","995","es","fecha-actualizacion2016-05-17 14:48:40 +0200","http://www.gijon.es/data/images/f0/f7/74024/130x108_v1_CMNatahoyo.jpg","Oficina Municipal de Información a Inmigrantes (OMII)","985 14 15 05 / 985 18 29 92","inmigracion.fmss@gijon.es","http://inmigrante.gijon.es","<p>De lunes a viernes, de 09:00 a 17:00 h. | Julio y agosto, de 9:00 a 14:00 h.<br/></p>","<p align="justify">Servicio de orientación e información dirigido a personas inmigrantes y a personas interesadas en la temática de la inmigración. Dentro de su actividad explica los recursos públicos y privados existentes en el ámbito local. Asimismo, realiza tareas de asesoramiento e información en diferentes áreas (administrativa, sanitaria, vivienda, empleo, formación, etc.) y a distintos colectivos (personas empresarias y empleadoras, personas voluntarias, entidades sociales, etc).</p>","Centro Municipal de El Natahoyo, C/ La Estrella, s/n (esq. con Avda. Galicia).","43.530909 -5.665037","Servicios Sociales, Administración, Inmigrante, Servicios Sociales, Servicios Municipales"
"http://www.gijon.es/directorios/show/989-servicio-de-mercados-y-consumo-oficina-de-informacion-al-consumidor","989","es","fecha-actualizacion2016-10-07 14:19:03 +0200","http://www.gijon.es/data/images/f6/6802/250x188_v1_DirectorioserviciosmunicipalesOI-consumidor.jpg","Servicio de Mercados y Consumo (Oficina de Información al Consumidor)","985 181 356/985 181 357","985 181 182","consumo@gijon.es","http://www.gijon.es","10 a 14 horas de lunes a viernes<br/><br/><u><b><br/></b></u>","<div style="text-align: justify;">Informa, ayuda y orienta a consumidores y usuarios para el adecuado ejercicio de sus derechos. Puede realizar la mediación entre los consumidores y empresas o comerciantes cuando el asunto objeto de denuncia o controversia facilite la adopción de un acuerdo. A través de la Junta Arbitral Municipal de Consumo se pueden atender reclamaciones de consumidores frente a empresas adheridas voluntariamente al sistema arbitral. Se tramitan expedientes sancionadores por infracciones en materia de consumo. Realiza campañas divulgativas de interés al consumidor, así como acciones formativas de escolares y ciudadanos en general. Gestiona con carácter general la venta ambulante en Gijón. <br/></div>","Servicios Municipales, Servicios municipales, Turismo, Administración, Turismo"
"http://www.gijon.es/directorios/show/985-oficina-de-atencion-a-la-ciudadania-centro-municipal-integrado-de-pumarin-gijon-sur","985","es","fecha-actualizacion2016-06-06 10:50:59 +0200","http://www.gijon.es/data/images/f6/6798/250x333_v1_DirectorioserviciosmunicipalesOAC-gijonsur.jpg","Oficina de atención a la ciudadanía. Centro Municipal Integrado de Pumarín - Gijón Sur","985 181 642","985 181 639","http://www.gijon.es","Invierno: Lunes a Viernes: 8:30-17:00h. Sábados de 9:00 a 13:00 h. Verano (julio y agosto) Lunes a Viernes: 8:30-14 y sábados de 9:00 a 13:00 horas.","C/Ramón Areces, 7","Servicios Municipales, Servicio Atención a la Ciudadanía, Administración"
"http://www.gijon.es/directorios/show/984-oficina-de-atencion-a-la-ciudadania-centro-municipal-integrado-de-el-coto","984","es","fecha-actualizacion2016-06-06 10:52:54 +0200","http://www.gijon.es/data/images/f6/6797/250x188_v1_DirectorioserviciosmunicipalesOAC-coto.jpg","Oficina de atención a la ciudadanía. Centro Municipal Integrado de El Coto.","985 181 703","<span>985<span id="dtx-highlighting-item" backgroundcolor="lime"> 13</span>2 299</span>","http://www.gijon.es","<span sizset="0" sizcache="1453">Invierno: Lunes a viernes: de 8:30 a 17:00h. Verano (Julio y Agosto): Lunes a viernes: De 8:30 a 14:00 h.</span>","Plaza de la República, s/n.","43.523306 -5.640077","Servicios Municipales, Servicio Atención a la Ciudadanía, Administración"
"http://www.gijon.es/directorios/show/983-oficina-de-atencion-a-la-ciudadania-centro-municipal-integrado-ateneo-de-la-calzada","983","es","fecha-actualizacion2016-06-06 10:53:11 +0200","http://www.gijon.es/data/images/f6/6796/250x333_v1_DirectorioserviciosmunicipalesOAC-ateneo.jpg","Oficina de atención a la ciudadanía. Centro Municipal Integrado Ateneo de La Calzada.","985 181 405","985 301 198","http://www.gijon.es","Invierno: Lunes a Viernes: 8:30-17:00h. y sábados de 9:00 a 13:00 h. Verano (julio y agosto) Lunes a Viernes: 8:30-14:00. Sábados 9:00-13:00 h.","C/Ateneo Obrero de la Calzada, 1","Servicios Municipales, Servicio Atención a la Ciudadanía, Administración"
"http://www.gijon.es/directorios/show/982-oficina-de-atencion-a-la-ciudadania-centro-municipal-integrado-de-l-arena","982","es","fecha-actualizacion2016-06-06 10:52:07 +0200","http://www.gijon.es/data/images/f6/6795/340x255_v1_DirectorioserviciosmunicipalesOficinarena.jpg","Oficina de atención a la ciudadanía. Centro Municipal Integrado de L'Arena.","985 181 617","985 181 618","Invierno: Lunes a Viernes: 8:30-17:00h. Verano (julio y agosto) Lunes a Viernes: 8:30-14:00h.","C/Canga Argüelles, 16-18","Servicios Municipales, Servicio Atención a la Ciudadanía, Administración"
"http://www.gijon.es/directorios/show/981-oficina-de-atencion-a-la-ciudadania-en-el-centro-municipal-integrado-de-el-llano","981","es","fecha-actualizacion2016-06-06 10:52:34 +0200","http://www.gijon.es/data/images/f6/6794/152x200_v1_DirectorioserviciosmunicipalesCentroMunicipalDelLLano.jpg","Oficina de atención a la ciudadanía en el Centro Municipal Integrado de El Llano","985 185 243","985 185 244","http://www.gijon.es","Invierno: Lunes a Viernes: 8:30-17:00h. -Verano (julio y agosto) Lunes a viernes: 8:30-14:00h.","C/Río de Oro, 37","Servicios Municipales, Servicio Atención a la Ciudadanía, Administración"
"http://www.gijon.es/directorios/show/980-oficina-central-de-atencion-al-ciudadano","980","es","fecha-actualizacion2014-01-22 12:02:46 +0100","http://www.gijon.es/data/images/f6/6793/200x150_v1_DirectorioserviciosmunicipalesMvc-32f.jpg","Oficina Central de Atención al Ciudadano.","985 181 105","985 181 182","http://www.gijon.es","<span>Lunes a viernes: De 8:30 a17:00 h. Sábados: De 9:00 a<span id="dtx-highlighting-item" backgroundcolor="lime"> 13</span>:00 h. Julio y Agosto: Lunes a viernes: De 8:30 a 14:00 h. Sábados: De 9:00 a<span id="dtx-highlighting-item" backgroundcolor="lime">13</span>:00 h.</span>","C/Cabrales, 2","Lineas de autobuses urbanos, Piscinas Municipales, Servicios Municipales, Edificios Municipales, Mediatecas, Servicio Atención a la Ciudadanía, Administración, Comunicaciones, Deporte, Movilidad"
"http://www.gijon.es/directorios/show/879-infogijon-piles","879","es","fecha-actualizacion2014-01-22 12:02:43 +0100","http://www.gijon.es/data/images/f6/6722/250x242_v1_DirectorioinfogijonINFO-escalera15.jpg","Infogijón Piles","985 341 771","infogijon@gijon.info","(1 Julio al 30 Septiembre)Lunes a Domingo: 10:00-14:00h. y 16:00-20:00h.","Actividad: Proporciona información regional  (información turística local y regional)y visitas guiadas (por la ciudad y por el concejo en español, inglés y francés).Otros Servicios: Venta de La Gijón Card y Merchand - Gijón y gestión de reservas en hoteles de la ciudad.Sellos de calidad: ISO 9001:2000, SICTED, Calidad con una sonrisa, Q y calidad turística.Otros puntos de información: Escalerona: Escalera 4 Playa de San Lorenzo.Campinos: Plaza Campinos de Begoña.Puerto Deportivo: Espigón central. Accesibilidad: Accesos y movilidad interior.Observaciones: Personal con formación en lenguaje de signos español.","Puente del Piles - Escalera nº 15 de la Playa de San Lorenzo","43.540126 -5.644878","Puntos de Inf. Turística, Servicios Municipales, Administración, Turismo"
"http://www.gijon.es/directorios/show/878-infogijon-puerto-deportivo","878","es","fecha-actualizacion2017-07-11 12:17:33 +0200","http://www.gijon.es/data/images/f6/6721/250x188_v1_DirectorioinfogijonINFO-poniente.jpg","Infogijón Puerto Deportivo","985 341 771","infogijon@gijon.info","Actividad:Información turística local y regional, información e inscripción sobre visitas guiadas ofertadas en la ciudad, venta merchand Gijón, venta de productos y servicios turísticos: Gijón Card, Gijón Goloso, Bus Turístico, … Otros Servicios: Gestión de reservas en hoteles de la ciudad. Servicio i-Postal, terminal desde el que se puede enviar e-mail con foto, valorar el Servicio de Información, realizar quejas y/o sugerencias e inscribirse al boletín turístico para recibir información de Gijón.  <br/>Sellos de calidad: SICTED, Calidad con una sonrisa, Q  calidad turística norma UNE 187003.Otros puntos de información: Escalerona: Escalera 4 Playa de San Lorenzo. <br/> Accesibilidad: Accesos y movilidad interior.Observaciones: Personal con formación en lenguaje de signos español.","C/ Rodriguez San Pedro (Espigón Central de Fomento)","43.544038 -5.667014","Puntos de Inf. Turística, Servicios Municipales, Gijón Card, Gijón con Calidad, Biosphere, Administración, Turismo, Gijón accesible, Turismo responsable"
"http://www.gijon.es/directorios/show/877-infogijon-escalerona","877","es","fecha-actualizacion2017-02-08 08:08:27 +0100","http://www.gijon.es/data/images/f6/6720/250x188_v1_Directorioinfogijonescalerona.jpg","Infogijón Escalerona","985 341 771","infogijon@gijon.info","Actividad: Información turística local y regional, información e inscripción sobre visitas guiadas ofertadas en nuestra ciudad, venta de merchand Gijón,venta de productos y servicios turísticos:Gijón Card, Gijón Goloso, bus turístico...Otros Servicios: Gestión de reservas en hoteles de la ciudad .<br/>Sellos de calidad:  SICTED, Calidad con una sonrisa, Q  calidad turística norma UNE 187003.Otros puntos de información: Puerto Deportivo: Espigón central.","Playa de San Lorenzo. Escalera 4","43.54241 -5.659729","Puntos de Inf. Turística, Servicios Municipales, Gijón Card, Gijón con Calidad, Administración, Turismo, Biosphere"
"http://www.gijon.es/directorios/show/775-gijon-convention-bureau-oficina-de-congresos-de-gijon","775","es","fecha-actualizacion2014-09-01 14:48:19 +0200","Gijón Convention Bureau (Oficina de Congresos de Gijón)","+ 34 985 180 153","+ 34 985 180 177","congresos@gijon.info","http://congresos.gijon.es/","Lunes a jueves: 9:00-14:00h y 16:00-18:00h. Viernes: 8:00-15:00h.","<div style="text-align: justify;"><div style="text-align: justify;">Es una herramienta comercial de la ciudad, muy profesionalizada, que funciona como “ventanilla única” para los promotores de congresos, de reuniones, de eventos. Para quienes por su prestigio profesional, por pertenecer a sociedades científicas, profesionales, de ámbito nacional o internacional tienen la capacidad de convocar el encuentro anual o periódico de su especialidad.<br/></div> <br/><ul><li>Un único teléfono de contacto!</li></ul><ul><li>Una única dirección de correo electrónico!</li></ul><ul><li>Una sencilla página web le permiten:</li></ul><ol><li> Obtener información objetiva sobre la oferta pública y privada de Gijón y su territorio de influencia.</li><li style="text-align: justify;">Ponerse en contacto con los apoyos institucionales del Ayuntamiento de Gijón y con las personas clave de las cerca de 120 empresas miembro que proporcionaran a la reunión todos los servicios especializados necesarios.</li><li style="text-align: justify;">Estar acompañado, según las necesidades, durante todo el proceso de organización del encuentro: conseguirlo, difundirlo, gestionarlo…<br/></li></ol></div>","Paseo del Doctor Fleming, 481 (Recinto Ferial Luis Adaro)","43.537746 -5.637445","Servicios Municipales, Administración, Gijón con Calidad"
"http://www.gijon.es/directorios/show/728-fundacion-municipal-de-cultura-educacion-y-universidad-popular","728","es","fecha-actualizacion2015-11-27 09:34:34 +0100","http://www.gijon.es/data/images/f6/6640/250x333_v1_DirectorioserviciosmunicipalesCC-antinstituto.jpg","Fundación Municipal de Cultura, Educación y Universidad Popular","985 181 001","985 350 709","http://cultura.gijon.es/","Lunes a Jueves: 9:00-22:00h.Sábados: 10:00-14:00h. y 16:00-21:00h.Domingos: 10:00-14:00h.","<p>El Ayuntamiento de Gijón gestiona sus servicios culturales, principalmente desde la Fundación Municipal de Cultura, Educación y Universidad Popular que depende de la Concejalía de Educación y Cultura.<br/></p><p>Desde su creación en 1982, es el organismo autónomo encargado de la gestión de los programas, servicios y equipamientos culturales y educativos encomendados por las distintas corporaciones municipales del Ayuntamiento de Gijón. Sus objetivos de trabajo se fijan teniendo en cuenta los estatutos de la entidad y las directrices y programas políticos que se establecen en cada legislatura y que a su vez son aprobados con carácter anual por la Junta Rectora.</p><p>Para ello cuenta con una importante red de equipamientos culturales de distinta índole cuyo fin último es facilitar el acceso a la cultura de todos los ciudadanos. Los equipamientos culturales de Gijón constan de una Red Municipal de Museos, Red Municipal de Bibliotecas, Centro de Cultura Antiguo Instituto, Red de Centros Municipales Integrados y otros centros especializados como el Centro de Estampación Litografía Viña o el Centro Manuel Medina como espacio de ensayo para diferentes tipos de artistas.</p>","C/Jovellanos, 21. CP:33201","43.541732 -5.661309","Servicios Municipales, 2010, Gijón, Galerías de Arte, Museos, Ocio, Teatro, Sala de Exposiciones, Otros Recursos Educación, Establecimientos de Recarga del Monedero Transporte, Lineas de autobuses urbanos, Cultura, Educación, Administración, Cultura y Ocio, Educación, Movilidad"
"http://www.gijon.es/directorios/show/715-la-casa-de-la-palmera","715","es","fecha-actualizacion2015-08-31 15:15:18 +0200","http://www.gijon.es/data/images/f6/6633/214x298_v1_DirectorioserviciosmunicipalesLaCasaDeLaPalmera.jpg","La Casa de la Palmera","985 182 929","985 182 939","info@teatrojovellanos.com","<p>Abundante decoración en piedra con temas florales en entrepaños. Chalet de la calle Cabrales, 82. Sede de Divertia Gijón, S.A. </p><p> </p>","C/Cabrales, 82 (Casa de la Palmera)","43.539597 -5.659979","Monumentos, Servicios Municipales, Administración, Cultura y Ocio"
"http://www.gijon.es/directorios/show/582-equal-corredor-siderurgico","582","es","fecha-actualizacion2017-02-08 16:56:12 +0100","http://www.gijon.es/data/images/f6/6513/250x260_v1_Directoriovariosequalcorredor.JPG","Equal Corredor Siderúrgico","43.538765 -5.704841","Servicios Municipales, 2010, Gijón, Administración"
"http://www.gijon.es/directorios/show/579-emtusa-empresa-municipal-de-transportes-urbanos-s-a","579","es","fecha-actualizacion2017-01-24 08:38:34 +0100","http://www.gijon.es/data/images/f0/f3/35748/285x123_v1_emtusa.jpg","EMTUSA, Empresa Municipal de Transportes Urbanos S.A.","Atención al Cliente 985 181 080; Centralita 985 181 090 <span style="font-weight: bold;"><br/></span>","usuarios.emtusa@gijon.es","http://bus.gijon.es","Atención al cliente: Lunes a Viernes de 8:00 a 15:00 ","<div style="text-align: justify;">La Empresa Municipal de Transportes Urbanos de Gijón S.A. (EMTUSA) es la encargada de gestionar el servicio público de autobuses en Gijón. Atiende a una población de aproximadamente 280.000 habitantes, repartida en un territorio que supera los 160 kilómetros cuadrados. Hoy por hoy -registrando una media anual de 19 millones de viajeros- EMTUSA mantiene un total de 20 líneas regulares, entre las que se encuentran cuatro de transporte nocturno (Búhos) que funcionan todo el año durante las noches de los viernes y sábados, y diariamente durante los meses de julio y agosto.<br/><br/><h4 style="font-weight: bold;">Transporte gratuito con la tarjeta turística Gijón Card</h4></div>","Avda. Transporte, 6. Polígono Campones. 33211. Gijón.","43.530575 -5.701856","Servicios Municipales, 2010, Gijón, Servicios municipales, Turismo, Edificios Municipales, Establecimientos de Recarga del Monedero Transporte, Lineas de autobuses urbanos, 2011, Gijón Card, Administración, Movilidad, Turismo"
"http://www.gijon.es/directorios/show/578-empresa-municipal-de-servicios-de-medio-ambiente-urbano-de-gijon-s-a-emulsa","578","es","fecha-actualizacion2014-02-05 14:17:55 +0100","http://www.gijon.es/data/images/f0/f3/37275/194x205_v1_pequeno_2.png","Empresa Municipal de Servicios de Medio Ambiente Urbano de Gijón, S.A.  (EMULSA)","985 14 14 14","985 18 14 95","emulsa@emulsa.org","http://cuidadoambiental.gijon.es","Lunes a Viernes: 8:00-15:00h.","<p>EMULSA Medioambiente es una Sociedad Anónima que realiza lassiguientes actividades:</p><ul><li> La Higiene Urbana del municipio de Gijón y la gestiónintegral de los Residuos Sólidos Urbanos, así como la regulación de la forma deprestar estos servicios y las disposiciones que son de obligado cumplimientopara toda la ciudadanía.</li><li>La Limpieza de Colegios y Edificios Públicos establecidosen el Concejo, si así se lo encomienda el Ayuntamiento de Gijón.</li><li>El Mantenimiento y Conservación de los Parques, Jardines yZonas Verdes Urbanas, siempre que el Ayuntamiento así lo establezca.</li><li>La Señalización Vial Vertical y Horizontal y sumantenimiento, así como las actividades relacionadas con el tráfico urbano quele sean encomendadas por el Ayuntamiento.</li></ul>","Ctra. Carbonera 98, 33211 Gijón","43.514627 -5.678937","Servicios Municipales, Gijón, Edificios Municipales, Otros Recursos Educación, Medio Ambiente, Administración, Educación"
"http://www.gijon.es/directorios/show/577-empresa-municipal-de-la-vivienda-s-l","577","es","fecha-actualizacion2017-06-23 10:48:56 +0200","Empresa Municipal de la Vivienda, S.L.","985 18 28 00","985 182 818","emvisa@gijon.es","vivienda.gijon.es","<p><strong>Todo el año</strong> de Lunes a Viernes: 9:00-14:00h. </p><p><strong>Meses de Octubre a Mayo</strong> Martes de 14:00h a 17:00h</p><p> </p>","CIF B-33821463 La Empresa Municipal de la Vivienda fue creada por el Ayuntamiento de Gijón el 14 de junio de 1996 e Inscrita en el Registro Mercatil con fecha 9/05/1997.Tomo 2204. Folio 162. Hoja AS-17230.Inscripción 1ª.","43.53537 -5.676654","Servicios Municipales, Edificios Municipales, 2010, Gijón, Cajeros Ciudadanos, Administración"
"http://www.gijon.es/directorios/show/576-empresa-municipal-de-aguas-s-a-ema","576","es","fecha-actualizacion2014-01-22 12:02:34 +0100","http://www.gijon.es/data/images/f6/6510/250x188_v1_Directorioserviciosmunicipalesema.jpg","Empresa Municipal de Aguas S.A.(EMA)","985 182 860","985 182 898","atencion.ema@gijon.es","<p><u><br/></u></p><p><u><br/></u></p><p><u>Información y Registro</u></p><p>De lunes a jueves de 9:00 a 18:00 horas</p><p></p><p><u>Contratación</u></p><p>De lunes a jueves de 9:00 a 14:30 horas</p><p>Viernes, todos los servicios de 9:00 a 14:00 horas</p><p>Asistencia técnica<br/>Las 24 horas del día, los 365 días del año.</p>","La Empresa Municipal de Aguas de Gijón es una sociedad anónima de propiedad municipal que se encarga de la gestión directa de los servicios relativos a la gestión del ciclo integral del agua en el municipio de Gijón y sus parroquias rurales (captación, potabilización y abastecimiento del agua potable, así como mantenimiento, limpieza y reparación de las instalaciones de alcantarillado, saneamiento y depuración de aguas), además de la concesión y establecimiento de acometidas para dicho servicio. Servicio: Establecer un control técnico y administrativo, eliminar las fugas en la red de distribución, extender la red de distribución existente, logrando que el servicio de aguas pudiese llegar a todas las zonas del municipio con la presión adecuada y captar y conducir a Gijón nuevos caudales, especialmente necesarios durante el periodo estival.","Avda. del Príncipe de Asturias, 70","43.542195 -5.693211","Servicios Municipales, Cajeros Ciudadanos, Edificios Municipales, 2010, Gijón, Administración"
"http://www.gijon.es/directorios/show/569-edificio-trinidad","569","es","fecha-actualizacion2015-05-12 13:17:41 +0200","http://www.gijon.es/data/images/f6/6503/250x333_v1_Directorioedificiosmunicipalestrinidad.jpg","Edificio Trinidad","C/Instituto, 6","43.544364 -5.663597","Edificios Municipales, Zona Wifi, 2010, Gijón, Administración, Comunicaciones"
"http://www.gijon.es/directorios/show/553-edificio-pelayo","553","es","fecha-actualizacion2014-01-22 12:02:34 +0100","Edificio Pelayo","Plaza Mayor, 5","43.544957 -5.662961","Edificios Municipales, Zona Wifi, 2010, Gijón, Administración, Comunicaciones"
"http://www.gijon.es/directorios/show/529-deposito-municipal-de-vehiculos","529","es","fecha-actualizacion2015-02-24 08:38:14 +0100","Depósito Municipal de Vehículos","985 329 400 , 985 313 553(Oficinas)","985 312 220","C/W-6, s/n. (Polígono de Promosa. Nave 27)","43.532022 -5.689952","Tráfico, Servicios Municipales, 2010, Gijón, Administración, Seguridad Ciudadana"
"http://www.gijon.es/directorios/show/528-deposito-de-objetos-perdidos","528","es","fecha-actualizacion2017-02-17 13:46:35 +0100","http://www.gijon.es/data/images/f6/6477/250x188_v1_DirectorioserviciosmunicipalesINF-obejetosperdidos.jpg","Depósito de Objetos Perdidos","985 181 514","Lunes a Viernes: 9:00-14:00h.","Los objetos consignados permanecerán en dependencias municipales hasta que se localice a su propietario legal y en caso de que éste no apareciera hasta un plazo máximo de dos años, fecha en que el objeto puede ser reclamado por el hallador; éste, no obstante, tendrá derecho a un premio en caso de que aparezca el propietario legal del objeto.Si pasado el plazo de dos años no apareciera el dueño del objeto ni éste fuera reclamado por el hallador, el Ayuntamiento de Gijón lo dona a un centro de beneficencia (Cocina Económica, Albergue de Covadonga, etc.).En caso de que el objeto hallado fuera dinero en metálico el procedimiento a seguir será el mismo que en los casos anteriores, aunque en su parte final el dinero será remitido al Servicio de Depositaría del Ayuntamiento de Gijón.","C/San Jose, 2","43.535137 -5.658866","Objetos Perdidos, Servicios Municipales, 2010, Gijón, Servicios municipales, Turismo, Administración, Seguridad Ciudadana, Turismo"
"http://www.gijon.es/directorios/show/523-promocion-y-desarrollo-empresarial-servicio-de-asesoramiento-y-formacion-de-emprendedores-impulsa","523","es","fecha-actualizacion2017-02-08 18:00:14 +0100","http://www.gijon.es/data/images/f0/f9/92191/1204x1204_v1_01_impulsacuadrado-2.jpg","Promoción y Desarrollo Empresarial (Servicio de Asesoramiento y Formación de Emprendedores IMPULSA)","984 84 71 00","emprende@gijon.es","http://impulsa.gijon.es","Lunes a Viernes: 9:00-14:00h y 16:30 a 18:30. Viernes tarde cerrado","Edificio IMPULSA (PCTG) C/ Los Prados, nº 166 33203 - Gijón","43.523672 -5.61179","Servicios Municipales, Administración"
"http://www.gijon.es/directorios/show/507-conservatorio-profesional-de-musica-de-gijon","507","es","fecha-actualizacion2014-01-22 12:02:32 +0100","http://www.gijon.es/data/images/f6/6463/192x256_v1_Directoriocentrosformacionconservatorio.jpg","Conservatorio Profesional de Música de Gijón","985 185 825","985 185 829","congijon@educastur.org","(Secretaria) Lunes y Jueves: 11:00-12:00 h.","El Conservatorio Profesional de Música de Gijón, es un centro educativo público, que depende de la Consejería de Cultura y Educación del Principado de Asturias.Este Conservatorio tiene como objetivo la enseñanza de la música como arte y además la educación de los alumnos en lo que se refiere al comportamiento profesional de estos en la sociedad actual, completando así su formación integral, apoyados por la familia y los demás centros educativos a los que asisten.Las actividades profesionales hacia las que se encaminan estos estudios son: Músico concertista, Músico pedagogo, Músico de agrupación  instrumental (orquesta, big-band etc...).","Conservatorio Profesiona de Música de Gijón - C/Luis Moya Blanco, 261","Centros de Formación, 2010, Gijón, Servicios Municipales, Administración, Educación"
"http://www.gijon.es/directorios/show/446-centro-municipal-vega-la-camocha","446","es","fecha-actualizacion2015-05-12 13:24:25 +0200","http://www.gijon.es/data/images/f6/6423/250x200_v1_DirectorioedificiosmunicipalesCM-Vegacamo.jpg","Centro Municipal Vega - La Camocha","985 137 686 , 985 136 011(Servicios Sociales)","985 137 686","utscontrueces.fmss@gijon.es","Lunes a Viernes: 10:00-13:30h. y 17:00-20:30h. Julio y Agosto: 10:00-14:00h. y 17:00-20:00h.","Servicios del Centro: Laboratorio de fotografía, Sala de exposiciones, 2 aulas polivalentes, Centro de la Fundación de Servicios Sociales: Información y Tramitación de Prestaciones Sociales en General, Información y comunicación con el Ayuntamiento a través del Concejal Delegado de Alcaldía, Información, asesoramiento y recursos para las asociaciones y colectivos del barrio. Biblioteca: Sala de lectura, Sección infantil y juvenil, Sección adultos, Prensa y revistas, Préstamo de libros, discos, revistas, cd-rom, vídeo y dvd, Información bibliográfica y de referencia, Préstamo interbibliotecario y Catálogo colectivo. Red Municipal. Mediateca (10 puestos): Acceso gratuito a Internet y Cursos de formación digital.Cajero Ciudadano: Servicios de Pago de Recibos Municipales, alquiler de Locales de Ensayo, adquisición de Tarjeta de Transporte, entrada a Ludotecas, servicios del Centro Médico Deportivo, volante del Padrón, olvido y cambio de PIN, recarga de la Tarjeta, consulta de saldo de la Tarjeta, consulta de movimientos de la Tarjeta, abono mensual del transporte, reserva de Instalaciones Deportivas, inscripción de Cursos y consulta del Censo Electoral.","C/Charles Chaplin, s/n.","43.48682 -5.652342","Sala de Exposiciones, Servicios Municipales, Cajeros Ciudadanos, Mediatecas, Zona Wifi, 2010, Gijón, Administración, Comunicaciones, Cultura y Ocio"
"http://www.gijon.es/directorios/show/445-biblioteca-de-montiana-centro-municipal-de-montiana","445","es","fecha-actualizacion2015-03-12 08:41:19 +0100","http://www.gijon.es/data/images/f6/6422/250x141_v1_Directoriobibliotecasmontiana.jpg","Biblioteca de Montiana (Centro Municipal de Montiana)","985 300 030 , 985 311 877(Servicios Sociales)","bibliotecamontiana@gijon.es","Lunes a Viernes: 16.30 a 20.00 h. Julio y Agosto: Lunes a Viernes: 10:00-13:30h.","Ofrece diversos servicios y dispone de diferentes equipamientos tales como: Biblioteca, Mediateca (6 puestos) y Cajero Ciudadano: Servicios de Pago de Recibos Municipales, alquiler de Locales de Ensayo, adquisición de Tarjeta de Transporte, entrada a Ludotecas, servicios del Centro Médico Deportivo, volante del Padrón, olvido y cambio de PIN, recarga de la Tarjeta, consulta de saldo de la Tarjeta, consulta de movimientos de la Tarjeta, abono mensual del transporte, reserva de Instalaciones Deportivas, inscripción de Cursos y consulta del Censo Electoral.","Montiana, nº 3540. - Montiana, s/n.","43.521078 -5.746939","Servicios Municipales, Cajeros Ciudadanos, Edificios Municipales, Mediatecas, Zona Wifi, 2010, Gijón, Administración, Comunicaciones"
"http://www.gijon.es/directorios/show/443-centro-municipal-integrado-de-l-arena","443","es","fecha-actualizacion2017-03-28 12:24:45 +0200","http://www.gijon.es/data/images/f6/6420/250x188_v1_Directoriobibliotecasarena.jpg","Centro Municipal Integrado de L'Arena","+34 985 181 620","985 181 618","cmiarena@gijon.es","http://www.gijon.es","Lunes a Viernes: 8:00-22:00h. Cajero: 24h.","<p align="justify"> Este centro integrado comparte los servicios del distrito Este con el centro municipal integrado de El Coto. Así puede verse en su publicación mensual de servicios y actividades, la <em>Agenda</em>, compartida por los dos centros y distribuida, tanto en papel como a través de este sitio web.  Con este edificio, el ayuntamiento llega a un territorio, muy cercano al centro, densamente poblado y con necesidad de todo tipo de servicios como los que se ofrecen desde un centro integrado. Es decir, su idea de reunir servicios y actividades coordinadas y cercanas a cualquier residencia. Todos los servicios descentralizados por el ayuntamiento en esta zona de Gijón están aquí presentes, con las características del edificio, presididos por la idea de la integración. Haciendo compatibles servicios generales con otros especializados, por ejemplo en políticas de igualdad y Mujer.  Es decir, un servicio hecho de servicios diferentes, que se prestan como uno sólo para que el usuario elija, según su gusto o necesidades. </p><p align="justify">Dispone de: oficina de atención a la ciudadanía, Oficina municipal de políticas de igualdad, Servicios Sociales, concejalía de distrito, biblioteca, mediateca (16 puestos), cajero ciudadano, sala de exposiciones, salón de actos, aulas y salas polivalentes. Está próximo al pabellón de deportes de La Arena.</p><p align="center"><img src="/data/images/f0/f4/42483/767x500_v1_CENTROARENA%28exterior%29.JPG" alt="arena" class="nicedit_sin-alinear magnify" height="500" width="767" width="767" height="500"/><br/></p><p><br/></p><h3><a href="http://issuu.com/agendasdeloscentrosintegrados/docs/red_de_centros_municipales_integrad" title="Ir a http://issuu.com/agendasdeloscentrosintegrados/docs/red_de_centros_municipales_integrad" rel="external">Espacios del Centro Municipal Integrado de L'Arena (ver espacios).</a><br/></h3><br/><table><thead><tr><th style="text-align: center;">Espacio<br/></th><th style="text-align: center;">Puestos y Aforo<br/></th></tr></thead><tbody><tr><td>Salón de actos<br/></td><td style="text-align: right;">192</td></tr><tr><td>Aulas 1 y 3<br/></td><td style="text-align: right;">25<br/></td></tr><tr><td>Aulas 4 y 5<br/></td><td style="text-align: right;">29<br/></td></tr><tr><td>Aula 2<br/></td><td style="text-align: right;">20<br/></td></tr><tr><td style="vertical-align: top;">Aula 6<br/></td><td style="vertical-align: top; text-align: right;">45<br/></td></tr><tr><td style="vertical-align: top;">Biblioteca<br/></td><td style="vertical-align: top; text-align: right;">Adultos: 144<br/>Infantiles: 37<br/>Lectura de prensa: 24<br/></td></tr><tr><td style="vertical-align: top;">Mediateca<br/></td><td style="vertical-align: top; text-align: right;">16<br/></td></tr><tr><td style="vertical-align: top;">Sala de Exposiciones<br/></td><td style="vertical-align: top; text-align: right;">96 m2<br/></td></tr></tbody></table>","C/Canga Argüelles, 16- 18","43.539034 -5.650709","Sala de Exposiciones, Cajeros Ciudadanos, Edificios Municipales, Mediatecas, Zona Wifi, Servicio Atención a la Ciudadanía, 2010, Gijón, Otras salas de congresos, Servicios Sociales, Ocio, Bibliotecas, Teatro, Pabellones, Lineas de autobuses urbanos, Aseos públicos, Administración, Comunicaciones, Cultura y Ocio, Deporte, Movilidad, Turismo"
"http://www.gijon.es/directorios/show/441-centro-municipal-integrado-de-el-coto","441","es","fecha-actualizacion2016-06-06 14:03:16 +0200","http://www.gijon.es/data/images/f6/6418/150x113_v1_DirectorioedificiosmunicipalesCMI-elcoto.jpg","Centro Municipal Integrado de El Coto","+34 985 181 701","985 132 299","cmicoto@gijon.es","http://www.gijon.es","Lunes a Viernes: 8:00-22:00h. Cajero: 24h.","Es el centro pionero de la red de centros integrados. Un edificio de servicios múltiples, cabecera del distrito Este. Supone la presencia efectiva del ayuntamiento en ese territorio, con todos sus servicios y con sus nuevas estructuras y dotaciones. Su idea es la de reunir servicios y actividades coordinadas y cercanas a cualquier residencia. Todos los servicios descentralizados por el ayuntamiento en esta zona de Gijón están aquí presentes presididos por la idea de la integración. Es decir, un servicio hecho de servicios diferentes, que se prestan como uno sólo para que el usuario elija, según su gusto o necesidades.<br/><br/> <p>Dispone de: oficina de atención a la ciudadanía, Servicios Sociales, Empleo, Patronato Deportivo Municipal, Servicio de Prevención y Salud Laboral, concejalía de distrito, biblioteca, mediateca (10 puestos), cajero ciudadano, sala de exposiciones, salón de actos y salas polivalentes.</p><p><img src="/data/images/f0/f4/42475/298x400_v1_CentroCoto%28exteriorgenerallosa%29.JPG" alt="Fachada El Coto" class="image-izquierda magnify" height="400" width="298" width="298" height="400"/><img src="/data/images/f0/f4/42476/300x400_v1_CentroCoto%28bibliotecainteriordesdepisosuperior%29.JPG" alt="El coto interior" class="image-derecha magnify" height="400" width="300" width="300" height="400"/><br/><br/></p><p><br/></p><p><br/></p><p><br/></p><p><br/></p><p><br/></p><p><br/></p><p><br/></p><p><br/></p><p><br/></p><p><br/></p><p><br/></p><p><a href="http://issuu.com/agendasdeloscentrosintegrados/docs/red_de_centros_municipales_integrad" title="Ir a http://issuu.com/agendasdeloscentrosintegrados/docs/red_de_centros_municipales_integrad" rel="external"><b>Espacios del Centro Municipal Integrado de El Coto (ver espacios).</b><br/></a></p><br/><table><thead><tr><th style="text-align: center;">Espacio<br/></th><th style="text-align: center;">Puestos y Aforo<br/></th></tr></thead><tbody><tr><td>Salón de actos<br/></td><td style="text-align: right;">207<br/></td></tr><tr><td>Sala Polivalente<br/></td><td style="text-align: right;">166 ó 331<br/></td></tr><tr><td>Sala Paraninfo<br/></td><td style="text-align: right;">84<br/></td></tr><tr><td>Aula 1<br/></td><td style="text-align: right;">36<br/></td></tr><tr><td>Aula 2<br/></td><td style="text-align: right;">44<br/></td></tr><tr><td style="vertical-align: top;">Aula 3                                         <br/></td><td style="vertical-align: top; text-align: right;">                                          52 <br/></td></tr><tr><td style="vertical-align: top;">Aula auxiliar<br/></td><td style="vertical-align: top; text-align: right;">6<br/></td></tr><tr><td style="vertical-align: top;">Sala de estudio<br/></td><td style="vertical-align: top; text-align: right;">52<br/></td></tr><tr><td style="vertical-align: top;">Biblioteca<br/></td><td style="vertical-align: top; text-align: right;">Adultos: 68<br/>Infantil:32<br/>Lectura prensa: 24<br/></td></tr><tr><td style="vertical-align: top;">Mediateca<br/></td><td style="vertical-align: top; text-align: right;">10<br/></td></tr><tr><td style="vertical-align: top;">Sala de exposiciones<br/></td><td style="vertical-align: top; text-align: right;">137 m2<br/></td></tr></tbody></table>","Plaza de la República, s/n.","43.533605 -5.649089","Sala de Exposiciones, Servicios Municipales, Cajeros Ciudadanos, Mediatecas, Zona Wifi, Servicio Atención a la Ciudadanía, 2010, Gijón, Otras salas de congresos, Servicios Sociales, Ocio, Bibliotecas, Piscinas Municipales, Pictogramas, Aparcamientos, Establecimientos de Recarga del Monedero Transporte, Lineas de autobuses urbanos, Taxis, Servicios municipales, Museos y salas de exposiciones, Centros culturales, Aseos públicos, Administración, Comunicaciones, Cultura y Ocio, Deporte, Movilidad, Turismo"
"http://www.gijon.es/directorios/show/440-centro-municipal-del-poligono-de-pumarin","440","es","fecha-actualizacion2017-03-28 12:24:25 +0200","Centro Municipal del Polígono de Pumarín","985 185 127 ,  985 185 128","bibliotecapoligono@gijon.es","Lunes a Viernes: 9:00-20:00h.","C/Puerto de Piedrafita, 3","43.530439 -5.674355","Servicios Municipales, Mediatecas, Zona Wifi, 2010, Gijón, Administración, Comunicaciones"
"http://www.gijon.es/directorios/show/439-servicio-administrativo-de-urbanismo","439","es","fecha-actualizacion2014-01-22 12:02:30 +0100","Servicio Administrativo de Urbanismo","010 (llamadas desde Gijón) / 985 18 11 05 (llamadas de fuera de Gijón)","http://urbanismo/page/12453-urbanismo","Paseo de la Infancia 2 - Planta 3ª","43.538272 -5.666113","Servicios Municipales, Administración"
"http://www.gijon.es/directorios/show/438-biblioteca-municipal-de-roces","438","es","fecha-actualizacion2017-03-28 12:24:14 +0200","http://www.gijon.es/data/images/f0/f3/31603/267x200_v1_ExteriorRoces200.jpg","Biblioteca Municipal de Roces","985 181 692","bibliotecaroces@gijon.es","http://bibliotecas.gijon.es/","Lunes a viernes de 9.00 a 14.00 h y de 16.00 a 20.00 h. Julio y agosto de 9.00 a 15.00h","Ofrece diversos servicios y dispone de diferentes equipamientos tales como: <br/><ul><li>Sala de lectura. </li><li>Sección adultos. </li><li>Sección infantil y juvenil. </li><li>Biblioteca para padres y madres. </li><li>Bebeteca. </li><li>Sección Asturiana. </li><li>Centros de interés: Fácil de leer, Cómic, Viajes, Idiomas. </li><li>Prensa y revistas. Préstamo de libros, discos, revistas, vídeo y dvd. </li><li>Préstamo interbibliotecario. Información bibliográfica y de referencia. </li><li>Actividades de animación a la lectura: La hora de los cuentos. </li><li>Programa de formación en el uso de la biblioteca para escolares (Cita previa concertada). </li><li>Información y asesoramiento sobre temas generales de interés para la comunidad. </li><li>Consulta Catálogo Colectivo de la Red de Bibliotecas del Principado de Asturias. </li><li>Consulta Red Municipal de Bibliotecas . </li><li>Mediateca (6 puestos): Acceso gratuito a Internet </li></ul><span style="FONT-WEIGHT: bold">Cómo llegar: </span><br/>Líneas de autobuses: Línea 15","Avda. Salvador Allende, 13 C.P. 33211","43.51898 -5.683518","Bibliotecas, Servicios Municipales, Mediatecas, Zona Wifi, Administración, Comunicaciones, Cultura y Ocio"
"http://www.gijon.es/directorios/show/436-centro-municipal-el-natahoyo","436","es","fecha-actualizacion2017-03-28 12:24:03 +0200","http://www.gijon.es/data/images/f6/6416/250x188_v1_DirectorioedificiosmunicipalesCM-natahoyo.jpg","Centro Municipal El Natahoyo","985 320 348(Biblioteca) , 984 491 969 (Servicios Sociales)","bibliotecanatahoyo@gijon.es","Lunes a Viernes: 9.00 a 20.00 h.","Ofrece diversos servicios y dispone de diferentes equipamientos tales como:Servicios sociales: Información y Tramitación de Prestaciones Sociales en General. Bibliotecas: Sala de lectura, Sección infantil y juvenil, Sección adultos, Prensa y revistas, Préstamo de libros, discos, revistas, cd-rom, vídeo y dvd, Información bibliográfica y de referencia, Préstamo interbibliotecario y Catálogo colectivo. Red Municipal. Mediateca (12 puestos): Acceso gratuito a Internet y Cursos de formación digital.","C/La Estrella, s/n.","43.540316 -5.688418","Sala de Exposiciones, Servicios Municipales, Mediatecas, Zona Wifi, 2010, Gijón, Administración, Comunicaciones, Cultura y Ocio"
"http://www.gijon.es/directorios/show/425-centro-de-medicina-deportiva","425","es","fecha-actualizacion2014-06-13 12:58:29 +0200","Centro de Medicina Deportiva","985 181 708","medicinadeportiva.pdm@gijon.es","Lunes a Viernes: 9:00-14:00h.","Plaza de la República, s/n. 2ª planta","43.533414 -5.649349","Servicios Municipales, 2010, Gijón, Administración"
"http://www.gijon.es/directorios/show/422-centro-de-iniciativas-juveniles-de-la-calzada","422","es","fecha-actualizacion2016-07-11 13:39:42 +0200","Centro de Iniciativas Juveniles de la Calzada","985 322 130","juventud@gijon.es","<p>Del 1 de septiembre al 30 de junio</p><p>De lunes a viernes de 16:00 a 20:00 h.</p><p>Julio. De lunes a viernes de 10:00 a 14:00 h.</p><p>Agosto cerrado<br/></p>","Punto de información juvenil, taller de fotografía , taller de radio Radiooeste, 2 salas polivalentes, 2 aulas para reuniones y talleresSala de navegación con 9 puestos de conexión a internet, 3 despachos para la prestación de servicios, taquillas para grupos y/o asociaciones, almacén.","Camino del Lucero, 8","43.541398 -5.691302","Servicios Municipales, Mediatecas, 2010, Gijón, Administración, Comunicaciones"
"http://www.gijon.es/directorios/show/416-centro-de-cultura-antiguo-instituto","416","es","fecha-actualizacion2016-05-31 11:59:57 +0200","http://www.gijon.es/data/images/f6/6407/250x188_v1_Directorioedificiosmunicipalesantistituto.jpg","Centro de Cultura Antiguo Instituto","+34 985 181 001","985 350 709","ccai@gijon.es","http://cultura.gijon.es","<span style="font-weight: bold;">Lunes a Viernes:</span> 9:00-21:30h.<br/><span style="font-weight: bold;">Sábados:</span> 10:00-14:00h. y 16:00-21:00h.<br/><span style="font-weight: bold;">Domingos y festivos:</span> 10:00-14:00h.","<p>El 19 deoctubre de 1797, Gaspar Melchor de Jovellanos colocó la primera piedra del RealInstituto Asturiano, fundado con el objetivo de impartir formación científica ytécnica en las materias de marina y minería, dada la importancia de ambasactividades en Asturias.</p><p>Eledificio actual es el resultado de dos fases constructivas. La primera sedesarrolló entre 1797 y 1807 y responde a las trazas de Juan de Villanueva(1739-1811), que proyectó la planta baja, de estilo neoclásico. La segunda fasese corresponde con la ampliación realizada entre 1887 y 1892 por Ricardo MarcosBausá, que consistió en la elevación de dos plantas sobre la original.</p><p>Actualmentealberga el Centro de Cultura Antiguo Instituto, un espacio de referencia parala creación, producción y difusión artística y cultural de la ciudad, así como de la formación especializada en los lenguajes artísticos, proporcionando los espacios y equipamientos adecuados para tal fin. Depende del Departamento de Promoción de las Artes cuyo objetivo primordial es el apoyo a los creadores que inician su trabajo en distintos ámbitos de la creación.Su programación se articula en las siguientes grandes áreas: Programas de Difusión: Conciertos de Música, actuaciones de Teatro y Danza, Poesía, Imagen; Apoyo a la Creación Artística; Formación especializada: Sonido, Imagen, Teatro, Danza; Apoyo al Asociacionismo: casi 200 entidades y asociaciones colaboran anualmente en las actividades del Centro; Grandes eventos culturales: Salón del Libro Iberoamericano, Fetén, Semana de Música Antigua, Danza Gijón, Festival Internacional de Cine, Salón Internacional del Cómic, Al Norte, Festival Internacional de Video-Arte Optica, Festival Internacional de música de Gijón...<br/></p><br/><h3>Accesibilidad:</h3><ul><li>Alta: <ul><li>Acceso </li><li>Movilidad interior</li></ul></li><li>Media: <br/><ul><li>Ascensor</li></ul></li><li>Baja: <ul><li>Aseos<br/></li></ul></li></ul><h3>Observaciones: </h3>Dispone de aseo para personas con discapacidad, pero se considera practicable pues no cumple con las medidas legalmente establecidas (carece de espacio de transferencia y el lavabo tiene pedestal).<br/><br/><h3>Información sobre las salas del Centro de Cultura Antiguo Instituto</h3><br/><table><thead><tr><th>Sala</th><th>Teatro</th><th>Otras disposiciones<br/></th><th>m<sup>2</sup></th><th>Altura<br/></th></tr></thead><tbody><tr><td>Salón de actos<br/></td><td>120</td><td><br/></td><td>150</td><td>4 - 5<br/></td></tr><tr><td>Sala de conferencias<br/></td><td>100</td><td>Escuela</td><td>82</td><td>4<br/></td></tr></tbody></table>","C/Jovellanos, 21. 33201 Gijón/Xixón","43.541448 -5.662224","Sala de Exposiciones, Servicios Municipales, Cajeros Ciudadanos, Edificios Municipales, Mediatecas, Zona Wifi, 2010, Gijón, Servicios municipales, Turismo, Monumentos, Edificios y lugares de interés, Cultura, Otros Recursos Educación, Establecimientos de Recarga del Monedero Transporte, GijonBici, Lineas de autobuses urbanos, Taxis, Museos y salas de exposiciones, Centros culturales, Administración, Comunicaciones, Cultura y Ocio, Educación, Movilidad, Turismo, Fundación Municipal de Cultura, Educación y Universidad Popular"
"http://www.gijon.es/directorios/show/414-centro-asesor-de-la-mujer","414","es","fecha-actualizacion2014-05-30 09:10:25 +0200","http://www.gijon.es/data/images/f6/6405/250x188_v1_DirectorioserviciosmunicipalesCA-mujeres.jpg","Centro Asesor de la Mujer","985 181 627/30","985 181 636","oficinaigualdad@gijon.es","http://igualdad.gijon.es/","Lunes a Viernes: 9:00-14:00 h. y Martes y Jueves:16:00-17:30 h. Horario verano<span style="font-weight: bold;"> </span>(del 1 de junio al 30 de septiembre): lunes a viernes, de 9:00 a 14:00 h.","<div style="text-align: justify;">Presta asesoramiento jurídico en materia de Derecho deFamilia (separaciones, divorcios, uniones de hecho), Derecho Penal (Violenciade género en todas sus formas, impago de pensiones) y Derecho laboral(Discriminación en el trabajo por razón de sexo, maternidad, conciliación)</div><br/><p style="text-align: justify;">Realiza el seguimiento de las órdenes de protecciónvigentes en el municipio, coordinando a los distintos organismos queintervienen en los supuestos de violencia de género y garantizando en todo casouna asistencia integral y especializada a las mujeres víctimas de violencia degénero.</p>","C/Canga Argüelles, 16-18, 1ª planta","43.538936 -5.650492","Servicios Municipales, 2010, Gijón, Administración"
"http://www.gijon.es/directorios/show/413-cementerios-gijon-s-a","413","es","fecha-actualizacion2016-12-29 08:41:38 +0100","http://www.gijon.es/data/images/f6/6404/106x106_v1_DirectorioserviciosmunicipalesArbolCegisa.gif","Cementerios Gijón, S.A.","985 340 081","985 175 627","<a title="Ir a info@cementeriosdegijon.com " href="http://info@cementeriosdegijon.com">info.cegisa@gijon.es</a>","Lunes a Viernes: 9:00-14:00h. y 16:00-18:00h.","En 1996 el Ayuntamiento de Gijón creó una sociedad para la gestión de todos los cementerios municipales de Gijón. La actividad de Cegisa ha experimentado un fuerte incremento desde la inauguración el 22 de Noviembre de 1999 del cementerio Municipal de Deva, añadiendo nuevos servicios como son las concesiones por 50 años de unidades de enterramiento y la disponibilidad de un Tanatorio Municipal.","C/Instituto, 27 Bajo","43.542224 -5.662452","Servicios Municipales, 2010, Gijón, Administración"
"http://www.gijon.es/directorios/show/362-14-cajero-ciudadano-conseyu-la-moceda-de-xixon","362","es","fecha-actualizacion2016-01-19 13:58:40 +0100","14 Cajero Ciudadano - Conseyu la Mocedá de Xixón","Información municipal llamando al 985 18 11 05","https://sedeelectronica.gijon.es/page/7862-cajeros-ciudadanos","24h.","Tramites:Pago de recibos municipales,alquiler de locales de ensayo,adquisición de tarjeta transporte,entrada a la ludoteca,servicio del centro médico deportivo,volante del padrón,olvido/cambio del PIN de la tarjeta ciudadana,recarga,consulta de movimientos,abono mensual,reserva de instalaciones deportivas,inscripción de cursos y consulta del censo electoral.","<a href="https://acerca.gijon.es/eParticipa/Products/Carpeta/Public/Requests/InetReqPublic.aspx?qs=8rH62eAXeBeQM4ln894ypC7GLKLmVKLj3hN9M0IG5nC6yB3%2bC8sYxk7DzSyO1cz2%3C/div%3E%0A%0A%0A%20%20%20%20%3C/div%3E%0A%20%20%20%20%3Cdiv%20class="><br/></a>","43.534577 -5.667497","Cajeros Ciudadanos, 2010, Gijón, Administración"
"http://www.gijon.es/directorios/show/274-torre-del-reloj","274","es","fecha-actualizacion2014-01-22 12:02:26 +0100","http://www.gijon.es/data/images/f6/6340/203x270_v1_Directoriomuseostorrereloj.jpg","Torre del Reloj","985 181 120","985 181 182","archivo@gijon.es","Lunes a Viernes: 9:00-14:00h.","<p>Selevantó en 1572 sobre los restos de la antigua muralla romana. Inicialmente sedestinó a casa consistorial, siendo sede del Ayuntamiento hasta sureutilización como cárcel, función que desempeñó hasta 1909. Tras su abandono,fue demolida en 1911.</p><p>En1989, durante la rehabilitación del barrio de Cimavilla, salieron a la luz losvestigios de la antigua muralla romana. Tras su estudio, se decidió visibilizaresos restos, acometiendo una reconstrucción que mostrase el aspecto original dela estructura defensiva. El edificio de la Torre del Reloj se recuperósiguiendo esos mismos criterios, para mantener la coherencia visual del conjunto.</p><p>Actualmentees sede del Archivo Municipal de Gijón.</p>","C/Recoletas, 5 (Edificio Torre del Reloj). 33201 Gijón","43.545686 -5.663436","Servicios Municipales, Edificios Municipales, Zona Wifi, Gijón, Monumentos, Edificios y lugares de interés, Administración, Comunicaciones, Cultura y Ocio, Turismo"
"http://www.gijon.es/directorios/show/242-area-de-empresas","242","es","fecha-actualizacion2017-02-08 17:13:48 +0100","http://www.gijon.es/data/images/f6/6327/200x131_v1_Directoriovarioshttpnegro.jpg","Área de Empresas","984 84 71 00","empresas@gijon.es","Lunes a Viernes: 9:00-14:00h. - 16:30-18:30h. Viernes: tarde cerrado","Avda. de la Argentina, 132","43.538654 -5.704847","Servicios Municipales, 2010, Gijón, Administración"
"http://www.gijon.es/directorios/show/199-alpee-departamento-de-escuelas-taller","199","es","fecha-actualizacion2017-05-11 10:05:18 +0200","http://www.gijon.es/data/images/f0/f9/94736/130x108_v1_logodirectorioimpulsaempleo.png","ALPEE. Departamento de Escuelas Taller","985 181 589","985 181 594","escuelastaller.alpee@gijon.es","http://empleo.gijon.es","Lunes a Viernes: 9:00 - 14:00h.","C/ Avelino González Mallada, 27 - Planta Primera - 33204","Servicios Municipales, 2010, Gijón, Zona Wifi, Administración, Comunicaciones"
"http://www.gijon.es/directorios/show/196-alpee-departamento-economico","196","es","fecha-actualizacion2017-05-11 09:58:27 +0200","http://www.gijon.es/data/images/f0/f9/94736/130x108_v1_logodirectorioimpulsaempleo.png","ALPEE - Departamento Económico","985 181 555","985 181 562","agencialocal@gijon.es","../../../../","<a href="mailto:economico.alpee@gijon.es" title="Enviar correo electrónico a economico.alpee@gijon.es">	</a><a href="mailto:economico.alpee@gijon.es" title="Enviar correo electrónico a economico.alpee@gijon.es">	</a><a href="mailto:economico.alpee@gijon.es" title="Enviar correo electrónico a economico.alpee@gijon.es">	</a>Lunes a Viernes: 9:00-14:00h<a href="mailto:economico.alpee@gijon.es" title="Enviar correo electrónico a economico.alpee@gijon.es">.</a>","<a href="mailto:economico.alpee@gijon.es" title="Enviar correo electrónico a economico.alpee@gijon.es">	</a>C/ Avelino González Mallada, 27 - Planta Primera - 33204<a href="mailto:economico.alpee@gijon.es" title="Enviar correo electrónico a economico.alpee@gijon.es"></a>","Servicios Municipales, 2010, Gijón, Zona Wifi, Administración, Comunicaciones"
"http://www.gijon.es/directorios/show/190-oficina-de-atencion-al-ciudadano-centro-municipal-integrado-de-pumarin-gijon-sur","190","es","fecha-actualizacion2014-02-11 15:41:02 +0100","http://www.gijon.es/data/images/f6/6138/250x333_v1_OAC-gijonsur.jpg","Oficina de Atención al Ciudadano. Centro Municipal Integrado de Pumarín - Gijón Sur","985181642","985 181 639","http://www.gijon.es","<span>Lunes a viernes: 8:30-17:00 h. Sábados<span id="dtx-highlighting-item" backgroundcolor="lime"> de </span>9:00 a 13:00 h. Julio y Agosto: Lunes a viernes: De 8:30 a 14:00 h. Sábados<span id="dtx-highlighting-item" backgroundcolor="lime"> de </span>9:00 a 13:00 horas.</span>","C/Ramón Areces, 7 - 33211","43.524862 -5.678057","Administración, Servicio Atención a la Ciudadanía, Servicios Municipales"
"http://www.gijon.es/directorios/show/189-oficina-de-atencion-al-ciudadano-centro-municipal-integrado-ateneo-de-la-calzada","189","es","fecha-actualizacion2014-11-20 13:32:35 +0100","http://www.gijon.es/data/images/f6/6131/250x333_v1_OAC-ateneo.jpg","Oficina de Atención al Ciudadano. Centro Municipal Integrado Ateneo de La Calzada.","985181405","985 301 198","http://www.gijon.es","<span>Lunes a viernes: de 8:30 a 17:00 h. Sábados<span id="dtx-highlighting-item" backgroundcolor="lime"> de </span>9:00 a 13:00 h. Julio y Agosto:  Lunes a viernes: de 8:30 a 14:00. Sábados 9:00-13:00 h.</span>","<span>C/Ateneo Obrero<span id="dtx-highlighting-item" backgroundcolor="lime"> de </span>la Calzada, 1 - 33213</span>","43.539177 -5.69459","Servicio Atención a la Ciudadanía, Servicios Municipales, Administración"
"http://www.gijon.es/directorios/show/187-oficina-central-de-atencion-a-la-ciudadania","187","es","fecha-actualizacion2016-06-06 10:53:59 +0200","http://www.gijon.es/data/images/f6/6122/200x150_v1_OAC_central.jpg","Oficina central de atención a la ciudadanía","010. Si llama desde fuera del municipio de Gijón: 984 847 970.","985 181 182","http://www.gijon.es","Invierno: Lunes a Viernes: 8:30-17:00h.Sábado: 9:00-13:00h.Verano (julio y agosto) Lunes a viernes: 8:30-14:00h. Sábado: 9:00-13:00h.","C/Cabrales, 2 - 33201","43.544656 -5.661931","Edificios Municipales, Servicio Atención a la Ciudadanía, Servicios Municipales, Mediatecas, Piscinas Municipales, Lineas de autobuses urbanos, Servicios municipales, Administración, Comunicaciones, Deporte, Movilidad, Turismo"
"http://www.gijon.es/directorios/show/185-oficina-de-atencion-al-ciudadano-centro-municipal-integrado-el-coto","185","es","fecha-actualizacion2014-02-12 10:49:45 +0100","http://www.gijon.es/data/images/f3/3211/150x113_v1_CMI-elcoto.jpg","Oficina de Atención al Ciudadano. Centro Municipal Integrado El Coto.","985181703","985 132 299","http://www.gijon.es/","(Invierno) Lunes a Viernes: 8:30-17:00h. Verano (julio y agosto) Lunes a Viernes: 8:30-14:00h.","Plaza de la República, s/n. - 33204","Servicio Atención a la Ciudadanía, Administración"
"http://www.gijon.es/directorios/show/183-centro-municipal-integrado-ateneo-de-la-calzada","183","es","fecha-actualizacion2017-03-28 12:22:14 +0200","http://www.gijon.es/data/images/f6/6115/250x333_v1_CM-ateneo.jpg","Centro Municipal Integrado Ateneo de La Calzada","985 181 403","985 301 198","cmicalzada@gijon.es","http://www.gijon.es","Lunes a sábado, de 8:00 a 22:00 h. Cajero: 24h","<p>Este Centro ha sido el último en incorporarse a la red de centros municipales integrados, pese a ser el equipamiento más veterano. Su origen, muy lejano en el tiempo y en la historia del barrio de La Calzada, lo liga a iniciativas vecinales (que aún disponen de espacios en el Centro) y a usos municipales puramente culturales. Una reciente reforma lo ha convertido, desde el año 2007, en un centro municipal integrado con el mismo rango de servicios y organización que el resto.</p><p>Dispone de: oficina de atención a la ciudadanía, Servicios Sociales, salón de actos (aforo de 270 personas), sala de exposiciones, biblioteca, mediateca (14 puestos), salas polivalentes, aulas, talleres especializados y cajero ciudadano.</p><p><img src="/data/images/f0/f4/42478/266x400_v1_LaCalzadaexterior.JPG" alt="exterior la calzada" class="image-izquierda magnify" height="400" width="266" width="266" height="400"/><br/></p><p><span style="font-weight: bold;"><img src="/data/images/f0/f4/42482/400x300_v1_Bibliotecainfantil.JPG" alt="ateneop biblio" class="image-derecha magnify" height="300" width="400" width="400" height="300"/><br/></span></p><p><span style="font-weight: bold;"><br/></span></p><p><span style="font-weight: bold;"><br/></span></p><p><span style="font-weight: bold;"><br/></span></p><p><span style="font-weight: bold;"><br/></span></p><p><span style="font-weight: bold;"><br/></span></p><p><span style="font-weight: bold;"><br/></span></p><p><span style="font-weight: bold;"><br/></span></p><p><span style="font-weight: bold;"><br/></span></p><p><span style="font-weight: bold;"><br/></span></p><p><span style="font-weight: bold;"><br/></span></p><p><span style="font-weight: bold;"><a href="http://issuu.com/agendasdeloscentrosintegrados/docs/red_de_centros_municipales_integrad" title="Ir a http://issuu.com/agendasdeloscentrosintegrados/docs/red_de_centros_municipales_integrad" rel="external"><br/></a></span></p><p><span style="font-weight: bold;"><a href="http://issuu.com/agendasdeloscentrosintegrados/docs/red_de_centros_municipales_integrad" title="Ir a http://issuu.com/agendasdeloscentrosintegrados/docs/red_de_centros_municipales_integrad" rel="external">Espacios en el centro municipal integrado Ateneo de La Calzada (ver espacios).</a></span><br/></p><p></p><table><thead><tr><th style="text-align: center;">Espacio<br/></th><th style="text-align: center;">Puestos y Aforo<br/></th></tr></thead><tbody><tr><td>Salón de actos<br/></td><td style="text-align: right;">270<br/></td></tr><tr><td style="vertical-align: top;">Sala polivalente<br/></td><td style="vertical-align: top; text-align: right;">60</td></tr><tr><td>Sala de exposiciones<br/></td><td style="text-align: right;">75 m2<br/></td></tr><tr><td>Biblioteca<br/></td><td style="text-align: right;">Adultos:28<br/>Infantil:39<br/>Lectura de prensa:27<br/></td></tr><tr><td style="vertical-align: top;">Sala de Estudio<br/>(dos espacios)</td><td style="vertical-align: top; text-align: right;">45 y 30</td></tr><tr><td style="vertical-align: top;">Mediateca</td><td style="vertical-align: top; text-align: right;">16</td></tr><tr><td>Aula 2.2.<br/></td><td style="text-align: right;">25<br/></td></tr><tr><td style="vertical-align: top;">Aula 3.4.</td><td style="vertical-align: top; text-align: right;">30</td></tr><tr><td style="vertical-align: top;">Aula 4.2.</td><td style="vertical-align: top; text-align: right;">18</td></tr><tr><td style="vertical-align: top;">Aula 5.2<br/></td><td style="vertical-align: top; text-align: right;">25</td></tr><tr><td style="vertical-align: top;">Aula 5.5                               <br/></td><td style="vertical-align: top; text-align: right;">                                   40</td></tr><tr><td style="vertical-align: top;">Aula 5.6<br/></td><td style="vertical-align: top; text-align: right;">35<br/></td></tr><tr><td style="vertical-align: top;">Aula Música        <br/></td><td style="vertical-align: top; text-align: right;">25</td></tr><tr><td style="vertical-align: top;">Aula Teatro</td><td style="vertical-align: top; text-align: right;">25</td></tr><tr><td style="vertical-align: top;">Aula fotografía</td><td style="vertical-align: top; text-align: right;">25</td></tr><tr><td style="vertical-align: top;">Aula-Reuniones</td><td style="vertical-align: top; text-align: right;">30</td></tr><tr><td style="vertical-align: top;">Taller de Restauración</td><td style="vertical-align: top; text-align: right;">25</td></tr><tr><td style="vertical-align: top;">Taller de Dibujo</td><td style="vertical-align: top; text-align: right;">25</td></tr><tr><td style="vertical-align: top;">Taller Pintura<br/></td><td style="vertical-align: top; text-align: right;">25<br/></td></tr><tr><td style="vertical-align: top;">Taller madera<br/></td><td style="vertical-align: top; text-align: right;">25</td></tr><tr><td style="vertical-align: top;">Taller cocina</td><td style="vertical-align: top; text-align: right;">25</td></tr><tr><td>Grupo montaña<br/></td><td style="text-align: right;">18<br/></td></tr><tr><td>Grupo filatélico<br/></td><td style="text-align: right;">18<br/></td></tr><tr><td>G. Industrial C.F.<br/></td><td style="text-align: right;">18<br/></td></tr><tr><td>Casa Deporte</td><td style="text-align: right;">25</td></tr><tr><td>Club Alfil<br/></td><td style="text-align: right;">25<br/></td></tr><tr><td>Asociación de vecinos <br/>(dos espacios)</td><td style="text-align: right;">30 y 18</td></tr></tbody></table>","C/Ateneo Obrero de La Calzada, 1","43.539353 -5.694611","Edificios Municipales, Centros de Formación, Cajeros Ciudadanos, Servicio Atención a la Ciudadanía, Servicios Municipales, Sala de Exposiciones, Mediatecas, Zona Wifi, Servicios Sociales, Bibliotecas, Teatro, Aparcamientos, Establecimientos de Recarga del Monedero Transporte, Lineas de autobuses urbanos, Servicios municipales, Teatros, Administración, Comunicaciones, Cultura y Ocio, Educación, Movilidad, Turismo"
"http://www.gijon.es/directorios/show/180-alpee-agencia-local-de-promocion-economica-y-empleo","180","es","fecha-actualizacion2017-05-11 09:56:52 +0200","http://www.gijon.es/data/images/f0/f9/94736/130x108_v1_logodirectorioimpulsaempleo.png","ALPEE-Agencia Local de Promoción Económica y Empleo","985 181 555","985 181 562","agencialocal@gijon.es","http://empleo.gijon.es","Lunes a Viernes: 9:00-14:00h.","C/ Avelino González Mallada, 27 - 33204 - Gijón","Edificios Municipales, 2010, Gijón, Zona Wifi, Administración, Comunicaciones"
"http://www.gijon.es/directorios/show/179-consejo-municipal-de-cooperacion-y-solidaridad-internacional","179","es","fecha-actualizacion2016-12-14 11:48:57 +0100","http://www.gijon.es/data/images/f6/6407/250x188_v1_Directorioedificiosmunicipalesantistituto.jpg","Consejo Municipal de Cooperación y Solidaridad Internacional","985 181 002","cooperacion@gijon.es","http://solidaridad.gijon.es/","C/Jovellanos, 21. 1ª Planta.  33201 Gijón/Xixón","43.541498 -5.662237","Servicios Municipales, Gijón, 2016, Administración"
"http://www.gijon.es/directorios/show/169-fundacion-municipal-de-servicios-sociales-edificio-gota-de-leche","169","es","fecha-actualizacion2014-01-22 12:02:23 +0100","http://www.gijon.es/data/images/f0/f4/40231/326x217_v1_GotadeLeche.jpg","Fundación Municipal de Servicios Sociales (Edificio Gota de Leche)","985 182 851","985 182 830","fmss@gijon.es","http://sociales.gijon.es","Lunes a Viernes: 9:00-14:00 h. Martes: 9:00-17:00 h.","<p align="justify">Organismo autónomo creado en 1982 por el Ayuntamiento de Gijón para desarrollar programas y servicios que den respuesta a las necesidades sociales de la población de la ciudad. Constituido por dos niveles: Centros Sociales y Programas. Servicios: Atención a la mujer y a la infancia; Integración y atención colectiva de desfavorecidos; Gijón una ciudad saludable; Prevención y atención a los problemas derivados de los consumos de drogas; Atención a personas mayores y apersonas discapacitadas; Aulas para mayores; Coordinación de centros y calidad de evaluación.</p>","C/ Palacio Valdés, 2 - 33206 Gijón (Asturias)","43.53933 -5.666942","Edificios Municipales, Servicios Sociales, 2010, Gijón, Administración"
"http://www.gijon.es/directorios/show/168-oficina-de-politicas-de-igualdad","168","es","fecha-actualizacion2014-01-22 12:02:23 +0100","http://www.gijon.es/data/images/f5/5609/250x188_v1_CMI-arena.jpg","Oficina de Políticas de Igualdad","985 181 627 /30 /31","985 181 636","oficinaigualdad@gijon.es","http://www.gijon.es","<span style="font-weight: bold;">Lunes a Viernes: </span>De<span style="font-weight: bold;"> </span>9:00-14:00h.<br/><span style="font-weight: bold;"></span>","<p style="text-align: justify;">La Oficina de Políticas de Igualdad delAyuntamiento de Gijón, es el Organismo Municipal encargado de poner en marchaactuaciones, dirigidas a promocionar la igualdad efectiva entre mujeres yhombres. Teniendo como marco la Ley orgánica 3/2007 “Ley orgánica para laIgualdad efectiva de Mujeres y Hombres” en vigor desde el 24 de marzo de 2007,que implica el reconocimiento de nuevos derechos para unas y otros en materiade igualdad.</p><div style="text-align: justify;"></div><p style="text-align: justify;">Está ubicada en la Casa de Encuentro de lasMujeres y es sede del Consejo de Asociaciones de Mujeres de la ciudad.</p><div style="text-align: justify;">Los programas que se ponen en marcha, desde la Oficina de Políticas deIgualdad, tienen como objetivo erradicar toda discriminación por razón de sexo,prevenir y sensibilizar para la erradicación de la violencia de género,fomentar la participación social de las mujeres, promoción de la salud, yacciones de formación desde la infancia desarrollando el programa Educarpara la Igualdad desde la colaboración con los Centros escolares de infantil,primaria, secundaria y bachillerato.</div>","Centro Municipal integrado La Arena - C/Canga Argüelles, 16-18 - 33202 Gijón (Asturias) - Canga Argüelles, 16-18 (en el edificio de la Fábrica de Gas)","43.538979 -5.650473","Servicios Municipales, mujer, Servicios municipales, Turismo, Administración, Turismo"
"http://www.gijon.es/directorios/show/164-edificio-administrativo-antigua-pescaderia-municipal","164","es","fecha-actualizacion2017-03-28 12:27:22 +0200","http://www.gijon.es/data/images/f4/4895/150x113_v1_pescaderia.jpg","Edificio Administrativo Antigua Pescadería Municipal","010. Si llama desde fuera del municipio de Gijón: 984 847 970.","985 181 182","http://www.gijon.es","Lunes a Viernes de 8:30 a 17:00 horas, ininterrumpidamente.<br/>Sábados de 9:00-13:00 horas. <br/>Julio y agosto: De 08:30 a 14:00 horas, de lunes a viernes; y sábados de 09:00 a 13:00 horas.","Autor:Miguel García de la Cruz.<br/>Contruida entre 1928-30 para sustituir a otra (Mercado del Adobo) de principios del s. XIX.<br/>De planta rectangular y un solo piso, tiene fachada abierta a cuatro calles, con la principal orientada hacia el Muro de San Lorenzo.<br/>Las fachadas se configuran a través de una sucesión de vanos enmarcados por arcos rebajados; pone el remate a las mismas una ancha y poco saliente cornisa, coronada por bolas escurialenses apoyadas en pedestales. Las entradas principales se desarrollan en forma de pórticos a la manera renacentista, con arcos de medio punto apoyados en columnas de estilo dórico y un coronamiento a base de buenos frontones elevados sobre la cornisa.","C/ Cabrales, nº2","43.544746 -5.662076","Edificios Municipales, Cajeros Ciudadanos, Servicios Municipales, Monumentos, Zona Wifi, Gobierno, Establecimientos de Recarga del Monedero Transporte, Administración, Comunicaciones, Cultura y Ocio, Movilidad"
"http://www.gijon.es/directorios/show/94-teatro-jovellanos","94","es","fecha-actualizacion2015-09-29 14:29:03 +0200","http://www.gijon.es/data/images/f3/3120/250x188_v1_T.jovellanos.jpg","Teatro Jovellanos","985 182 929","985 182 939","info@teatrojovellanos.com","http://tj.gijon.es","(Oficina)Lunes a Viernes: 9:30-14:30h. y 17:30-20:30h. Taquilla: 12:00-14:00h. y 17:30-20:30h.","<span style="font-weight: bold;">Autor:</span> El arquitecto fue Mariano Marín Magallón y en 1939 acometió las obras de restauración José Mª Mendoza y Ussía. <br/><br/><span style="font-weight: bold;">Fecha:</span> 1899.<br/> <br/>Junto a las viviendas que lo rodean, se enmarca en un estilo ecléctico-historicista. Se distinguen dos partes en la composición: <span style="font-weight: bold;">una arcada de pilastras decoradas con trofeos alegóricos</span> que se extienden por toda la superficie hasta la altura de los cuerpos laterales, y un piso superior a modo, de remate, en el que se abre una galería que soporta una amplia cornisa moldurada. El proyecto original fue bastante reformado en la restauración de 1939. Asimismo, en la década de los 90 se llevó a cabo <span style="font-weight: bold;">obras de restauración</span> que permitieron recuperar el Teatro para la ciudad.","Estamos también en C/ Cabrales, 82 - 33201 Gijón (Asturias)","Servicios Municipales, Monumentos, Teatro, Festival de Cine, Teatro Jovellanos, Gijón, Edificios y lugares de interés, Administración, Cultura y Ocio, Turismo, Recintos singulares"
"http://www.gijon.es/directorios/show/93-biblioteca-municipal-de-contrueces","93","es","fecha-actualizacion2014-01-22 12:02:22 +0100","http://www.gijon.es/data/images/f3/3118/250x188_v1_CM-contrueces.jpg","Biblioteca Municipal de Contrueces","985 185 114","bibliotecacontrueces@gijon.es","http://bibliotecas.gijon.es/","Lunes a viernes de 9.00 a 20.00 h. Julio y agosto de 9.00 a 15.00 h.","<p><strong>Biblioteca:</strong> Sala de lectura. Sección adultos (18 puestos). Prensa y revistas (18 puestos). Sección infantil y juvenil (18 puestos). Bebeteca. Sección Asturiana. Centros de interés: Cómic. Préstamo de libros, discos, revistas, cd-rom, vídeo y dvd. Préstamo interbibliotecario. Información bibliográfica y de referencia. Actividades de animación a la lectura: Bebé cuentos, La hora de los cuentos, Club de lectura, Programa de formación en el uso de la biblioteca para escolares. Consulta Catálogo Colectivo de la Red de Bibliotecas del Principado de Asturias. Consulta Red Municipal de Bibliotecas</p><p><strong>Mediateca:</strong> 13 puestos. Acceso gratuito a internet y cursos de formación digital</p><p>2 <strong>aulas</strong>polivalentes. Información, asesoramiento y recursos para las asociaciones y colectivos del barrio. </p><p><strong>Cajero ciudadano</strong></p>","C/Río Nalón, 2 C.P. 33210","43.521944 -5.664088","Bibliotecas, Bibliotecas, 2010, Gijón, Edificios Municipales, Cajeros Ciudadanos, Mediatecas, Zona Wifi, Administración, Comunicaciones, Cultura y Ocio"
"http://www.gijon.es/directorios/show/92-biblioteca-de-el-llano","92","es","fecha-actualizacion2014-01-22 12:02:22 +0100","http://www.gijon.es/data/images/f0/f4/46634/3072x2304_v1_BiblioLlano.jpg","Biblioteca de El Llano","985 185 248","<a title="Ir a bibliotecallano@gijon.es " href="http://bibliotecallano@gijon.es">bibliotecallano@gijon.es</a>","http://bibliotecas.gijon.es","Lunes a sábado de 9.00 a 20.00 h","Ofrece diversos servicios y dispone de diferentes equipamientos tales como:<br/><ul><li>Sala de estudio. Con capacidad para 120 personas </li><li>Sala de lectura </li><li>Sección adultos </li><li>Sección infantil y juvenil </li><li>Biblioteca para padres y madres </li><li>Sección Asturiana </li><li>Centros de interés: Oposiciones y empleo, Manualidades, Biblioteca de Padres, Letra Grande. Selectividad, Idiomas, Librodisco, Autoayuda</li><li>Prensa y revistas.  </li><li>Préstamo de libros, discos, revistas, cd-rom, vídeo y dvd<br/></li><li>Préstamo interbibliotecario </li><li>Información bibliográfica y de referencia </li><li>Actividades de animación a la lectura: Bebé-cuentos, La hora de los cuentos, Expocuentos, Club de Lectura, Taller de Creación Literaria y Programa de Formación en el Uso de la Biblioteca para Escolares (cita previa concertada) </li><li>Consulta Catálogo Colectivo de la Red de Bibliotecas del Principado de Asturias </li><li>Consulta Red Municipal de Bibliotecas </li><li>Mediateca (16 puestos): acceso gratuito a Internet y cursos de formación digital</li></ul>","Centro Municipal Integrado El Llano - c/Río de Oro, 37 - 33209","43.527246 -5.663562","Bibliotecas, Bibliotecas, Servicios Municipales, Mediatecas, Zona Wifi, Administración, Comunicaciones, Cultura y Ocio"
"http://www.gijon.es/directorios/show/91-biblioteca-municipal-de-el-coto","91","es","fecha-actualizacion2014-01-22 12:02:22 +0100","http://www.gijon.es/data/images/f3/3115/250x188_v1_coto.jpg","Biblioteca Municipal de El Coto","985 181 733","bibliotecacoto@gijon.es","http://bibliotecas.gijon.es","Lunes a viernes de 9.00 a 20.00 h","<p>Ofrece diversos servicios y dispone de diferentes equipamientos tales como:</p><ul><li>Sala de lectura. </li><li>Sección adultos. </li><li>Sección infantil y juvenil. </li><li>Biblioteca para padres y madres. Sección Asturiana. Sección local. </li><li>Centros de interés: Novela negra, Manualidades, Viajes, Cine, Deportes. </li><li>Prensa y revistas. Préstamo de libros, discos, revistas, cd-rom, vídeo y dvd. </li><li>Préstamo interbibliotecario. </li><li>Información bibliográfica y de referencia. </li><li>Actividades de animación a la lectura: La hora de los cuentos, Club de lectura, Programa de formación en el uso de la biblioteca para escolares. Cita previa concertada. </li><li>Consulta Catálogo Colectivo de la Red de Bibliotecas del Principado de Asturias. </li><li>Consulta Red Municipal de Bibliotecas. </li><li>Mediateca (10 puestos): acceso gratuito a Internet y cursos de formación digital. Biblioteca Cervantina.<br/></li></ul>","Centro Municipal de El Coto - Plaza de la República, s/n. - 33204","43.533438 -5.648874","Bibliotecas, Servicios Municipales, Administración, Cultura y Ocio"
"http://www.gijon.es/directorios/show/82-biblioteca-de-la-calzada","82","es","fecha-actualizacion2014-01-22 12:02:22 +0100","http://www.gijon.es/data/images/f3/3069/250x333_v1_ateneo.jpg","Biblioteca de La Calzada","985 181 411","985 301 198","bibliotecacalzada@gijon.es","http://bibliotecas.gijon.es","Lunes a sábado de 9.00 a 20.00 h","Ofrece diversos servicios y dispone de diferentes equipamientos tales como: <br/><ul><li>Sala de lectura. </li><li>Sección adultos. </li><li>Sección infantil y juvenil. </li><li>Biblioteca para padres y madres. </li><li>Bebeteca. </li><li>Sección Asturiana. </li><li>Centros de interés: Fácil de leer, Divulgación científica, Oposiciones y empleo, Cómic, Viajes, Idiomas. </li><li>Prensa y revistas. </li><li>Préstamo de libros, discos, revistas, cd-rom, vídeo y dvd. </li><li>Préstamo interbibliotecario. </li><li>Información bibliográfica y de referencia. </li><li>Actividades de animación a la lectura: Bebé cuentos, La hora de los cuentos, Club de lectura juvenil, Club de lectura, Programa de formación en el uso de la biblioteca para escolares (cita previa concertada). </li><li>Consulta Catálogo Colectivo de la Red de Bibliotecas del Principado de Asturias. </li><li>Consulta Red Municipal de Bibliotecas . </li><li>Mediateca (14 puestos): Acceso gratuito a Internet y cursos de formación digital.</li></ul>","C/Ateneo Obrero de La Calzada, 1 - C/ Ateneo Obrero de La Calzada, 1 CP 33202","43.539236 -5.694708","Bibliotecas, Bibliotecas, Servicios Municipales, Administración, Cultura y Ocio"
"http://www.gijon.es/directorios/show/80-casa-consistorial","80","es","fecha-actualizacion2015-05-12 13:12:51 +0200","http://www.gijon.es/data/images/f2/2920/150x113_v1_consitorial.jpg","Casa Consistorial","985 181 111","985 181 182","http://www.gijon.es/","Autor:Andrés Coello realizó el proyecto y Luis Céspedes, primero, y Lucas Mª Palacio dirigieron las obras con algunas modificaciones sobre dicho proyecto.<br/>Fecha: 1861-65.<br/>Se debe a un proyecto del arquitecto Andrés Coello aunque con algunas modificaciones de los técnicos que dirigieron las obras, Luis Céspedes, primero, y Lucas Mª Palacio, después. Es un bloque cúbico de tres plantas situado en una plaza porticada inconclusa por una de sus crujías. La primera planta tiene un amplio balcón de balaustrada y cuatro amplias ventanas.<br/>La segunda planta no muestra separación con la anterior y ambas están recorridas por dobles pilastras con capiteles compuestos. Está rematada por una cornisa, por encima de la cual la recorre una balaustrada, rematada por un frontón semicircular donde se encuentra el reloj y una torreta con el escudo de la ciudad. De carácter historicista, remarcado por la plaza porticada donde se localiza, ha sido remodelado en el año 2002.","43.545041 -5.662098","Edificios Municipales, Gijón en el mundo, Gijón, Zona Wifi, Administración, Comunicaciones"
"http://www.gijon.es/directorios/show/72-centro-de-formacion-ocupacional","72","es","fecha-actualizacion2017-02-08 16:44:41 +0100","http://www.gijon.es/data/images/f2/2587/350x240_v1_laspalmeras.JPG","Centro de Formación Ocupacional","Edificio destinado tanto a actividades formativas del Principado de Asturias como a las promovidas por el Ayuntamiento de Gijón. Segunda planta gestionada por el Centro Municipal de Empresas de Gijón, S.A. (IMPULSA).","Edificio las Palmeras C/Aserradores S/N","43.518654 -5.679816","Edificios Municipales, Impulsa Empresas, Administración"
"http://www.gijon.es/directorios/show/71-edificio-asturias","71","es","fecha-actualizacion2014-01-22 12:02:22 +0100","http://www.gijon.es/data/images/f2/2593/500x236_v1_edificio_asturias_exterior_500.jpg","Edificio Asturias","984 84 71 28","Ayuntamiento de Gijón. Alquiler de oficinas o laboratorios para empresas ya consolidadas. Dispone de cafetería.","C/ Jimena Fernández de la Vega, 140 - 33203 Gijón","Edificios Municipales, Impulsa Empresas, PCTG, Administración"
"http://www.gijon.es/directorios/show/70-edificio-impulsa","70","es","fecha-actualizacion2017-02-08 16:45:06 +0100","http://www.gijon.es/data/images/f2/2589/130x102_v1_residencias_2.gif","Edificio IMPULSA","984 84 71 00","985 09 12 13","impulsa@gijon.es","http://impulsa.gijon.es","Información: De 09:00 a 14:00 y de 16:30 a 18:30 de lunes a jueves. De 09:00 a 14:00 los viernes. Julio y Agosto: De 09.00 a 14.00 de lunes a viernes.","Centro Municipal de Empresas de Gijón (IMPULSA) <br/>Registro Mercantil de Asturias: Tomo 1.515, Libro 0, Secc. 8, Folio 134, Hoja O-7.909.<br/>C.I.F.: A-33772658.<br/>Centro tecnológico. Edificio de alquiler de oficinas y laboratorios para la instalación de empresas de recientecreación.","Parque Científico Tecnológico de Gijón. C/ Los Prados, 166 - 33203 Gijón","43.523726 -5.612375","Edificios Municipales, Servicios Municipales, Administración"
"http://www.gijon.es/directorios/show/16-parque-cientifico-tecnologico-de-gijon","16","es","fecha-actualizacion2017-02-09 09:26:00 +0100","http://www.gijon.es/data/images/f2/2499/300x189_v1_vista_general_pctg.JPG","Parque Científico Tecnológico de Gijón","984 84 71 00","impulsa@gijon.es","http://impulsa.gijon.es","Ayuntamiento de Gijón. IMPULSA. Centro Municipal de Empresas de Gijón.<br/>Apoyo a la creación e instalación de empresas de carácter tecnológico.","C/ Luis Moya Blanco nº 82 33203 - Gijon","43.522512 -5.613491","Servicios Municipales, Impulsa Empresas, PCTG, Administración"
"http://www.gijon.es/directorios/show/14-edificio-cristasa","14","es","fecha-actualizacion2017-02-16 13:34:16 +0100","http://www.gijon.es/data/images/f2/2449/220x162_v1_cristasa_220.jpg","Edificio Cristasa","984 84 71 00","985 30 82 28","impulsa@gijon.es","http://impulsa.gijon.es","De lunes a viernes de 9:00 a 14:00 y de 16:30 a 18:30, viernes tarde cerrado","Centro Municipal de Empresas de Gijón (IMPULSA) <br/>Registro Mercantil de Asturias: Tomo 1.515, Libro 0, Secc. 8, Folio 134, Hoja O-7.909.<br/>C.I.F.: A-33772658.<br/>Espacio de oficinas, despachos y talleres en alquiler para la creación y desarrollo de nuevas iniciativas empresariales.","Av. Argentina, 132. 33213 - Gijón","43.538924 -5.704777","Edificios Municipales, Impulsa Empresas, Centro Municipal de Empresas, Cristasa, Empresas, Administración"
"http://www.gijon.es/directorios/show/10-centro-municipal-integrado-de-gijon-sur","10","es","fecha-actualizacion2017-07-12 09:58:07 +0200","http://www.gijon.es/data/images/f2/2545/250x188_v1_CMI-gijonsur.jpg","Centro Municipal Integrado de Gijón-Sur","+ 34 985 181 640","<strong></strong>+ 34 985 181 639","cmigijonsur@gijon.es","http://www.gijon.es","Lunes a sábados: 8:00 a 22:00 horas. Domingos de 8:00 a 15:00 horas.","<p style="text-align: justify;">El nacimiento de este centro integrado supuso dotar a la zona Sur de un conjunto de equipamientos que demandaba por su gran crecimiento urbanístico y rejuvenecimiento demográfico. Su arquitectura demuestra a las claras la noción de integración, pues comparte, en el mismo edificio, usos administrativos, deportivos (con pabellón y piscina) y socioculturales, en un gran complejo cívico que es ya una referencia para el barrio y, en algunos servicios, para toda la ciudad. Nuevamente la idea de coordinar y acercar a cualquier residencia todos los servicios descentralizados por el ayuntamiento, visibles en una destacada arquitectura</p><p style="text-align: justify;">Dispone de: oficina de atención a la ciudadanía, concejalía de distrito, Servicios Sociales, biblioteca, Mediateca (12 puestos), sala de estudio (60 puestos), salón de actos, aulas, salas polivalentes, sala de exposiciones, pabellón deportivo, piscina, sauna, gimnasio, canchas de squash y cajero ciudadano</p><p style="text-align: justify;" align="center"><img src="/data/images/f0/f4/42494/640x407_v1_GijonSurteatro.JPG" alt="suteatro" class="nicedit_sin-alinear magnify" height="407" width="640" width="640" height="407"/><br/></p><p><b><a href="http://issuu.com/agendasdeloscentrosintegrados/docs/red_de_centros_municipales_integrad" title="Ir a http://issuu.com/agendasdeloscentrosintegrados/docs/red_de_centros_municipales_integrad" rel="external">Espacios del Centro Municipal Integrado Gijón-Sur (ver espacios).</a></b><br/></p><div style="text-align: center;"><br/></div><table><thead><tr><th style="text-align: center;">Espacio<br/></th><th style="text-align: center;">Puestos y aforo<br/></th></tr></thead><tbody><tr><td>Salón de actos<br/></td><td style="text-align: right;">350</td></tr><tr><td>Aulas 1 a 5<br/></td><td style="text-align: right;">20</td></tr><tr><td>Aula 6/7<br/></td><td style="text-align: right;">70<br/></td></tr><tr><td>Sala de estudio<br/></td><td style="text-align: right;">60<br/></td></tr><tr><td>Biblioteca<br/></td><td style="text-align: right;">Adultos: 25<br/>Infantil: 25<br/>Lectura de prensa: 32<br/></td></tr><tr><td>Mediateca<br/></td><td style="text-align: right;">12<br/></td></tr><tr><td style="vertical-align: top;">Sala de exposiciones<br/></td><td style="vertical-align: top; text-align: right;">180 m2<br/></td></tr><tr><td>Piscina<br/></td><td style="text-align: right;">Vaso grande: 104 usuarios máximo.<br/>Vaso pequeño: 25 usuarios máximo.<br/>No hay graderío.<br/></td></tr><tr><td>Polideportivo<br/></td><td style="text-align: right;">Grada: 300.<br/>Pista: en caso de eventos en pista hasta 700.<br/></td></tr><tr><td style="vertical-align: top;">Gimnasio<br/></td><td style="vertical-align: top; text-align: right;">26<br/></td></tr><tr><td style="vertical-align: top;">Sauna<br/></td><td style="vertical-align: top; text-align: right;">4<br/></td></tr><tr><td style="vertical-align: top;">Canchas de Squash<br/></td><td style="vertical-align: top; text-align: right;">4 (2 pistas)<br/></td></tr></tbody></table>","C/ Ramón Areces, 7. 33211 Gijón","43.524769 -5.678161","Edificios Municipales, Cajeros Ciudadanos, Servicio Atención a la Ciudadanía, Servicios Municipales, Servicios Sociales, Bibliotecas, Teatro, Sala de Exposiciones, Complejos Deportivos, Pabellones, Piscinas Municipales, Pistas Polideportivas, Servicios municipales, Centros culturales, Zona Wifi, Otras salas de congresos, Administración, Comunicaciones, Cultura y Ocio, Deporte, Turismo"
