url,identificador,locale,send,foto,nombre,telefono,fax,correo-electronico,web,horario,descripcion,direccion,localizacion,categorias
"http://www.gijon.es/directorios/show/10199-hat-trick-molinon","10199","es","fecha-actualizacion2017-07-24 11:26:00 +0200","http://www.gijon.es/data/images/f0/f9/97170/190x110_v1_fotohattrick.png","Hat Trick Molinón","+34 984 060 958 - Reservas: +34 984 240 647","hattrickmolinon@gmail.com","<b>Domingo a jueves:</b> de 13:00 a 16:00 horas y de 20:00 a 23:00 horas<br/><b>                                                      Viernes y sábado:</b> de 13:00 a 16:00 horas y de 20:00 a 24:00 horas","Situado en los bajos del emblemático estadio de El Molinón, el restaurante Hat Trick ofrece <b>cocina elaborado con los productos más frescos del Cantábrico</b>.<br/><br/><h3>Especialidades</h3>Arroz meloso con cigalitas y zamburiñas.<br/>Cazuela de chipirones con almejas.<br/>Carrilleras de ibérico a la sidra.<br/> <br/> <br/> ","Estadio de El Molinón, Grada Sur","43.535724 -5.637225","Restaurantes y sidrerías, Congresos, Guia gastronómica, Bares y cafés, Club de Empresas de Turismo de Negocios, Turismo"
"http://www.gijon.es/directorios/show/10185-carling-goal","10185","es","fecha-actualizacion2017-07-24 11:20:33 +0200","http://www.gijon.es/data/images/f0/f9/97169/190x110_v1_carlinggoal.jpg","Carling Goal","+34 654 521 519","carlinggoal@gmail.com","Carling Goal se ha convertido en uno de los locales de referencia en Gijón, por su excelente ubicación, en la <b>Puerta 14 del estadio El Molinón</b>, por los eventos que realiza a lo largo del año (Quedadas Moteras, Jornadas Gastronómicas Mexicanas, Japonesas, Veladas de Boxeo), por ser punto de encuentro de la afición del <b>Sporting de Gijón</b> y por la calidad de sus productos.<br/><br/>Cuenta con un amplio aparcamiento frente a sus instalaciones, está muy cerca del <b>Recinto Ferial Luis Adaro</b>, el Parque de &quot;Isabel La Católica&quot;, a 100 metros de la <b>playa de San Lorenzo </b>y muy cercano a una amplia <b>oferta hotelera</b>.<br/><br/>Contacto: Jana Suárez","Estadio El Molinón, Puerta 14","43.536174 -5.637425","Restaurantes y sidrerías, Congresos, Guia gastronómica, Bares y cafés, Club de Empresas de Turismo de Negocios, Turismo"
"http://www.gijon.es/directorios/show/9965-paparazzi-playa","9965","es","fecha-actualizacion2014-07-24 08:59:28 +0200","http://www.gijon.es/data/images/f0/f6/65589/267x255_v1_paparazziplaya.JPG","Paparazzi Playa","<p>984084445 – 691762054</p>","info@paparazziplaya.com","www.paparazziplaya.com","En Gijón, entre el puerto deportivo y la Playa de Poniente, una alternativa diferente de ocio asturiano.<br/>Fusión entre Gastronomía, de la mano de Alejandro Urrutia, coctelería y música, disfrutando de su terrada de 400 m con las mejores vistas de Gijón.<br/>Salones privados para grupos reducidos y salones para eventos.<br/><br/>Precio desde 14 €<br/>Cocina cerrada Domingos noche.","Edificio Talasoponiente – Planta 3<br/>Playa de Poniente – Dique Este – 33206 Gijón","43.544243 -5.669031","Empresas de Ocio, Restaurantes y sidrerías, Bares y cafés, Turismo, 2014, Guia gastronómica, Cultura y Ocio, Turismo"
"http://www.gijon.es/directorios/show/9736-ocean","9736","es","fecha-actualizacion2014-01-22 12:06:32 +0100","http://www.gijon.es/data/images/f0/f5/57682/800x600_v1_ocean.JPG","Ocean","Ubicada en la zona del puerto, esta terraza ofrece numerosas copas premium y cócteles. Además, dispone de una pequeña carta donde podemos encontrar sushi, preparación de wok, sandwiches y hamburguesas.<br/>Dispone además de menú de cenas con barra libre de mojitos.<br/><br/><h4 style="font-weight: bold;">Descuento del 15% con la tarjeta turística Gijón Card <br/></h4>","Calle de Rodríguez San Pedro, Gijón","43.543886 -5.666934","Bares y cafés, Gijón card. Tarjeta turística, Gijón Card, Turismo"
"http://www.gijon.es/directorios/show/9728-bomarzo","9728","es","fecha-actualizacion2014-01-22 12:06:32 +0100","http://www.gijon.es/data/images/f0/f5/57527/720x480_v1_bomarzo.JPG","Bömarzo","984 195 503","<a href="http://bomarzolaguia@gmail.com" title="Ir a bomarzolaguia@gmail.com" rel="external">bomarzolaguia@gmail.com</a>","L-J: 8 a 18 h. V: 8 a 24h. S: 12 a 24h. D: 12 a 16 h.","Cafetería y restaurante, servimos desayunos y comidas, con menú del día todos los días de la semana a 15 €, menos domingos y festivos a 18 €. Tenemos platos como: arroz meloso con langostinos, manzana rellena de marisco en salsa de oricios, carrileras de buey al vino tinto, ensaladas,...<br/><br/>Un ambiente muy acogedor y hogareño.","C/ Dionisio de la Huerta 103, 33203 - Dionisio de la Huerta 103, 33203 (La Guía)","43.531612 -5.632167","Bares y cafés, Guia gastronómica, Turismo"
"http://www.gijon.es/directorios/show/9669-policia-local-hermanos-felgueroso","9669","es","fecha-actualizacion2014-03-11 14:42:19 +0100","Policía Local (Hermanos Felgueroso)","43.535187 -5.658587","Zona Wifi, Boleras, Escuelas Infantiles, Sindicatos, Estaciones de Servicio, Bares y cafés, Edificios y lugares de interés, Puerto deportivo, Saboreando - Restaurantes y sidrerías, Repostería, Comunicaciones, Deporte, Educación, Otros, Movilidad, Turismo"
"http://www.gijon.es/directorios/show/9668-parque-de-la-serena","9668","es","fecha-actualizacion2014-03-11 14:43:39 +0100","Parque de La Serena","43.530505 -5.664557","Zona Wifi, Boleras, Escuelas Infantiles, Sindicatos, Estaciones de Servicio, Bares y cafés, Edificios y lugares de interés, Puerto deportivo, Saboreando - Restaurantes y sidrerías, Comunicaciones, Deporte, Educación, Otros, Movilidad, Turismo"
"http://www.gijon.es/directorios/show/9667-playa-de-san-lorenzo-piles","9667","es","fecha-actualizacion2014-03-11 14:41:08 +0100","Playa de San Lorenzo (Piles)","43.540398 -5.646737","Zona Wifi, Boleras, Escuelas Infantiles, Sindicatos, Estaciones de Servicio, Bares y cafés, Edificios y lugares de interés, Puerto deportivo, Comunicaciones, Deporte, Educación, Otros, Movilidad, Turismo"
"http://www.gijon.es/directorios/show/9666-playa-de-san-lorenzo-nautico","9666","es","fecha-actualizacion2014-03-11 14:40:26 +0100","Playa de San Lorenzo (Naútico)","43.542731 -5.660169","Zona Wifi, Boleras, Escuelas Infantiles, Sindicatos, Estaciones de Servicio, Bares y cafés, Edificios y lugares de interés, Comunicaciones, Deporte, Educación, Otros, Movilidad, Turismo"
"http://www.gijon.es/directorios/show/9665-plaza-del-humedal","9665","es","fecha-actualizacion2014-03-11 14:39:05 +0100","Plaza del Humedal","43.539628 -5.665979","Zona Wifi, Boleras, Escuelas Infantiles, Sindicatos, Estaciones de Servicio, Bares y cafés, Comunicaciones, Deporte, Educación, Otros, Movilidad, Turismo"
"http://www.gijon.es/directorios/show/9643-cafe-bar-la-tertulia","9643","es","fecha-actualizacion2014-01-22 12:06:29 +0100","Café Bar La Tertulia","C/ Emilio Tuya, 34","43.539228 -5.649515","Bares y cafés, Turismo"
"http://www.gijon.es/directorios/show/9641-cerveceria-ipa","9641","es","fecha-actualizacion2014-05-13 14:18:35 +0200","http://www.gijon.es/data/images/f0/f5/53048/960x632_v1_IPA.jpg","Cervecería IPA","http://ipabar.es/","De lunes a jueves y domingos de 18.30 – 23.00 h / Viernes y sábados de 18.30 – 01.00 h","Cuando nació <strong>IPA La cervecería del Millón de Ibus</strong> teníamos claro que la IPA (<em>India Pale Ale</em>), con su característico<em> amargor</em>, iba a tener un gran protagonismo. Durante muchos años, la reina de las <em>cervezas </em>que se comercializaban en<em> Asturies</em> era la <em>Belga</em>, mientras que en los últimos tiempos algunos cerveceros han apostado por ofrecer a sus clientes nuevos sabores y cervezas de mucha mayor complejidad y sabor. Nosotros todo lo que sabemos, tenemos que empezar agradeciéndoselo a la desaparecida cervecería<em> Malthaser</em> (finales de la década de 1990), pero sobre todo al gran conocimiento y experiencia de nuestro amigo<strong> Andrés Torre</strong>, que tiene la que para nosotros es sin lugar a dudas la mejor cervecería de Asturies, “<em>El Lúpulo Feroz</em>”. De su mano hemos aprendido y disfrutado de auténticas joyas y sin él hubiese sido imposible esta carta y sobre todo este proyecto. Hemos abierto en<em> Xixón</em> por fin para que la<strong> Y</strong> de los<strong> IBUS</strong> fuese posible, ahora ya hay tres cervecerías en las que los amantes de lo amargo, del sabor y de la calidad podrán disfrutar en las tres ciudades: El<em> Cabanón</em>en Avilés, l<em>El Lúpulo Feroz</em> en <em>Uvieu</em> e<strong> IPA</strong>en <em>Xixón</em>.","Marqués de Casa Valdés, 14 bajo","43.540328 -5.651752","Bares y cafés, Guia gastronómica, Turismo, Gijón sin Gluten, Gluten"
"http://www.gijon.es/directorios/show/9635-el-rincon-del-mar","9635","es","fecha-actualizacion2014-01-22 12:06:29 +0100","http://www.gijon.es/data/images/f0/f5/52903/480x270_v1_bar.jpg","El Rincón del Mar","655409956","cerveceriaelrincondelmar@hotmail.com","Lunes a viernes de 8.00h a 2.00h. Fines de semana y festivos de 9.30h a 3.00h.","Local con terraza situado enfrente de la Playa San Lorenzo, con promociones de desayunos y una extensa carta de cervezas de importación. Cuenta con un rincon árabe donde se sirven cachimbas y té marroquí.<br/>Ofrece fiestas temáticas y conciertos en directo. Bar orientado principalmetne al jazz.","C/ Ezqurdia 31","Bares y cafés, Pubs, Guia gastronómica, Turismo"
"http://www.gijon.es/directorios/show/9631-cafe-amalia","9631","es","fecha-actualizacion2014-01-22 12:06:29 +0100","http://www.gijon.es/data/images/f0/f5/52904/960x720_v1_barra.JPG","Café Amalia","984 39 58 21","Ambiente agradable y espacio abierto a la cultura. Ven a disfrutar de un buen pincheo, a degustar buenos vinos y embutidos de Güijuelo. Además podrás empaparte de buen arte, gracias a la colaboración de distintos artistas que de forma habitual expondrán en nuestro local. ¡¡UNA COMBINACIÓN PERFECTA!!!<br/>Más información en su <a href="https://www.facebook.com/pages/El-Caf%C3%A9-de-Amalia-Vinacoteca/380006612046487" title="Ir a https://www.facebook.com/pages/El-Caf%C3%A9-de-Amalia-Vinacoteca/380006612046487" rel="external">Facebook</a>.","Calle Campona 8 33211","43.529168 -5.680125","Bares y cafés, Guia gastronómica, Turismo"
"http://www.gijon.es/directorios/show/9359-cafe-del-coto","9359","es","fecha-actualizacion2014-01-22 12:06:20 +0100","http://www.gijon.es/data/images/f0/f4/41783/500x375_v1_cafedelcoto.jpg","Café del Coto","Plaza de la República s/n (CMI El Coto) - 33204 Gijón","43.533414 -5.649668","Bares y cafés, Guia gastronómica, Turismo"
"http://www.gijon.es/directorios/show/9357-pub-restaurante-geographic","9357","es","fecha-actualizacion2014-01-22 12:06:20 +0100","http://www.gijon.es/data/images/f0/f4/41780/169x159_v1_geographic.JPG","Pub Restaurante Geographic","http://www.pubgeographic.com/","L - J: 17:00 - 02:00 h.<br/>V y S: 17:00 - 05:00 h.<br/>D: 17:00 - 02:00 h.","Plaza Villamanín (Somió) - 33203 Gijón","43.53434 -5.621098","Restaurantes y sidrerías, Bares y cafés, Pubs, Guia gastronómica, Turismo"
"http://www.gijon.es/directorios/show/9356-cafeteria-el-quinto-vino","9356","es","fecha-actualizacion2014-01-22 12:06:19 +0100","Cafetería EL Quinto Vino","Avda. Manuel Llaneza, 50 - 33208 Gijón","Bares y cafés, Guia gastronómica, Turismo"
"http://www.gijon.es/directorios/show/9355-bodega-la-parrala","9355","es","fecha-actualizacion2014-01-22 12:06:19 +0100","Bodega La Parrala","984 39 35 19","Avda. del Mar Cantábrico, 10 - 33204 Gijón","43.523527 -5.653563","Bares y cafés, Vinos y Tapas, Guia gastronómica, Turismo"
"http://www.gijon.es/directorios/show/9354-la-general-compania-del-norte","9354","es","fecha-actualizacion2014-01-22 12:06:19 +0100","La General Compañía del Norte","Salustio regueral, 5 - 33206 Gijón","43.542942 -5.664657","Bares y cafés, Guia gastronómica, Turismo"
"http://www.gijon.es/directorios/show/9353-cafeteria-restaurante-ebano","9353","es","fecha-actualizacion2014-01-22 12:06:19 +0100","http://www.gijon.es/data/images/f0/f4/41778/270x203_v1_ebano.jpg","Cafetería Restaurante Ébano","984 39 98 92","info@cafeteriarestauranteebano.es","http://cafeteriarestauranteebano.pyme10.com/cafe-ebano_59967.html","Desde las 07:00 h.","Matemático Pedrayes, 3 - 33207 Gijón","Restaurantes y sidrerías, Bares y cafés, Guia gastronómica, Turismo"
"http://www.gijon.es/directorios/show/9352-cerveceria-la-vieja-escuela","9352","es","fecha-actualizacion2014-01-22 12:06:19 +0100","Cervecería La Vieja Escuela","984 39 83 47","Avda. de Roces, 950 - 33211 Gijón","43.520311 -5.682391","Bares y cafés, Guia gastronómica, Turismo"
"http://www.gijon.es/directorios/show/9350-bodega-jayla","9350","es","fecha-actualizacion2014-01-22 12:06:19 +0100","http://www.gijon.es/data/images/f0/f4/41539/800x526_v1_bodega-jayla.jpg","Bodega Jayla","985 34 33 75","Decano Prendes Pando, 10 - 33207 Gijón","43.537 -5.666266","Restaurantes y sidrerías, Bares y cafés, Guia gastronómica, Turismo"
"http://www.gijon.es/directorios/show/9349-zero-bar","9349","es","fecha-actualizacion2014-01-22 12:06:19 +0100","http://www.gijon.es/data/images/f0/f4/41507/600x341_v1_zerobar.jpg","Zero Bar","984 19 20 33","De 12:00 h. a cierre","Bar de apertura diaria, desde las 12 del mediodia. Manteniendo un buen ambiente todas las tardes de la semana y las noches del jueves, viernes y sábado. Música moderna y muy bailable. Actuaciones y eventos de todo tipo (fiestas, despedidas, cumpleaños, actos culturales, etc.) a lo largo de todo el año.","Avda. Pablo Iglesias, 84 - 33204 Gijón","43.535242 -5.648853","Bares y cafés, Pubs, Música directo, Turismo"
"http://www.gijon.es/directorios/show/9342-el-cafetin-de-luci","9342","es","fecha-actualizacion2014-01-22 12:06:19 +0100","http://www.gijon.es/data/images/f0/f4/40991/257x237_v1_elcafetindeluci.JPG","El Cafetín de Luci","984 49 17 47","info@elcafetindeluci.com","http://www.elcafetindeluci.com/index.php/id/3/claves/el-cafetin-de-luci-gijon-asturias-cafeteria-cafe-promociones-productos-desayunos-meriendas","Cigarreres, 23 - 33211 Gijón","43.52047 -5.677885","Bares y cafés, Guia gastronómica, Turismo"
"http://www.gijon.es/directorios/show/9341-babel-cocktail-bar","9341","es","fecha-actualizacion2014-01-22 12:06:19 +0100","http://www.gijon.es/data/images/f0/f4/40990/420x385_v1_babel.JPG","Babel Cocktail Bar","985 31 93 32 / 696 15 20 59","De 20:00 a 00:00 h.","Libertad, 2 - 33206 Gijón","43.541653 -5.664721","Bares y cafés, Guia gastronómica, Turismo"
"http://www.gijon.es/directorios/show/9340-double-coffees-cocktails","9340","es","fecha-actualizacion2014-01-22 12:06:19 +0100","http://www.gijon.es/data/images/f0/f4/40989/183x200_v1_double.JPG","Double Coffees &amp; Cocktails","984 39 37 22 / 985 39 28 09<strong></strong>","comercial@doublegijon.com","L-D de 07:00 hasta cierre","Pintor Manuel Medina, 29-31 - 33210Gijón<br/> ","43.521256 -5.668551","Bares y cafés, Pubs, Guia gastronómica, Turismo"
"http://www.gijon.es/directorios/show/9339-cafe-restaurante-el-tostadero","9339","es","fecha-actualizacion2014-01-22 12:06:19 +0100","http://www.gijon.es/data/images/f0/f4/40988/177x160_v1_tostadero.jpeg","Café-Restaurante El Tostadero","985 33 32 78","info@tostaderoplaya.com","http://www.tostaderoplaya.com/","<p>Avda. José García Bernardo, 66 - 33203 Gijón<br/></p>","43.541748 -5.644572","Restaurantes y sidrerías, Bares y cafés, Guia gastronómica, Turismo"
"http://www.gijon.es/directorios/show/9338-cafeteria-la-caracola","9338","es","fecha-actualizacion2014-01-22 12:06:19 +0100","http://www.gijon.es/data/images/f0/f4/40987/800x536_v1_caracola.jpg","Cafetería La Caracola","Jacobo Olañeta, 2 - 33202 Gijón","43.541956 -5.660349","Bares y cafés, Guia gastronómica, Turismo"
"http://www.gijon.es/directorios/show/9337-cafe-180-grados","9337","es","fecha-actualizacion2014-01-22 12:06:19 +0100","Café 180 Grados","985 31 93 32","Avda. gaspar García Laviana, 75 - 33209 Gijón","43.525682 -5.664903","Bares y cafés, Guia gastronómica, Turismo"
"http://www.gijon.es/directorios/show/9336-ca-beleno","9336","es","fecha-actualizacion2014-01-22 12:06:19 +0100","http://www.gijon.es/data/images/f0/f4/40866/447x514_v1_cabeleno.jpg","Ca Beleño","985 35 97 81","http://www.cabeleno.com/","A partir de las 17:00 h.","Rodríguez Sampedro, 39 - 33206 Gijón","43.541884 -5.669302","Bares y cafés, Pubs, Guia gastronómica, Turismo"
"http://www.gijon.es/directorios/show/9316-cafe-bar-alambique","9316","es","fecha-actualizacion2014-01-22 12:06:18 +0100","http://www.gijon.es/data/images/f0/f4/40079/863x470_v1_alambique.jpg","Café - Bar Alambique","985 34 82 82","http://www.cafealambique.com/","Avda. de la Constitución, 52 - 33207 Gijón","43.534527 -5.66883","Bares y cafés, Guia gastronómica, Turismo"
"http://www.gijon.es/directorios/show/9315-cafe-hoyo-19","9315","es","fecha-actualizacion2014-01-22 12:06:18 +0100","http://www.gijon.es/data/images/f0/f4/40077/538x510_v1_hoyo19.JPG","Café Hoyo 19","984 39 50 30","Corín Tellado, 5 - 33204 Gijón","43.527992 -5.641687","Bares y cafés, Guia gastronómica, Turismo"
"http://www.gijon.es/directorios/show/9312-restaurante-la-darsena","9312","es","fecha-actualizacion2014-01-22 12:06:18 +0100","http://www.gijon.es/data/images/f0/f4/40074/220x183_v1_ladarsena.jpg","Restaurante La Dársena","985 35 30 24 / 985 35 08 66","Claudio Alvargonzález, 10 - 33201 Gijón","43.546162 -5.664882","Restaurantes y sidrerías, Bares y cafés, Guia gastronómica, Turismo"
"http://www.gijon.es/directorios/show/9307-la-taberna-gigia","9307","es","fecha-actualizacion2014-01-22 12:06:18 +0100","http://www.gijon.es/data/images/f0/f3/39838/960x720_v1_tabernagigia.jpg","La Taberna Gigia","984 49 04 19","http://tabernagigia.blogspot.com/","Óscar Olavarría, 8 - 33201","43.545888 -5.664276","Bares y cafés, Vinos y Tapas, Guia gastronómica, Turismo"
"http://www.gijon.es/directorios/show/9306-el-callejon-bar","9306","es","fecha-actualizacion2014-01-22 12:06:18 +0100","http://www.gijon.es/data/images/f0/f3/39868/179x96_v1_elcallejon.jpg","El Callejón Bar","Arzobispo Valdés, 1 - 33201","43.545222 -5.662972","Bares y cafés, Vinos y Tapas, Guia gastronómica, Turismo"
"http://www.gijon.es/directorios/show/9299-bar-ramon","9299","es","fecha-actualizacion2014-01-22 12:06:18 +0100","http://www.gijon.es/data/images/f0/f3/39755/251x292_v1_barramon.JPG","Bar Ramón","985 36 00 48","De lunes a sábado: 08:00 - 16:00 h.<br/>Domingo cerrado","Aguado, 40 - 33203","43.539843 -5.648081","Bares y cafés, Guia gastronómica, Turismo"
"http://www.gijon.es/directorios/show/9295-pulperia-o-pazo-do-paradela","9295","es","fecha-actualizacion2014-01-22 12:06:18 +0100","http://www.gijon.es/data/images/f0/f3/39723/167x203_v1_opazodoparadela.jpg","Pulpería O Pazo do Paradela","985 13 39 16","Especialidades gallegas: pulpo, lacón, cachelos, pimientos del padrón, tapas.<br/><br/>Cachopos: gallego, montañés, asturiano, leonés.","Emilio Tuya, 30","43.539139 -5.649668","Restaurantes y sidrerías, Bares y cafés, Guia gastronómica, Turismo"
"http://www.gijon.es/directorios/show/9291-cafe-vinateria-el-badulaque","9291","es","fecha-actualizacion2014-01-22 12:06:18 +0100","Café-Vinatería El Badulaque","686 38 25 54","Doctor Aquilino Hurlé, 24","43.539263 -5.647383","Bares y cafés, Vinos y Tapas, Guia gastronómica, Turismo"
"http://www.gijon.es/directorios/show/9289-mi-capricho","9289","es","fecha-actualizacion2014-01-22 12:06:18 +0100","Mi capricho","Doctor Aquilino Hurlé, 25","43.538369 -5.648467","Bares y cafés, Guia gastronómica, Turismo"
"http://www.gijon.es/directorios/show/9287-cafeteria-hurle-15","9287","es","fecha-actualizacion2014-01-22 12:06:18 +0100","http://www.gijon.es/data/images/f0/f3/39712/319x158_v1_hurle15.jpg","Cafetería Hurlé 15","985 36 54 87","Doctor Aquilino Hurlé, 15 - 33202","43.537708 -5.649003","Bares y cafés, Guia gastronómica, Turismo"
"http://www.gijon.es/directorios/show/9286-cafe-restaurante-de-mouzo","9286","es","fecha-actualizacion2014-01-22 12:06:18 +0100","http://www.gijon.es/data/images/f0/f3/39711/600x450_v1_demouzo.jpg","Café-Restaurante De Mouzo","984 04 24 24","restaurantedemouzo@hotmail.es","De 10:00 a 00:00 h.","Vinos, tapas, cocina creativa a la carta, menú del día, desayunos con bizcochos caseros y rosquillas.<br/><br/>Martes cerrado.","Menéndez y Pelayo, 10","43.538528 -5.652672","Restaurantes y sidrerías, Bares y cafés, Guia gastronómica, Turismo"
"http://www.gijon.es/directorios/show/9285-vinateria-el-bochinche","9285","es","fecha-actualizacion2014-01-22 12:06:18 +0100","http://www.gijon.es/data/images/f0/f3/39709/180x170_v1_bochinche.jpg","Vinatería El Bochinche","985 37 42 32","Manso, 18 - 33203","43.539699 -5.648628","Bares y cafés, Vinos y Tapas, Guia gastronómica, Turismo"
"http://www.gijon.es/directorios/show/9284-bar-ovinana","9284","es","fecha-actualizacion2014-01-22 12:06:18 +0100","Bar Oviñana","Piles, 15","43.538093 -5.647973","Bares y cafés, Guia gastronómica, Turismo"
"http://www.gijon.es/directorios/show/9283-vinateria-tienda-delicatessen-la-artesa-de-la-guela","9283","es","fecha-actualizacion2014-01-22 12:06:18 +0100","http://www.gijon.es/data/images/f0/f3/39707/900x600_v1_laartesadelaguela.jpg","Vinatería-Tienda Delicatessen La Artesa de la Güela","984  39 86 60","http://www.spanish-menu.com/restaurant_profile.php?UG_hodnota_id=90&amp;sn=5","Un lugar donde se puede degustar sus productos o llevárselos a casa. Los productos más destacados son ibéricos y embutidos de León (cecina, chorizo, jamón, salchichón), jamón serrano de Teruel con denominación de origen, quesos de cabra, oveja y manchego elaborados de forma tradicional, conservas de verduras, legumbres y hortalizas con denominación de origen.<br/><br/>Capacidad para hasta 80 personas.","Manso, 14 - 33202","43.539493 -5.648102","Tiendas gourmet, Bares y cafés, Guia gastronómica, Turismo"
"http://www.gijon.es/directorios/show/9279-cafe-santorini","9279","es","fecha-actualizacion2014-01-22 12:06:17 +0100","http://www.gijon.es/data/images/f0/f3/39702/251x201_v1_cafe.jpg","Café Santorini","Avda. Rufo Rendueles, 18","43.54006 -5.646922","Bares y cafés, Guia gastronómica, Turismo"
"http://www.gijon.es/directorios/show/9269-sal-y-azucar-salon-de-te","9269","es","fecha-actualizacion2014-07-23 11:52:02 +0200","http://www.gijon.es/data/images/f0/f3/39377/640x853_v1_sal%26azucar.jpeg","Sal y Azúcar, salón de té","985 13 04 01","Gloria Fuertes, 14 - 33204","43.525398 -5.650913","Bares y cafés, Guia gastronómica, Turismo"
"http://www.gijon.es/directorios/show/9266-vinateria-las-3-marias","9266","es","fecha-actualizacion2014-01-22 12:06:17 +0100","http://www.gijon.es/data/images/f0/f3/39372/170x170_v1_lastresmarias.JPG","Vinatería Las 3 Marías","649 435 226","<ul><li>Vinos, tapas, especialidad en tostas caseras.</li></ul>","Numa Gilhou, 16 - 33206","43.542016 -5.665901","Bares y cafés, Guia gastronómica, Turismo"
"http://www.gijon.es/directorios/show/9265-la-perla-del-norte","9265","es","fecha-actualizacion2014-01-22 12:06:17 +0100","http://www.gijon.es/data/images/f0/f3/39371/222x271_v1_la_perla_del_norte.jpg","La Perla del Norte","Calle del buen suceso, 2","43.543189 -5.66367","Bares y cafés, Guia gastronómica, Turismo"
"http://www.gijon.es/directorios/show/9264-cafeteria-san-rafael","9264","es","fecha-actualizacion2014-01-22 12:06:17 +0100","http://www.gijon.es/data/images/f0/f3/39369/300x118_v1_sanra.jpg","Cafetería San Rafael","985 38 94 53","Avenida Manuel Llaneza, 49 - 33208","43.534904 -5.665032","Bares y cafés, Guia gastronómica, Turismo"
"http://www.gijon.es/directorios/show/9263-cafeteria-manacor","9263","es","fecha-actualizacion2014-01-22 12:06:17 +0100","http://www.gijon.es/data/images/f0/f3/39368/180x154_v1_manacor.jpg","Cafetería Manacor","984 49 24 65","De lunes a jueves: 07:30 - 23:00 h.<br/>Viernes: 07:30 - 0:00 h.<br/> Sábado: 08:00 - 0:00 h.<br/> Domingo: 08:00 - 23:00 h.","<ul><li>Acepta reservas</li></ul><ul><li>Indicado para grupos</li></ul><ul><li>Enfocado a los niños</li></ul><ul><li>Para llevar</li></ul><ul><li>Servicio de camareros</li></ul><ul><li>Terraza</li></ul>","Plaza Florencio Rodríguez, 1 - 33206","43.542263 -5.663675","Bares y cafés, Guia gastronómica, Turismo"
"http://www.gijon.es/directorios/show/9262-vinateria-reconquista","9262","es","fecha-actualizacion2014-01-22 12:06:17 +0100","http://www.gijon.es/data/images/f0/f3/39366/765x506_v1_reconquista.JPG","Vinatería Reconquista","985 33 46 99","Aguado, 1","43.537513 -5.650419","Bares y cafés, Guia gastronómica, Vinos y Tapas, Turismo"
"http://www.gijon.es/directorios/show/9261-el-pindal","9261","es","fecha-actualizacion2014-01-22 12:06:17 +0100","http://www.gijon.es/data/images/f0/f3/39362/615x413_v1_elpindal.JPG","El Pindal","985 38 32 40","Juan Alvargonzález, 47","43.530221 -5.667843","Bares y cafés, Guia gastronómica, Turismo"
"http://www.gijon.es/directorios/show/9258-cafe-musical-xareu","9258","es","fecha-actualizacion2016-12-20 09:43:01 +0100","http://www.gijon.es/data/images/f0/f8/81566/960x643_v1_XAREU1.jpg","Café Musical Xaréu","985 33 31 17","info@cafexareu.com","http://es-la.facebook.com/people/El-Xareu/100001935240216","De lunes a jueves de 08:00 a 23:00 h.<br/>Viernes de 08:00 a 05:00 h.<br/>Sábados de 10:00 a 05:00 h.<br/>Domingos de 10:00 a 23:00 h. Festivos a partir de las 10:00 h.","Cafetería situada enfrente de la plaza de toros de El Bibio- Gijón. Terraza durante todo el año. Retransmisiones deportivas en pantallas gigantes de 4x3 y 3x2 metros.<br/><br/>Amplia carta de vinos, cervezas, gin-tonics, platos combinados y tapas.<br/>Especialidad en café 100% arábica y latte art.<br/><br/>Karaoke con más de 5.000 canciones. Salón privado para eventos, fiestas, karaokes, cumpleaños, grupos, etc.<br/>Wi-Fi Gratuito.","Avenida Pablo Iglesias, 96","43.535137 -5.6469","Bares y cafés, Guia gastronómica, Restaurantes y sidrerías, Gijón accesible, Turismo"
"http://www.gijon.es/directorios/show/9254-misguevos-bar","9254","es","fecha-actualizacion2014-01-22 12:06:17 +0100","Misgüevos Bar","(+34) 985 36 22 72","Emilio Tuya, 32","43.539053 -5.649765","Bares y cafés, Guia gastronómica, Gijón, Turismo"
"http://www.gijon.es/directorios/show/9253-golden-gastrobar","9253","es","fecha-actualizacion2014-01-22 12:06:17 +0100","http://www.gijon.es/data/images/f0/f3/39033/186x196_v1_golden.jpg","Golden Gastrobar","http://www.goldenbar.es/","Aguado, 15 - 33202 Gijón","43.538548 -5.649583","Bares y cafés, Guia gastronómica, Gijón, Turismo"
"http://www.gijon.es/directorios/show/9252-vinateria-a-santa-compana","9252","es","fecha-actualizacion2014-01-22 12:06:17 +0100","http://www.gijon.es/data/images/f0/f3/39032/180x186_v1_asantacompana.jpg","Vinatería A Santa Compaña","(+34) 985 84 65 43","serca1@hotmail.es","Vinatería coqueta y cálida. Disfruta de un buen vino acompañado de un buen pinchín.","Avenida del Llano, 65 - 33209 Gijón","43.525601 -5.663273","Bares y cafés, Guia gastronómica, Gijón, Turismo"
"http://www.gijon.es/directorios/show/9251-cafe-san-pedro","9251","es","fecha-actualizacion2014-01-22 12:06:17 +0100","http://www.gijon.es/data/images/f0/f3/39031/331x298_v1_cafesanpedro.JPG","Café San Pedro","(+34) 985 35 99 13","Cabrales, 4 - 33201 Gijón","43.544279 -5.661824","Bares y cafés, Guia gastronómica, Gijón, Turismo"
"http://www.gijon.es/directorios/show/9250-cafe-capuccino","9250","es","fecha-actualizacion2015-01-21 14:53:46 +0100","http://www.gijon.es/data/images/f0/f3/39030/225x225_v1_cafecapuccino.jpg","Café Capuccino","(+34) 985 34 77 15","Corrida, 23 - 33206 Gijón","43.542158 -5.664077","Bares y cafés, Guia gastronómica, Gijón, Turismo"
"http://www.gijon.es/directorios/show/9249-la-casa-del-cafe","9249","es","fecha-actualizacion2014-02-17 12:45:53 +0100","http://www.gijon.es/data/images/f0/f3/39029/720x540_v1_lacasadelcafe.jpg","La Casa del Café","(+34) 984 39 46 61","Lunes - viernes: 06:00 - 22:30 h.<br/>Fin de semana: 08:00 - 22:30 h.","Café de Etiopía, pinchos de primera y una atención de lujo en el centro de Gijón, junto a la estación de autobuses.","Avenida de portugal, 5 - 33207 Gijón","43.539197 -5.667564","Bares y cafés, Guia gastronómica, Gijón, Turismo"
"http://www.gijon.es/directorios/show/9248-cafe-los-juzgados","9248","es","fecha-actualizacion2015-07-22 15:43:01 +0200","http://www.gijon.es/data/images/f0/f3/39028/500x373_v1_cafe-los-juzgados.jpg","Café Los Juzgados","+34 985 19 54 56","Situada en la playa de Poniente, muy cerquita del Acuario. Especialistas en repostería casera y chocolate con churros para desayunar y merendar.<br/>Sorprendente variedad de pinchos, sándwiches y hamburguesas.<br/>Menú diario y platos combinados.<br/>Amplio comedor con cocina abierta todo el día.<br/><br/><h4 style="font-weight: bold;">Descuento del 15% con la tarjeta turística Gijón Card<br/></h4>","Juan Carlos I, 6 - 33212 Gijón","43.541091 -5.673808","Bares y cafés, Guia gastronómica, Gijón, Gijón card. Tarjeta turística, Gijón Card, Gijón con Calidad, Restaurantes y sidrerías, Turismo"
"http://www.gijon.es/directorios/show/8708-johy-los-manzanos","8708","es","fecha-actualizacion2015-01-21 14:50:40 +0100","http://www.gijon.es/data/images/f0/f3/37682/256x192_v1_JohyLosManzanos.jpg","Johy-Los Manzanos","985 37 21 90","Doctor Aquilino Hurle, 31","43.539547 -5.647608","Restaurantes y sidrerías, Turismo-Sidra dop brut, Bares y cafés, Turismo"
"http://www.gijon.es/directorios/show/8298-vinarteria-canaa","8298","es","fecha-actualizacion2017-06-27 17:07:35 +0200","http://www.gijon.es/data/images/f0/f3/37247/960x640_v1_canaa.jpg","Vinartería Canaa","Un bonito local y dos terrazas donde poder tomar desde un buen vino, acompañado de buenas tapas, hasta un cava o gin tonic, disfrutando al mismo tiempo de las interesantes exposiciones de arte que cuelgan habitualmente de sus paredes. Todo ello en El Carmen, la zona de moda para tomar vinos en Gijón.","C/ Salustio Regueral, 10. 33206. Gijón.","43.542903 -5.66471","Vinos y Tapas, Guia gastronómica, Gijón de Pinchos, Gijón con Calidad, Restaurantes y sidrerías, Bares y cafés, Turismo"
"http://www.gijon.es/directorios/show/8243-cafeteria-korynto","8243","es","fecha-actualizacion2014-01-22 12:05:55 +0100","http://www.gijon.es/data/images/f0/f3/37217/357x357_v1_cafe.jpg","Cafetería Korynto","+ 34 984 392 974","<div style="text-align: justify;">Cafetería situada en pleno centro de la ciudad, concretamente en el paseo de la calle Corrida.<br/><br/></div><ul><li>No permite la entrada de animales al establecimiento.<br/></li></ul>","Calle Corrida, 19. 33206. Gijón.","43.540597 -5.663637","Bares y cafés, Guia gastronómica, 2011, Gijón de Pinchos, Turismo"
"http://www.gijon.es/directorios/show/8199-oquen-cafe","8199","es","fecha-actualizacion2014-01-22 12:05:53 +0100","http://www.gijon.es/data/images/f0/f3/37196/300x225_v1_oquen.jpg","Oquen Café","984 397 204","<ul><li>Admite animales sólo en terraza.<br/></li></ul>","Avenida de la Argentina, 77. 33213. Gijón.","43.538349 -5.702755","Bares y cafés, Guia gastronómica, 2011, Gijón de Pinchos, Turismo"
"http://www.gijon.es/directorios/show/8185-les-candases-cafe","8185","es","fecha-actualizacion2014-01-22 12:05:52 +0100","http://www.gijon.es/data/images/f0/f3/37191/600x463_v1_candases.jpg","Les Candases Café","+ 34 985 134 298","http://www.cafelescandases.com/","<div style="text-align: justify;">Más de 60 cafés especiales y distintos... cocktails, infusiones especiales, chocolates, combinados, zumos, batidos naturales, copas de helado, platos combinados, sandwiches y una amplia carta de cervezas, en botella y barril, entre las que destaca la “Sir. Roberts” de elaboración propia.<br/></div><br/><div style="text-align: justify;">Nuestra larga experiencia nos permite asegurar la máxima calidad, junto con un esmerado servicio y trato exquisito hacia nuestros clientes. Todo esto y mucho más te espera en <strong>Les Candases</strong> donde podrás tomarte desde un café hasta comer plácidamente o probar un buen pincho de tortilla.<br/></div><br/><p>Estamos localizados en la zona centro de la cuidad, en la esquina de la calle Marqués de Casa Valdés, una vía de gran tránsito y con afluencia de gente. El interior de la cafetería está decorado con motivos musicales y diferentes atrezos, con un toque particular al mismo tiempo que distinguido. Todo en su conjunto lo convierte en un local entrañable.</p><p><strong>Les Candases</strong> cuenta con una barra para dar un correcto servicio a la vez que ágil y está condicionado con varias mesas y sillas bastante cómodas. Haz de nuestra cafetería tu punto de encuentro y partida de tus citas y reuniones. Además, disponemos de una pantalla gigante de 50&quot; para que puedas ver tus retransmisiones deportivas favoritas. ¡Te esperamos!</p><ul><li>Admite animales.<br/></li></ul>","Calle Garcilaso de la Vega, 2. 33202. Gijón.","43.539376 -5.655295","Bares y cafés, Guia gastronómica, 2011, Gijón de Pinchos, Turismo"
"http://www.gijon.es/directorios/show/8177-laam-cafe","8177","es","fecha-actualizacion2014-01-22 12:05:52 +0100","http://www.gijon.es/data/images/f0/f3/37189/500x375_v1_laam.jpg","Laam Café","677 028 443","<ul><li>Admite animales.<br/></li></ul>","Calle de La Sierra del Sueve, 13. 33211. Gijón.","43.529202 -5.681705","Bares y cafés, Guia gastronómica, 2011, Gijón de Pinchos, Turismo"
"http://www.gijon.es/directorios/show/8120-gota-a-gota","8120","es","fecha-actualizacion2015-07-23 10:45:42 +0200","http://www.gijon.es/data/images/f0/f3/37164/800x600_v1_gota.jpg","Gota a Gota","+ 34 985 162 156","<p style="text-align: justify;">Gota a gota, hemos hecho un sueño realidad. Con el mejor ambiente, la más completa selección de vinos y la clientela más selecta.</p><div style="text-align: justify;"></div><p style="text-align: justify;">Desde primera hora de la mañana podrás disfrutar de los desayunos más completos, avanzando el día nos vamos transformando en uno de los locales más especializados en vinos de esta maravillosa ciudad, para poner el punto final a un día inolvidable con nuestra mejor coctelería.</p><p style="text-align: justify;">En temporada, nuestra terraza y la reconocida caracterización de nuestro local para las más originales fiestas temáticas dejarán un grato recuerdo.</p><p>Ven y compruébalo.</p><ul><li>Admite animales.<br/></li></ul>","Avenida del Llano, 21. 33209. Gijón.","43.53026 -5.661427","Bares y cafés, Vinos y Tapas, Guia gastronómica, Gijón de Pinchos, Gijón con Calidad, Restaurantes y sidrerías, Turismo"
"http://www.gijon.es/directorios/show/8106-espresso-republic-coffee","8106","es","fecha-actualizacion2014-01-22 12:05:49 +0100","http://www.gijon.es/data/images/f0/f3/37159/800x532_v1_espresso.jpg","Espresso Republic Coffee","+ 34 984 395 056","http://es-es.facebook.com/pages/ESPRESSO-REPUBLIC/248513625202351","<ul><li>Admite animales siempre que no sean muy grandes.<br/></li></ul>","Calle Covadonga, 18. 33205. Gijón.","43.53938 -5.659357","Bares y cafés, Guia gastronómica, 2011, Gijón de Pinchos, Turismo"
"http://www.gijon.es/directorios/show/8085-el-rincon-de-capua","8085","es","fecha-actualizacion2014-01-22 12:05:48 +0100","http://www.gijon.es/data/images/f0/f3/37151/751x500_v1_capua.jpg","El Rincón de Capua","+ 34 984 399 895","elrincondecapua@gmail.com","http://www.elrincondecapua.es/","Martes a viernes: 8:00 a cierre. Sábado y domingo: 11:00 a cierre.","<p style="text-align: justify;">El Rincón de Capua es un <strong>Bar de Tapas</strong> donde encontrará una oferta gastronómica variada y original sin olvidarse de la tierra donde está situado: <strong>Asturias</strong>.</p><div style="text-align: justify;"></div><p style="text-align: justify;">En la carta encontrará <strong>ensaladas</strong> únicas, <strong>raciones</strong> generosas, <strong>tostas</strong> muy sabrosas y unos estupendos <strong>vinos</strong>; todo ello regadopor una excelente <strong>sidra</strong> y amenizado con buena <strong>música</strong>. Todos nuestros platos están pensados para compartir y lo cierto es que comer aquí es realmente económico.</p><p>Además disponen de un <strong style="font-weight: normal;">Menú del día</strong> y <strong style="font-weight: normal;">una de las cervezas mejor tiradas</strong> de <strong style="font-weight: normal;">Gijón</strong>.</p><p><span style="font-weight: bold;">Descanso:</span> Lunes</p><ul><li>No admite animales.<br/></li></ul><p></p>","Calle Capua, 18. 33202. Gijón.","43.540239 -5.658123","Bares y cafés, Vinos y Tapas, Guia gastronómica, 2011, Gijón de Pinchos, Turismo"
"http://www.gijon.es/directorios/show/8071-el-capricho","8071","es","fecha-actualizacion2014-01-22 12:05:48 +0100","http://www.gijon.es/data/images/f0/f3/37147/358x480_v1_capricho.jpg","El Capricho","+ 34 984 196 274","Calle del Marqués de San Esteban, 7. 33206. Gijón.","43.543218 -5.665327","Bares y cafés, Guia gastronómica, 2011, Gijón de Pinchos, Turismo"
"http://www.gijon.es/directorios/show/8065-el-cafetal","8065","es","fecha-actualizacion2014-01-22 12:05:48 +0100","http://www.gijon.es/data/images/f0/f3/37146/600x451_v1_cafetal.jpg","El Cafetal","+ 34 984 190 682","Moderna cafetería de Gijón situada en pleno centro de la ciudad, frente al Centro Comercial San Agustín.<br/><br/>En la parte de abajo de la cafetería ofrece una zona de juegos con billar.<br/> <br/><ul><li>Permite la entrada de animales al establecimiento.<br/></li></ul>","Calle La Muralla, 3. 33202. Gijón.","43.541157 -5.659217","Bares y cafés, Guia gastronómica, 2011, Gijón de Pinchos, Turismo"
"http://www.gijon.es/directorios/show/8037-chaman-vinoteca-cafe","8037","es","fecha-actualizacion2014-01-22 12:05:46 +0100","http://www.gijon.es/data/images/f0/f3/37129/92x92_v1_chaman.jpeg","Chaman Vinoteca Café","<div style="text-align: justify;">Vinatería y lugar de tapeo situado en pleno centro de la ciudad, concretamente en la ruta de los vinos.<br/></div>","Calle San Bernardo, 3. 33201. Gijón.","43.544411 -5.662371","Bares y cafés, Vinos y Tapas, Guia gastronómica, 2011, Gijón de Pinchos, Turismo"
"http://www.gijon.es/directorios/show/7989-cafeteria-roger-s","7989","es","fecha-actualizacion2014-01-22 12:05:44 +0100","http://www.gijon.es/data/images/f0/f3/37118/1600x1200_v1_rogers.JPG","Cafetería Roger's","+ 34 985 390 547","cafeteriarogers@hotmail.com","http://cafeteriarogers.blogspot.com/2010/06/blog-post_30.html","<div style="text-align: justify;">La cafetería Roger's se inaguro el 2 de Mayo de 1978 y en la actualidad, (completamente reformada), es una de las cafeterias mas distinguidas y con mas solera de Gijon , Sus grandes ventanales hacen de la Rogers un lugar abierto al exterior, su decoración funcional e intimista y la atencion personalizada de sus profesionales hacen que el cliente se pueda sentir comodo en todo momento.<br/> <br/></div><div style="text-align: justify;">Amplia carta con desayunos, meriendas, platos combinados, tapas, pinchos, sándwiches, irlandeses y escoceses…<br/><br/>Disponen de zona wifi, instalaciones de aire climatizado, cambiador de bebés...<br/><br/>En definitiva este establecimiento es una parada obligatoria si estás en Gijón.<br/></div><br/><ul><li>No permite la entrada de animales al establecimiento.<br/></li></ul><span style="font-weight: bold;">Descansa:</span> miércoles","Avenida Manuel Llaneza 47. 33208. Gijón.","43.535122 -5.664705","Bares y cafés, Guia gastronómica, 2011, Gijón de Pinchos, Turismo"
"http://www.gijon.es/directorios/show/7982-cafeteria-la-criolla","7982","es","fecha-actualizacion2015-07-23 10:41:31 +0200","http://www.gijon.es/data/images/f0/f3/37117/595x454_v1_criolla.jpg","Cafetería La Criolla","+ 34 985 360 075","http://www.cafeterialacriolla.com/","<span style="font-weight: bold;"></span>","Calle Uría, 6 bajo. 33202. Gijón.","43.538995 -5.656975","Bares y cafés, Guia gastronómica, Gijón de Pinchos, Gijón con Calidad, Restaurantes y sidrerías, Turismo"
"http://www.gijon.es/directorios/show/7975-cafeteria-banus","7975","es","fecha-actualizacion2016-04-01 13:40:48 +0200","http://www.gijon.es/data/images/f0/f3/37114/640x478_v1_banus.jpg","Cafetería Banús","+ 34 985 356 767","cafeteriabanus@wanadoo.es","Cafetería situada frente a la playa de Poniente con una amplia terraza en el paseo del muelle.<br/><br/><ul><li>No permite la entrada de animales al establecimiento.<br/></li></ul>","Calle Rodríguez Sampedro, 5. 33206. Gijón.","43.543089 -5.666427","Restaurantes y sidrerías, Bares y cafés, Guia gastronómica, 2011, Gijón de Pinchos, Turismo"
"http://www.gijon.es/directorios/show/7968-cafe-vinoteca-raymond","7968","es","fecha-actualizacion2014-01-22 12:05:43 +0100","http://www.gijon.es/data/images/f0/f3/37113/160x120_v1_brocheta.jpg","Café Vinoteca Raymond","+ 34 985 171 850","<div style="text-align: justify;">Cafetería situada en la centro de Gijón, muy próxima al paseo de begoña.<br/></div><br/><ul><li>Se permite la entrada de animales al establecimiento.<br/></li></ul>","Calle Covadonga, 17. 33205. Gijón.","43.53875 -5.661813","Bares y cafés, Vinos y Tapas, Guia gastronómica, 2011, Gijón de Pinchos, Turismo"
"http://www.gijon.es/directorios/show/7961-cafe-vinos-domine","7961","es","fecha-actualizacion2014-01-22 12:05:43 +0100","http://www.gijon.es/data/images/f0/f3/37112/590x590_v1_domine.jpg","Café Vinos Dómine","609 973 876","<span style="font-weight: bold;">Descansa:</span> Domingo<br/><br/>Cafeterýa y vinatería con gran variedad de pinchos.<br/><br/><ul><li>No permite la entrada de animales al establecimiento.<br/></li></ul>","Calle Santa Doradía, 23. 33202. Gijón.","43.538015 -5.65705","Bares y cafés, Vinos y Tapas, Guia gastronómica, 2011, Gijón de Pinchos, Turismo"
"http://www.gijon.es/directorios/show/7954-cafe-tenampa","7954","es","fecha-actualizacion2014-01-22 12:05:43 +0100","http://www.gijon.es/data/images/f0/f3/37110/1200x1600_v1_tenampa.jpg","Café Tenampa","+ 34 985 351 704","Cafetería y salón de té.<br/><br/><ul><li>Admite animales en el establecimiento siempre que no causen molestias.<br/></li></ul>","Calle Pedro Duro, 16. 33206. Gijón.","43.54111 -5.666448","Bares y cafés, Guia gastronómica, 2011, Gijón de Pinchos, Turismo"
"http://www.gijon.es/directorios/show/7947-cafe-samara","7947","es","fecha-actualizacion2014-01-22 12:05:43 +0100","http://www.gijon.es/data/images/f0/f3/37109/320x240_v1_samara.jpg","Café Samara","+ 34 985 990 165","<ul><li>No permite la entrada de animales en el establecimiento.<br/></li></ul>","Calle de la Peña Santa de Enol, 5. 33211. Gijón.","43.52683 -5.679548","Bares y cafés, Guia gastronómica, 2011, Gijón de Pinchos, Turismo"
"http://www.gijon.es/directorios/show/7940-cafe-plaza","7940","es","fecha-actualizacion2014-02-26 14:38:22 +0100","http://www.gijon.es/data/images/f0/f3/37107/298x298_v1_plaza.jpg","Café Plaza","+ 34 984 490 222","http://www.cafeplazagijon.com/","<div style="text-align: justify;">Cafetería situada en el centro de la ciudad. Ofrece desayunos y comida tradicional.<br/></div><br/><ul><li>No permite la entrada de animales al establecimiento.<br/></li></ul>","Calle Cura Sama, 6. 33202. Gijón.","43.540127 -5.657468","Bares y cafés, Guia gastronómica, 2011, Gijón de Pinchos, Turismo"
"http://www.gijon.es/directorios/show/7933-cafe-mayerling","7933","es","fecha-actualizacion2016-04-14 10:29:14 +0200","http://www.gijon.es/data/images/f0/f3/37093/298x298_v1_mayerling.jpg","Café Mayerling","+ 34 985 358 763","info@cafemayerling.es","http://www.cafemayerling.es/","<div style="text-align: justify;">Café Bar Restaurante musical. Ofrecen desayunos, menú del día y platos combinados.<br/></div><br/><ul><li>Admite la entrada de animales al establecimiento mientras vayan atados y no causen molestias.<br/></li></ul>","Calle Corrida 14. 33206. Gijón.","43.540994 -5.663906","Restaurantes y sidrerías, Bares y cafés, Guia gastronómica, 2011, Turismo"
"http://www.gijon.es/directorios/show/7920-cafe-gaudi","7920","es","fecha-actualizacion2014-01-22 12:05:42 +0100","http://www.gijon.es/data/images/f0/f3/37092/220x176_v1_cafe.jpg","Café Gaudí","+ 34 985 147 361","Moderna cafetería y familiar.<br/><br/><ul><li>No permite la entrada de animales al establecimiento.<br/></li></ul>","Calle Juan Alvargonzález 35. 33208. Gijón.","43.53054 -5.66956","Bares y cafés, Guia gastronómica, 2011, Gijón de Pinchos, Turismo"
"http://www.gijon.es/directorios/show/7913-cafe-el-alquimista","7913","es","fecha-actualizacion2014-01-22 12:05:41 +0100","http://www.gijon.es/data/images/f0/f3/37078/130x130_v1_alquimista.jpg","Café El Alquimista","+ 34 984 190 494","alquimista@alquimistagijon.com","http://es-es.facebook.com/elalquimistagijon?sk=wall","<div style="text-align: justify;"><strong style="font-weight: normal;">El Alquimista</strong> es un establecimiento moderno abierto a todo tipo de público. Localizado en la zona del Llano de Gijón y con un amplio horario de apertura, desde las 8:00 de la mañana hasta la madrugada, todos los días del año.<br/><br/></div><p style="text-align: justify;">Podrás disfrutar de desayunos, meriendas y aperitivos, una amplia carta de tés y cafés. Contamos con una atractiva bodega de vinos, una selección de las mejores cervezas de importación y los más suculentos cócteles, no te quedes sin probar nuestro especial de la casa <em>“Alquimista”, Paraíso Natural o Leche de Pantera...</em></p><p style="text-align: justify;">En<span style="font-weight: bold;"> </span><strong style="font-weight: normal;">Café-bar El Alquimista </strong>encontrarás el mejor ambiente. Ofrecemos un trato cercano a nuestros clientes, quienes se sienten como en su propia casa, con un servicio estupendo. ¿A qué esperas para conocernos? Cualquier momento es bueno.</p><ul><li>No permite la entrada de animales al establecimiento.<br/></li></ul>","Plaza de la Serena 4 - bajo dcha. 33208. Gijón.","43.532446 -5.668465","Guia gastronómica, 2011, Gijón de Pinchos, Bares y cafés, Turismo"
"http://www.gijon.es/directorios/show/7912-cafe-central","7912","es","fecha-actualizacion2016-01-20 15:43:51 +0100","http://www.gijon.es/data/images/f0/f3/37074/115x71_v1_central.jpg","Café Central","+34 985 358 717 / +34 985 346 119","cafecentralgijon@gmail.com","Lunes a jueves: 08:00 - 00:00; Viernes y sábado: 08:00 - 02:30","<div style="text-align: justify;">Café clásico con situación privilegiada, en pleno eje comercial. Sobresale su exquisita decoración. Gran variedad en desayunos y menús.<br/><br/></div><ul><li>No permite la entrada de animales al establecimiento.</li></ul><p><span style="font-weight: bold;">Día de descanso:</span> Domingos<br/></p>","Calle Pelayo 6. 33205. Gijón.","43.53874 -5.662994","Restaurantes y sidrerías, Guia gastronómica, 2011, Gijón de Pinchos, Bares y cafés, Gijón con Calidad, Turismo"
"http://www.gijon.es/directorios/show/7911-cafe-vinateria-picasso","7911","es","fecha-actualizacion2014-01-22 12:05:41 +0100","http://www.gijon.es/data/images/f0/f3/39367/180x137_v1_vinateriapicasso.jpg","Café-Vinatería Picasso","984 49 03 32","http://es-es.facebook.com/people/Cafe-Vinateria-Picasso-Gij%C3%B3n/100002633327478","De 12:00 a 15:00 y de 19:30 a 22:30","<div style="text-align: justify;"><br/></div>","Boal de Javi - Calle Roncal, 8- 33208 Gijón","43.529879 -5.66824","Guia gastronómica, 2011, Gijón de Pinchos, Bares y cafés, Turismo"
"http://www.gijon.es/directorios/show/7865-cafeteria-snack-bar-bergantin","7865","es","fecha-actualizacion2017-06-26 14:28:53 +0200","http://www.gijon.es/data/images/f0/f8/81565/600x400_v1_Cafeteriatryp.jpg","Cafetería Snack-bar Bergantín","+ 34 985 199 800","tryp.rey.pelayo.@solmelia.com","http://es.solmelia.com/hoteles/espana/gijon/tryp-gijon-rey-pelayo-hotel/home.htm","<div style="text-align: justify;">Situado en la zona de El Bibio, en este acogedor restaurante podrá degustar de los platos preparados por el Chef Benjamín Caballero. Con capacidad para 45 personas, está decorado con motivos marineros, de entre los que destaca cuatro maquetas de barcos y los tonos azules de todo el local. Este acogedor restaurante evoca la mar.<br/></div><br/><ul><li>No admite animales.<br/></li></ul>","Avenida de Torcuato Fernández Miranda, 26. 33203. Gijón","43.535857 -5.642544","Restaurantes y sidrerías, Guia gastronómica, 2011, Gijón con Calidad, Bares y cafés, Turismo"
"http://www.gijon.es/directorios/show/7858-as-de-picas","7858","es","fecha-actualizacion2017-07-24 11:12:39 +0200","http://www.gijon.es/data/images/f0/f9/97167/190x110_v1_asdepicas.jpg","As de Picas","+ 34 985 343 434","hosteleria@casino-asturias.com","http://www.asdepicasrestaurante.com","<div style="text-align: justify;">Inaugurado el 22 de febrero de 2006, el Restaurante As de Picas se encuentra situado en el centro de Gijón y ubicado en las instalaciones del Casino de Asturias, con entrada independiente al mismo.<br/></div><br/><div style="text-align: justify;">Su exquisita decoración y su atmósfera tranquila lo convierten en el lugar ideal para celebraciones, comidas de trabajo o reuniones familiares.<br/></div> <br/><div style="text-align: justify;"><div style="text-align: justify;">La cocina del Restaurante se caracteriza por el esmero en la creación de nuevas recetas, siempre conservando el gusto por lo tradicional.<br/><br/>Contacto: Mariluz Mariño<br/></div><br/><h4><span style="font-weight: bold;">Descuento del 10% con la tarejta turística Gijón Card</span></h4></div>","Calle Fernandez Vallín (Esquina Padilla) 33205. Gijón","43.539636 -5.662543","Restaurantes y sidrerías, Gijón card. Tarjeta turística, Guia gastronómica, 2011, Gijón Card, Congresos, Gijón con Calidad, Bares y cafés, Casino, Club de Empresas de Turismo de Negocios, Turismo"
"http://www.gijon.es/directorios/show/7227-sala-acapulco","7227","es","fecha-actualizacion2015-07-23 11:00:07 +0200","http://www.gijon.es/data/images/f0/f3/35940/395x250_v1_sala.jpg","Sala Acapulco","+ 34 985 343 434","diviertete@casino-asturias.com","http://casino-asturias.com/","Jueves de 20:00 a 01:00 h.<br/>Sábados de 00:30 a 07:00 h.<br/>Domingos de 07:00 h. a cierre.<br/>Viernes: Según programación.","<div style="text-align: justify;">El Casino de Asturias alberga una sala polivalente para cualquier tipo de acto desde conferencias, convenciones o reuniones de trabajo, hasta banquetes y celebraciones. Dispone de programación mensual de conciertos y actividades y de una variada carta de cócteles.<br/><br/></div>","Calle Fernández vallín (esquina Padilla)","43.539675 -5.66264","Casino, Pubs, Guia gastronómica, Música directo, Gijón con Calidad, Bares y cafés, Turismo"
"http://www.gijon.es/directorios/show/6342-bay-pass-bar","6342","es","fecha-actualizacion2014-01-22 12:04:50 +0100","http://www.gijon.es/data/images/f0/f3/37412/280x158_v1_baypass.jpg","Bay Pass Bar","+34 985 17 00 10","Moderno bar de copas situado en la zona de ruta de los vinos de Gijón.<br/><br/><ul><li>No se permite la entrada de mascotas en el establecimiento.<br/></li></ul>","Cervantes, 8. 33206. Gijón.","43.542537 -5.665609","Bares y cafés, Pubs, Guia gastronómica, Gijón de cócteles, 2011, Turismo"
"http://www.gijon.es/directorios/show/6328-lautrec","6328","es","fecha-actualizacion2014-01-22 12:04:49 +0100","http://www.gijon.es/data/images/f0/f3/37458/560x373_v1_lautrec.jpeg","Lautrec","+ 34 985 353 502","http://www.lautrecgijon.es/","<div style="text-align: justify;">LAUTREC te ofrece el mejor ambiente a cualquier hora del día, siempre con un excelente servicio. Porque somos un local de referencia que cuenta con una clientela consolidada, con distintos ambientes, aptos para todo tipo de público, pero con la esencia que nos caracteriza: servicio y ocio garantizado, calidad y precios. <br/><br/>En CAFÉ-PUB LAUTREC abrimos nuestras puertas desde por la mañana para ofrecerte los desayunos más ricos y completos de la zona. A media mañana también puedes pasarte a tomar nuestros aperitivos, canapés y bocatas. Por la tarde anímate a degustar un buen café, como recién molido, con toda su esencia... tómate unas cañas o ricas cervezas de nuestra selecta carta en uno de los ambientes más agradables de Gijón.<br/></div><br/><div style="text-align: justify;">CAFÉ-PUB LAUTREC es un local moderno con un servicio de calidad. Con una minuciosa decoración te sentirás envuelto en un entorno sofisticado a la par que moderno, un ambiente vivo. Las paredes están adornadas con numerosas reproducciones de pinturas y carteles de Henri de Toulouse-Lautrec, entre la piedra y la madera que distingue nuestro espacio. Todo tipo de clientes tiene cabida en este local, somos un punto de referencia de la zona Náutico, zona de copas más cercana a la playa de San Lorenzo.<br/></div><br/>Diviértete en un buen ambiente, disfruta de una inmejorable copa y buena música.","Capua, 5. 33202. Gijón","43.541563 -5.658455","Bares y cafés, Guia gastronómica, Gijón de cócteles, 2011, Turismo"
"http://www.gijon.es/directorios/show/6314-vorbier-bar","6314","es","fecha-actualizacion2014-01-22 12:04:49 +0100","http://www.gijon.es/data/images/f0/f3/37527/180x131_v1_vorbier.jpg","Vorbier&amp;Bar","+34 984 29 08 82","http://www.cerveceriavor.es/2.html","<div style="text-align: justify;">En nuestra cervecería podras degustar más de 60 tipos de cervezas procedentes de diferentes lugares del mundo. Tanto si prefieres botella o caña, podras elegir la que más te guste y sorprenderte con los deliciosos brebajes que trabajamos y acompañarlas con alguna de nuestras Pizzas caseras o las hamburgesas Gourmet de carne de Buey, que nosotros mismos elaboramos.<br/></div><br/><div style="text-align: justify;">Además, poseemos varios tipos de cocktail's y gin tonics para acabar las noches con un toque diferente.<br/></div>","Prendes Pando, 29. 33208. Gijón.","43.537117 -5.666008","Bares y cafés, Guia gastronómica, Gijón de cócteles, 2011, Turismo"
"http://www.gijon.es/directorios/show/6300-garamont","6300","es","fecha-actualizacion2014-01-22 12:04:49 +0100","http://www.gijon.es/data/images/f0/f3/37160/600x401_v1_cachopo.jpg","Garamont","+34 985 168 776","Covadonga, 5. 33201. Gijón.","43.539248 -5.659292","Bares y cafés, Pubs, Guia gastronómica, Gijón de cócteles, 2011, Gijón de Pinchos, Turismo"
"http://www.gijon.es/directorios/show/6293-la-habana-pub","6293","es","fecha-actualizacion2015-07-23 10:57:21 +0200","http://www.gijon.es/data/images/f0/f3/37435/298x298_v1_lahabanna.jpg","La Habana Pub","+ 34 985 34 32 55","habana@zapatarranca.com","http://www.publahabana.com","De domingo a jueves de 22:00 a 03:30 h.<br/>Viernes y sábado de 22:00 a 05:30 h","<p>Quince años en Gijón creando ambiente.</p><p>En la Cafetería Habana, situada en el muelle deportivo, podréis vivir las mejores noches con la música más actual y disfrutar de maravillosas tardes con un café frente al sol de Poniente.</p>","Claudio Alvargonzález, 22","43.546871 -5.665703","Pubs, Guia gastronómica, Gijón de cócteles, Gijón con Calidad, Bares y cafés, Turismo"
"http://www.gijon.es/directorios/show/6278-ambigu","6278","es","fecha-actualizacion2016-06-06 14:43:03 +0200","http://www.gijon.es/data/images/f0/f3/37403/180x179_v1_ambigu.jpg","Ambigú","+34 985 36 73 77","http://ambigu-gijon.com/","<div style="text-align: justify;">Los sabores de nuestra cocina tienen su origen en “la cocina tradicional italiana”, sin embargo, poco a poco, nos gusta innovar e introducir nuevos platos, para que nuestros clientes degusten otros sabores diferentes, que siempre bajo nuestro criterio son mejores.<br/></div><br/><div style="text-align: justify;">Gepetto tenía un pequeño taller de carpintería, donde sus delicadas manos trabajaban con cariño y esmero la madera, para poder elaborar las piezas más perfectas posibles, pero siempre de manera artesanal. Igualmente, nuestra pequeña cocina elabora platos caseros, con los mejores ingredientes y una combinación de sabores y aromas capaces de satisfacer, por su variedad, a prácticamente todos los paladares.<br/></div><br/><div style="text-align: justify;">Nuestro principal objetivo es la satisfacción del cliente, por lo que nos gusta escuchar sus sugerencias, que finalmente nos ayudan a mejorar la calidad final de nuestra carta. El toque final de nuestros platos es muy importante, porque pensamos que también se come con la vista; quizá todos los sentidos participan en alguna medida.<br/></div><br/><div style="text-align: justify;">Procuramos que nuestros clientes se sientan tan a gusto en nuestro restaurante, que realmente lleguen a sentirse como en casa. La casa de nuestro abuelo Gepetto.<br/><br/><ul><li>No permite la entrada de mascotas en el establecimiento.</li></ul><h4 style="font-weight: bold;">Descuendo del 10% con la tarjeta turística Gijón Card</h4></div>","Avda. José García Bernardo, 256. 33203. Gijón.","43.543142 -5.645624","Bares y cafés, Pubs, Guia gastronómica, Gijón de cócteles, 2011, Gijón card. Tarjeta turística, Gijón Card, Turismo"
"http://www.gijon.es/directorios/show/6257-cafeteria-vivaldi","6257","es","fecha-actualizacion2015-07-23 10:43:56 +0200","http://www.gijon.es/data/images/f0/f3/37414/180x180_v1_vivaldis.jpg","Cafetería Vivaldi","+34 985 09 04 93","http://www.cafeteriavivaldi.com/","<div style="text-align: justify;">En 1678 nació en Venecia el Compositor y Violinista Antonio Vivaldi, del cual Igor Stravinski comentó en una ocasión que Vivaldi no había escrito nunca quinientos conciertos, sino «quinientas veces el mismo concierto». No deja de ser cierto en lo que concierne al original e inconfundible tono que el compositor veneciano supo imprimir a su música y que la hace rápidamente reconocible. Autor prolífico, la producción de Vivaldi abarca no sólo el género concertante, sino también abundante música de cámara, vocal y operística. Célebre sobre todo por sus cuatro conciertos para violín y orquesta reunidos bajo el título Las cuatro estaciones, cuya fama ha eclipsado otras de sus obras igualmente valiosas, si no más, Vivaldi es por derecho propio uno de los más grandes compositores del período barroco e impulsor de la llamada Escuela Veneciana. Con el propósito de trasladar estos valores a la hostelería, en 2006 inauguramos Cafetería Vivaldi, para ofrecer nuestro servicio en una zona de reciente creación en Gijón, Montevil (Ver mapa y contacto).<br/></div><br/><div style="text-align: justify;">Un lugar acogedor, diseñado con amplias cristaleras, decorado en madera y tonos cálidos con suave iluminación y terraza cubierta, para que Ud. se sienta cómodo, disfrutando de su tiempo.Ponemos a su disposición nuestra “prolífica” y especializada composición, de la cual puede ver un adelanto en esta web, con gran variedad de pinchos de elaboración propia, platos combinados, extensa selección de chocolates calientes y fríos, amplia colección de reconfortantes infusiones y tés naturales, batidos, combinados de café, las mejores ginebras y vodkas de importación y un amplio etcétera.<br/></div><br/><div style="text-align: justify;">En nuestras partituras se repite siempre, pese a lo que pueda decir Stravinski, la misma nota, la calidad del producto. Porque Usted, no se merece menos.<br/></div><ul><br/><li>No permite la entrada de animales al establecimiento.</li></ul><h4 style="font-weight: bold;">Descuento del 10% en compras superiores a 20€ con la tarjeta turística Gijón Card<br/></h4>","Les Cigarreres, 29. 33211. Gijón.","43.520625 -5.678427","Bares y cafés, Guia gastronómica, Gijón de cócteles, Gijón card. Tarjeta turística, Gijón Card, Gijón con Calidad, Restaurantes y sidrerías, Turismo"
"http://www.gijon.es/directorios/show/6250-marques-10","6250","es","fecha-actualizacion2014-01-22 12:04:48 +0100","http://www.gijon.es/data/images/f0/f3/37461/200x131_v1_marques10.jpg","Marqués 10","+34 985 34 03 27","http://es-es.facebook.com/pages/Marques-10/9138703748?sk=wall","Plaza del Marqués, 10. 33207. Gijón","43.544966 -5.663321","Bares y cafés, Pubs, Guia gastronómica, Gijón de cócteles, 2011, Turismo"
"http://www.gijon.es/directorios/show/6244-v-o-s","6244","es","fecha-actualizacion2015-07-23 11:02:42 +0200","V.O.S.","984 19 88 35","vos@vosgijon.com","http://www.vosgijon.com/","De 20:00 h. a cierre.<br/>Cerrado: lunes.","Marqués de San Esteban, 13","43.542925 -5.665783","Pubs, Guia gastronómica, Gijón de cócteles, Gijón con Calidad, Bares y cafés, Turismo"
"http://www.gijon.es/directorios/show/6223-bar-inn","6223","es","fecha-actualizacion2014-01-22 12:04:47 +0100","http://www.gijon.es/data/images/f0/f3/37408/800x622_v1_barinn.jpg","Bar Inn","+34 985 39 43 64","http://barinngijon.com/","<div style="text-align: justify;">Punto de encuentro escogido por una multitud de clientes para la primera copa de la noche, este bar de copas se encuentra en la agitada plaza del Marqués. Ofrecen una amplia carta de cervezas y copas de todos los tipos. Destaca por una cuidada selección musical que abarca desde los temas más actuales del pop-rock internacional hasta la música española más escuchada. Cuenta con terraza de verano y retransmiten eventos deportivos.<br/><br/><ul><li>Permite mascotas en la zona de terraza.<br/></li></ul></div>","Plaza del Marqués. 33201. Gijón.","43.545196 -5.663138","Bares y cafés, Pubs, Guia gastronómica, Gijón de cócteles, 2011, Turismo"
"http://www.gijon.es/directorios/show/6202-cafe-royal","6202","es","fecha-actualizacion2014-01-22 12:04:46 +0100","http://www.gijon.es/data/images/f0/f3/37413/1592x1140_v1_royal.jpg","Café Royal","+34 985 35 29 73","Cafetería que ofrece menú del día, platos combinados y raciones.","Lastres, 6. 33207. Gijón.","43.534921 -5.670713","Bares y cafés, Guia gastronómica, Gijón de cócteles, 2011, Turismo"
"http://www.gijon.es/directorios/show/3456-picaro","3456","es","fecha-actualizacion2014-01-22 12:03:20 +0100","http://www.gijon.es/data/images/f0/f2/29753/169x133_v1_picaro.jpg","Pícaro","+34 985 170 671","984 199 561","picaro@grupogavia.com","http://www.grupogavia.com/","De 24:00 a 05:30 h.","<div style="text-align: justify;">Divertido local en la zona de Fomento, donde siempre encontrarás un ambiente en el que te encuentrés cómodo. Su música y su ambiente lo han convertido sin duda en parada obligada en la noche de Gijón.</div> <br/><br/><h3>Día de descanso:</h3><ul><li>En temporada de invierno: De lunes a miércoles.</li><li>En temporada de verano: abierto todos los días.</li></ul><h3>Distintivos de calidad:</h3>SICTED.<br/><br/><ul><li>No admite animales.<br/></li></ul>","Picaro - Marqués de San Esteban, 12 - 33206. Gijón.","43.543179 -5.665703","Bares y cafés, Pubs, 2011, Guia gastronómica, Turismo"
"http://www.gijon.es/directorios/show/3455-cafe-bar-bambara","3455","es","fecha-actualizacion2017-07-24 12:08:20 +0200","http://www.gijon.es/data/images/f0/f9/97185/190x110_v1_bambara.png","Café Bar Bambara","+34 985 347 887","+ 34 984 199 561","bambara@grupogavia.com","http://www.bambara-gijon.com","<div style="text-align: justify;">Clásico local en la hostelería de Gijón que combina el ambiente diurno de uno de los mejores cafés con la movida nocturna de la Zona Fomento.<br/></div><br/><br/><h3>Certificados de calidad:</h3>SICTED.<br/><br/><h3>Persona de contacto:</h3>D. Fernando Castaño.","Marqués de San Esteban, 9 - bajo","43.543054 -5.66574","Bares y cafés, Pubs, Guia gastronómica, Gijón de cócteles, Gijón Card, Gijón card. Tarjeta turística, Música directo, Gijón con Calidad, Club de Empresas de Turismo de Negocios, Turismo"
"http://www.gijon.es/directorios/show/3454-bulevar","3454","es","fecha-actualizacion2014-09-01 13:41:12 +0200","http://www.gijon.es/data/images/f0/f2/29751/169x133_v1_bulevar.jpg","Bulevar","+34 985 342 031","+ 34 984 199 561","bulevar@grupogavia.com","http://www.grupogavia.com/","<div style="text-align: justify;">Un clásico en las noches de Gijón, <span style="FONT-WEIGHT: bold">con 16 años de historia</span>. La mejor música, el mejor ambiente y las mejores fiestas nos han hecho ser un referente de la movida Gijonesa.</div><br/><span style="font-weight: bold;">Zona:</span>Puerto deportivo. <br/><br/><h3>Certificados de calidad:</h3>SICTED.<br/><br/><h3>Persona de contacto:</h3>D. Fernando Castaño.<br/><br/><ul><li>No permite la entrada de animales al establecimiento.<br/></li></ul><br/><h4><span style="font-weight: bold;">Descuento del 15% con la tarjeta turística Gijón Card</span></h4>","Claudio Alvargonzález, 8. 33201. Gijón.","43.546041 -5.664668","Bares y cafés, 2011, Gijón Card, Pubs, Gijón card. Tarjeta turística, Guia gastronómica, Turismo, Gijón con Calidad"
"http://www.gijon.es/directorios/show/358-cafe-gijon-ii","358","es","fecha-actualizacion2014-09-01 13:46:01 +0200","http://www.gijon.es/data/images/f6/6374/250x158_v1_Directoriosalasdeexposicionescafegijon.jpg","Café Gijón II","985 346 796","De 9.00 a 14.00 y de 17.00 a 22.00, de lunes a viernes.<br/>Sábados de 10.00 a 14.00 h.<br/>Desde las 9 de la mañana hasta el cierre, 2 o 3 de la mañana.<br/>Las exposiciones son quincenales.","C/Marqués de San Esteban, 40","43.542393 -5.667631","Sala de Exposiciones, 2010, Gijón, Turismo, Bares y cafés, Cultura y Ocio, Turismo, Gijón con Calidad"
"http://www.gijon.es/directorios/show/357-taberna-cafe-gijon","357","es","fecha-actualizacion2016-01-15 10:41:46 +0100","http://www.gijon.es/data/images/f0/f8/81507/800x500_v1_tabernacafeGijon.jpg","Taberna Café Gijón","985 346 796","info@tabenacafegijon.com","www.tabernacafegijon.com","<p>Todoslos días: de 10:00 h a cierre.  Horario cocina de: De lunes a jueves: de13:00 a 16:00 y 20:30 a 23:30 h. Viernes y sábado: de 13:00 a 16:00h. y de 20.30 a24:00 h. Domingo: de 13:00 a 16:00 y de 20:30 a 23:30 h. Miércoles:descanso.</p>","<p>El Café Gijón se encuentra situado junto a la playa de Poniente, frente al Puerto Deportivo, y evoca el recuerdo de la tertulia de los cafés de antaño.</p><p>Especialidad en pinchos, desayunos, tapas variadas, amplia carta de cafés especiales (carajillos, mini-irlandés, vienés,...), coctelería variada (mojitos, caipiriña...).<br/>Sala de exposición permanente, donde cada quince días la obra de un artista cuelga de nuestras paredes.</p><p>Terraza de verano.</p>","C/Rodríguez San Pedro, 33 (también entrada por C/ Marqués de San Esteban, 40)","43.542097 -5.668741","Sala de Exposiciones, Gijón, Turismo, Bares y cafés, Gijón con Calidad, Restaurantes y sidrerías, Guia gastronómica, Cultura y Ocio, Turismo"
