url,identificador,locale,send,nombre,telefono,fax,correo-electronico,web,horario,descripcion,direccion,localizacion,categorias,foto
"http://www.gijon.es/directorios/show/9669-policia-local-hermanos-felgueroso","9669","es","fecha-actualizacion2014-03-11 14:42:19 +0100","Policía Local (Hermanos Felgueroso)","43.535187 -5.658587","Zona Wifi, Boleras, Escuelas Infantiles, Sindicatos, Estaciones de Servicio, Bares y cafés, Edificios y lugares de interés, Puerto deportivo, Saboreando - Restaurantes y sidrerías, Repostería, Comunicaciones, Deporte, Educación, Otros, Movilidad, Turismo"
"http://www.gijon.es/directorios/show/9668-parque-de-la-serena","9668","es","fecha-actualizacion2014-03-11 14:43:39 +0100","Parque de La Serena","43.530505 -5.664557","Zona Wifi, Boleras, Escuelas Infantiles, Sindicatos, Estaciones de Servicio, Bares y cafés, Edificios y lugares de interés, Puerto deportivo, Saboreando - Restaurantes y sidrerías, Comunicaciones, Deporte, Educación, Otros, Movilidad, Turismo"
"http://www.gijon.es/directorios/show/9667-playa-de-san-lorenzo-piles","9667","es","fecha-actualizacion2014-03-11 14:41:08 +0100","Playa de San Lorenzo (Piles)","43.540398 -5.646737","Zona Wifi, Boleras, Escuelas Infantiles, Sindicatos, Estaciones de Servicio, Bares y cafés, Edificios y lugares de interés, Puerto deportivo, Comunicaciones, Deporte, Educación, Otros, Movilidad, Turismo"
"http://www.gijon.es/directorios/show/9666-playa-de-san-lorenzo-nautico","9666","es","fecha-actualizacion2014-03-11 14:40:26 +0100","Playa de San Lorenzo (Naútico)","43.542731 -5.660169","Zona Wifi, Boleras, Escuelas Infantiles, Sindicatos, Estaciones de Servicio, Bares y cafés, Edificios y lugares de interés, Comunicaciones, Deporte, Educación, Otros, Movilidad, Turismo"
"http://www.gijon.es/directorios/show/9665-plaza-del-humedal","9665","es","fecha-actualizacion2014-03-11 14:39:05 +0100","Plaza del Humedal","43.539628 -5.665979","Zona Wifi, Boleras, Escuelas Infantiles, Sindicatos, Estaciones de Servicio, Bares y cafés, Comunicaciones, Deporte, Educación, Otros, Movilidad, Turismo"
"http://www.gijon.es/directorios/show/9664-acuario-de-gijon","9664","es","fecha-actualizacion2014-04-22 15:06:50 +0200","Acuario de Gijón","43.542327 -5.675061","Zona Wifi, Boleras, Comunicaciones, Deporte"
"http://www.gijon.es/directorios/show/9662-puerto-de-vegarada","9662","es","fecha-actualizacion2014-03-11 14:41:54 +0100","Puerto de Vegarada","43.532372 -5.67903","Zona Wifi, Boleras, Escuelas Infantiles, Sindicatos, Estaciones de Servicio, Comunicaciones, Deporte, Educación, Otros, Movilidad"
"http://www.gijon.es/directorios/show/9661-ramon-areces","9661","es","fecha-actualizacion2014-03-11 14:44:00 +0100","Ramón Areces","43.522368 -5.676101","Zona Wifi, Boleras, Escuelas Infantiles, Sindicatos, Estaciones de Servicio, Comunicaciones, Deporte, Educación, Otros, Movilidad"
"http://www.gijon.es/directorios/show/9660-ramon-areces","9660","es","fecha-actualizacion2014-03-11 14:44:22 +0100","Ramón Areces","43.521419 -5.672582","Zona Wifi, Boleras, Escuelas Infantiles, Sindicatos, Comunicaciones, Deporte, Educación, Otros"
"http://www.gijon.es/directorios/show/9659-parque-de-las-palmeras","9659","es","fecha-actualizacion2014-01-22 12:06:30 +0100","Parque de Las Palmeras","43.521139 -5.667465","Zona Wifi, Boleras, Escuelas Infantiles, Sindicatos, Comunicaciones, Deporte, Educación, Otros"
"http://www.gijon.es/directorios/show/9658-piscina-del-llano","9658","es","fecha-actualizacion2014-01-22 12:06:29 +0100","Piscina del Llano","43.527891 -5.659032","Zona Wifi, Boleras, Escuelas Infantiles, Comunicaciones, Deporte, Educación"
"http://www.gijon.es/directorios/show/9657-institutos-perez-de-ayala","9657","es","fecha-actualizacion2014-01-22 12:06:29 +0100","Institutos Pérez de Ayala","43.533118 -5.668838","Zona Wifi, Boleras, Comunicaciones, Deporte"
"http://www.gijon.es/directorios/show/9655-parque-de-begona","9655","es","fecha-actualizacion2014-01-22 12:06:29 +0100","Parque de Begoña","43.53836 -5.660738","Zona Wifi, Boleras, Comunicaciones, Deporte"
"http://www.gijon.es/directorios/show/9653-aparcamiento-del-puerto-deportivo","9653","es","fecha-actualizacion2014-01-22 12:06:29 +0100","Aparcamiento del Puerto Deportivo","43.544007 -5.666993","Zona Wifi, Boleras, Comunicaciones, Deporte"
"http://www.gijon.es/directorios/show/9651-parque-de-la-fabrica-del-gas","9651","es","fecha-actualizacion2014-01-22 12:06:29 +0100","Parque de la Fábrica del Gas","43.539179 -5.650985","Zona Wifi, Boleras, Escuelas Infantiles, Comunicaciones, Deporte, Educación"
"http://www.gijon.es/directorios/show/9650-plaza-de-la-republica-en-el-coto","9650","es","fecha-actualizacion2014-01-22 12:06:29 +0100","Plaza de la República en El Coto","43.533846 -5.6487","Zona Wifi, Boleras, Comunicaciones, Deporte"
"http://www.gijon.es/directorios/show/320-bolera-santa-barbara","320","es","fecha-actualizacion2014-01-22 12:02:27 +0100","Bolera Santa Bárbara","985 387 585","Gestionada por la A.V.V. Santa Bárbara.","Plaza de Gerardo Diego, s/n. (Centro Cultural Santa Bárbara)","43.522793 -5.687919","Boleras, Boleras, 2010, Gijón"
"http://www.gijon.es/directorios/show/319-bolera-pueblo-de-asturias","319","es","fecha-actualizacion2014-01-22 12:02:27 +0100","Bolera Pueblo de Asturias","985 133 180 , 627 560 890","Gestionada por la Peña Bolística El Piles.","Museo Etnográfico del Pueblo de Asturias. La Güelga, s/n.","43.537419 -5.635418","Boleras, Boleras, 2010, Gijón","http://www.gijon.es/data/images/f6/6365/136x147_v1_DirectorioinstalacionesdeportivasBoleraPA.jpg"
"http://www.gijon.es/directorios/show/318-bolera-nuevo-gijon","318","es","fecha-actualizacion2014-01-22 12:02:27 +0100","Bolera Nuevo Gijón","985 147 787","Gestionada por la A.V.V. Santiago.","C/Torrecerredo, s/n.","43.527584 -5.679331","Boleras, Boleras, 2010, Gijón","http://www.gijon.es/data/images/f6/6364/250x188_v1_DirectorioinstalacionesdeportivasB-nuevogijon.jpg"
"http://www.gijon.es/directorios/show/317-bolera-montevil","317","es","fecha-actualizacion2014-01-22 12:02:27 +0100","Bolera Montevil","985 391 434 , 659 604 797","Gestionada por la Peña Bolística Contrueces.","Parque de Los Calderos","43.517206 -5.673328","Boleras, 2010, Gijón","http://www.gijon.es/data/images/f6/6363/250x188_v1_DirectorioinstalacionesdeportivasB-montevil.jpg"
"http://www.gijon.es/directorios/show/316-bolera-leorio","316","es","fecha-actualizacion2014-01-22 12:02:27 +0100","Bolera Leorio","985 137 520 , 985 337 420","Gestionada por la A.V.V. San Antonio.","Mareo, s/n. (Centro Cultural de Leorio)","43.482435 -5.693201","Boleras, Boleras, 2010, Gijón","http://www.gijon.es/data/images/f6/6362/250x368_v1_DirectorioinstalacionesdeportivasB-leorio.jpg"
"http://www.gijon.es/directorios/show/315-bolera-leonesa-el-olivo","315","es","fecha-actualizacion2014-01-22 12:02:27 +0100","Bolera Leonesa 'El Olivo'","985 140 537","Gestionada por la Asociación Bolera Leonesa 'Club El Olvido'.Persona de contacto: Juvencio González Pardo.","Bolera Leonesa " El Olivo" - Avda. de El Llano, 71","43.526768 -5.661545","Boleras, Boleras, 2010, Gijón","http://www.gijon.es/data/images/f6/6361/200x149_v1_DirectorioinstalacionesdeportivasBoleraleonesa.jpg"
"http://www.gijon.es/directorios/show/314-bolera-la-camocha","314","es","fecha-actualizacion2014-01-22 12:02:27 +0100","Bolera La Camocha","985 137 688","985 137 688","avvega@igijon.com","Gestionada por la Asociación de Vecinos de La Camocha.","C/L, La Camocha","43.486875 -5.649719","Boleras, Boleras, 2010, Gijón"
"http://www.gijon.es/directorios/show/313-bolera-el-natahoyo","313","es","fecha-actualizacion2014-01-22 12:02:27 +0100","Bolera El Natahoyo","985 325 025 , 985 321 821 , 626 692 104","matias.glez@terra.es","Gestionada por la Peña Reculta.","C/Pachín de Melás, 44","43.541199 -5.690859","Boleras, Boleras, 2010, Gijón","http://www.gijon.es/data/images/f6/6360/250x188_v1_DirectorioinstalacionesdeportivasB-natahoyo.jpg"
"http://www.gijon.es/directorios/show/312-bolera-el-lauredal-bolos-cuatreada","312","es","fecha-actualizacion2014-01-22 12:02:27 +0100","Bolera El Lauredal (Bolos cuatreada)","985 323 003 , 985 136 215","Gestionada por la Peña Bolística El Lauredal.","Bolera El Lauderal (Bolos cuatreada) - Parque de El Lauredal","43.54272 -5.703202","Boleras, Boleras, 2010, Gijón"
"http://www.gijon.es/directorios/show/311-bolera-el-lauredal-bolos-modalidad-celta","311","es","fecha-actualizacion2014-01-22 12:02:27 +0100","Bolera El Lauredal (Bolos modalidad celta)","985 136 215 , 985 323 003","Gestionada por la Peña Bolística Quintín.","Bolera El Lauderal(Bolos modalidad celta) - C/Betty Friedan, s/n. Junto al parque de El Lauredal","43.542677 -5.700692","Boleras, Boleras, 2010, Gijón"
"http://www.gijon.es/directorios/show/310-bolera-baldornon","310","es","fecha-actualizacion2014-01-22 12:02:27 +0100","Bolera Baldornón","985 974 922","Gestionada por la A.V.V. La Raposa.","Parroquia de Baldornón","43.455417 -5.612736","Boleras, Boleras, 2010, Gijón","http://www.gijon.es/data/images/f6/6359/250x188_v1_DirectorioinstalacionesdeportivasB-camocha.jpg"
