url,identificador,locale,send,foto,nombre,telefono,fax,correo-electronico,web,horario,descripcion,direccion,localizacion,categorias
"http://www.gijon.es/directorios/show/10403-ayalga-spa","10403","es","fecha-actualizacion2016-01-18 12:41:28 +0100","http://www.gijon.es/data/images/f0/f8/81325/1417x791_v1_SalaCeltaAyalgaSpa2.jpg","Ayalga Spa","985 347 208 / 606379887","info@ayalgaspa.com","http://www.ayalgaspa.com/","Decubre un nuevo concepto de Spa en Gijón.<br/><br/>La leyenda dice que las ayalgas, son jóvenes y hermosas mujeres que viven en sintonía con la naturaleza, recluidas en cuevas, palacios o refugios, donde custodian inmensos tesoros.<br/><br/>Bajo esta filosofía nace este nueve concepto de Spa en Gijón. Un tesoro que a través de las diferentes salas temáticas te invita a disfrutar de experiencias únicas que se inspiran en las culturas y filosofías ancestrales. Un refugio que estimula el descanso y el equilibrio interior, para que el relax lejos de ser una excepción, se convierta en toda una forma de vida.<br/><br/>Descubre un lugar mágico que poder visitar, donde poder olvidar la rutina, donde cuidarte y donde sentir que de verdad eres lo importante.<br/><br/>  ","Calle Concepción Arenal, 3 - bajo 33202 Gijón","43.539169 -5.658832","Ocio, Salud, Gijón card. Tarjeta turística, Cultura y Ocio, Turismo"
"http://www.gijon.es/directorios/show/6761-thala-estetica","6761","es","fecha-actualizacion2014-10-01 10:50:57 +0200","http://www.gijon.es/data/images/f0/f3/35970/143x143_v1_logothala.jpg","Thala Estética","985 358 306","thala@talasoponiente.com","http://www.thalaestetica.com/","<ul><li><strong></strong><b>Ruta de la Sidra Gijón<br/></b></li></ul><p><b>Baño relajante con Espuma de Manzana. 30€/persona.<br/>Peeling corporal de Manzana. 30€/persona.<br/>Envoltura de hidratación con Manzana. 30€/persona.</b></p><p><br/></p>","Playa de Poniente, Dique Este 33206","43.544704 -5.66891","Salud, Ruta de la Sidra, 2011, Turismo-Turismo de salud, Turismo"
"http://www.gijon.es/directorios/show/1290-sanatorio-ntra-sra-covadonga","1290","es","fecha-actualizacion2014-01-22 12:02:53 +0100","http://www.gijon.es/data/images/f0/f3/30418/169x133_v1_covadonga.jpg","Sanatorio Ntra. Sra. Covadonga","985 365 122   /411","985 365 385","dascsgij@planalfa.es","Urgencias 24h.","El Sanatorio Nuestra Señora de Covadonga de Gijón tiene como finalidad  primordial la atención Médico-quirúrgica en  régimen de internado.En un espacio natural privilegiado, en el  el centro de Gijón, te ofrece amplios espacios exteriores e interiores.","C/General Suárez Valdés, s/n.","43.530034 -5.649102","Otros Centros Hospitalarios, Salud"
"http://www.gijon.es/directorios/show/1289-sanatorio-begona-de-gijon","1289","es","fecha-actualizacion2014-01-22 12:02:53 +0100","http://www.gijon.es/data/images/f0/f3/30423/169x133_v1_begonia.jpg","Sanatorio Begoña de Gijón","985 367 711   /233","985 365 385","info@hospitalbego%C3%B1a.com","Urgencias 24h.","El Centro consta de 65 habitaciones individuales, cada una de ellas con cama de acompañante, y cinco camas en U.V.I. - R.E.A. Además cuenta con: Agua caliente y calefacción central; Alumbrado de Emergencia; Eliminación de basuras; Seguridad contra incendios; Acceso independiente para Urgencias; Ascensores: 1; Montacamillas: 1; Mantenimiento, Lavandería y Cocina.","Avda. de Pablo Iglesias, 92","43.535078 -5.647691","Otros Centros Hospitalarios, Salud"
"http://www.gijon.es/directorios/show/791-hospital-de-jove","791","es","fecha-actualizacion2017-03-28 12:25:26 +0200","Hospital de Jove","985 320 050 , 985 181 080","985 315 710","Urgencias 24 horas","El Hospital de Jove es un centro perteneciente a una Fundación benéfico-privada sin ánimo de lucro que viene prestando asistencia sanitaria en la ciudad de Gijón, primero como Hospital de Caridad, y desde los años ochenta del siglo XX, en que el centro se transforma radicalmente, como un Hospital Comarcal más de la Red Hospitalaria Pública. Centro abierto a todo tipo de pacientes, pues atiende tanto pacientes del sistema público como de Mutuas, Aseguradoras y pacientes privados.","Avda. Eduardo Castro","43.54975 -5.700365","Otros Centros Hospitalarios, Salud, Sanidad, Turismo"
"http://www.gijon.es/directorios/show/790-hospital-de-la-cruz-roja-espanola","790","es","fecha-actualizacion2014-01-22 12:02:42 +0100","http://www.gijon.es/data/images/f6/6675/250x188_v1_Directoriovarioscruzroja.jpg","Hospital de la Cruz Roja Española","985 195 000","985 133 191, 985 133 195","correo@hospitalcrgijon.com","El Hospital Cruz Roja Española de Gijón es un centro de dependencia jurídico-patrimonial de CRUZ ROJA ESPAÑOLA.Dedicándose a la actividad de Asistencia Sanitaria y Hospitalización. Mantiene un convenio singular con el Servicio de Salud del Principado de Asturias (SESPA) como Hospital de agudos vinculado a la Red Pública Sanitaria.","C/Uría, 37","43.538329 -5.654665","Cruz Roja, Otros Centros Hospitalarios, Salud"
"http://www.gijon.es/directorios/show/356-centro-de-salud-de-zarracina","356","es","fecha-actualizacion2015-01-14 12:30:57 +0100","http://www.gijon.es/data/images/f0/f3/30397/169x133_v1_zarracina.jpg","Centro de Salud de Zarracina","985 334 711","Parque de Zarracina, s/n.","43.537178 -5.656532","Centros de Salud Primaria, 2010, Gijón, Salud, Sanidad, Turismo"
"http://www.gijon.es/directorios/show/355-centro-de-salud-severo-ochoa","355","es","fecha-actualizacion2014-01-22 12:02:28 +0100","http://www.gijon.es/data/images/f0/f3/30417/169x133_v1_severoochoa.jpg","Centro de Salud Severo Ochoa","985 151 900","985 164 000","Urgencias hasta las 22:00h.","C/Francisco Grande Covian, 4","43.531483 -5.671072","Centros de Salud Primaria, 2010, Gijón, Salud"
"http://www.gijon.es/directorios/show/354-centro-de-salud-roces-montevil","354","es","fecha-actualizacion2017-01-17 13:22:46 +0100","Centro de Salud Roces - Montevil","Lunes a Viernes: 8:00-15:00h. Atención continuada/urgencias: lunes a viernes: 15:00-20:00h."," ","Avda. de les Cigarreres, s/n.","43.521075 -5.680396","Centros de Salud Primaria, 2010, Gijón, Salud, Sanidad, Turismo"
"http://www.gijon.es/directorios/show/353-centro-de-salud-perchera-pumarin","353","es","fecha-actualizacion2015-07-13 08:58:17 +0200","Centro de Salud Perchera-Pumarín","985 144 711","985 390 753 , 985 164 618","Urgencias hasta las 22:00h.","C/Orán, s/n.","Centros de Salud Primaria, 2010, Gijón, Salud, Sanidad, Turismo"
"http://www.gijon.es/directorios/show/352-centro-de-salud-natahoyo","352","es","fecha-actualizacion2017-01-17 13:22:33 +0100","Centro de Salud Natahoyo","985 321 110","985 321 199","Urgencias hasta 20:00h."," ","Avda. de Juan Carlos I, 60","43.537303 -5.685816","Centros de Salud Primaria, 2010, Gijón, Salud, Sanidad, Turismo"
"http://www.gijon.es/directorios/show/350-centro-de-salud-de-laviada","350","es","fecha-actualizacion2015-01-14 12:33:07 +0100","http://www.gijon.es/data/images/f0/f3/30396/169x133_v1_laviada.jpg","Centro de Salud de Laviada","985 352 520","985 352 520","C/Juanín de Mieres, 8","43.536346 -5.671198","Centros de Salud Primaria, 2010, Gijón, Salud, Sanidad, Turismo"
"http://www.gijon.es/directorios/show/349-centro-de-salud-de-la-calzada-ii","349","es","fecha-actualizacion2015-07-13 08:55:29 +0200","Centro de Salud de La Calzada II","985 308 845","985 308 838 , 985 354 918","C/Simón Bolivar, 6","43.536776 -5.700512","Centros de Salud Primaria, 2010, Gijón, Salud, Sanidad, Turismo"
"http://www.gijon.es/directorios/show/348-centro-de-salud-de-la-calzada","348","es","fecha-actualizacion2015-01-14 12:32:29 +0100","Centro de Salud de La Calzada","985 315 511","985 315 999","C/Oriental, 11 - 13","43.540456 -5.697519","Centros de Salud Primaria, 2010, Gijón, Salud, Sanidad, Turismo"
"http://www.gijon.es/directorios/show/347-centro-de-salud-parque-somio","347","es","fecha-actualizacion2015-01-14 12:31:54 +0100","http://www.gijon.es/data/images/f0/f3/30402/169x133_v1_elparque.jpg","Centro de Salud Parque-Somió","985 134 400","985 134 403","Avda. Torcuato Fernández Miranda, 36","43.535366 -5.640814","Centros de Salud Primaria, 2010, Gijón, Salud, Sanidad, Turismo"
"http://www.gijon.es/directorios/show/346-centro-de-salud-el-llano","346","es","fecha-actualizacion2014-01-22 12:02:28 +0100","http://www.gijon.es/data/images/f0/f3/30401/169x133_v1_llano.jpg","Centro de Salud El Llano","985 160 301","985 160 301","Urgencias 24h.","Avda. Juan Alvargonzález, 95","43.52982 -5.662744","Centros de Salud Primaria, 2010, Gijón, Salud"
"http://www.gijon.es/directorios/show/345-centro-de-salud-el-coto","345","es","fecha-actualizacion2017-01-17 13:22:25 +0100","http://www.gijon.es/data/images/f0/f3/30398/169x133_v1_coto.jpg","Centro de Salud El Coto","985 332 822","985 332 822 , 985 336 757","Urgencias hasta 20:00h.","C/Avelino González Mallada, s/n.","43.528545 -5.630879","Centros de Salud Primaria, 2010, Gijón, Salud, Sanidad, Turismo"
"http://www.gijon.es/directorios/show/344-centro-de-salud-contrueces","344","es","fecha-actualizacion2015-01-14 12:31:34 +0100","Centro de Salud Contrueces","985 387 444","985 387 795","C/Río Cares, 20","43.519639 -5.666024","Centros de Salud Primaria, 2010, Gijón, Salud, Sanidad, Turismo"
"http://www.gijon.es/directorios/show/343-consultorio-medico-vega-la-camocha","343","es","fecha-actualizacion2014-01-22 12:02:28 +0100","Consultorio Médico Vega - La Camocha","985 137 372","985 137 080","Lunes a Viernes: 8:00-15:00h.No tiene urgencias.","Camino del Cura, 11 (La Camocha)","43.492067 -5.650481","Centros de Salud Primaria, Centros de Salud Mental, 2010, Gijón, Salud"
"http://www.gijon.es/directorios/show/342-consultorio-medico-de-tremanes","342","es","fecha-actualizacion2014-01-22 12:02:28 +0100","Consultorio Médico de Tremañes","985 315 953","985 315 953","Lunes a Viernes: 8:00-15:00h.","No tiene urgencias.","Consultores Médico de Tremañes - Avda. de Los Campones, 86","43.530614 -5.696948","Centros de Salud Primaria, Centros de Salud Mental, 2010, Gijón, Salud"
"http://www.gijon.es/directorios/show/269-ambulatorio-puerta-la-villa","269","es","fecha-actualizacion2014-01-22 12:02:26 +0100","http://www.gijon.es/data/images/f0/f3/30393/169x133_v1_puertalavilla.jpg","Ambulatorio Puerta La Villa","985 358 467, 985 143 030, 985 341 500 (Urgencias)","985 143 560","Lunes a Viernes: 8:00-20.00h. ininterrumpido. Urgencias 24 horas","C/Donato Argüelles, 20","43.539002 -5.664493","Centros de Salud Primaria, 2010, Gijón, Salud"
"http://www.gijon.es/directorios/show/268-ambulatorio-dr-avelino-glez-pumarin","268","es","fecha-actualizacion2014-01-22 12:02:25 +0100","http://www.gijon.es/data/images/f0/f3/30386/169x133_v1_pumarin.jpg","Ambulatorio Dr. Avelino Glez. / Pumarín","985 389 288","985 388 157","Lunes a Viernes: 8:00-20.00h. ininterrumpido. No urgencias","Ambulatorio Dr Avelino Glez/ Pumarín - C/Orán, 18","43.529392 -5.679014","Centros de Salud Especializada, 2010, Gijón, Salud"
