url,identificador,locale,send,nombre,telefono,fax,correo-electronico,web,horario,descripcion,direccion,localizacion,categorias,foto
"http://www.gijon.es/directorios/show/9255-escuela-taller-empleos-innovadores","9255","es","fecha-actualizacion2014-01-22 12:06:17 +0100","Escuela Taller "Empleos Innovadores"","985 131 233","etinnova@gmail.com","Lunes a Viernes: 09:00-15:00h.","Casa de Rosario Acuña - C/ Camino de los Arces s/n (La Providencia) - Casa de Rosario Acuña. C/ Camino de los Arces, s/n, La Providencia","43.550823 -5.635378","Centros de Formación, Educación"
"http://www.gijon.es/directorios/show/1817-formacion-y-eett-escuela-taller-eett-pabellones-del-intra","1817","es","fecha-actualizacion2014-01-22 12:03:09 +0100","Formación y EETT (Escuela Taller) -EETT  Pabellones del Intra","985 369 679","etpabintra@telefonica.net","C/Mercator, 62 (Polígono de Roces, 4.)","43.508277 -5.686364","Centros de Formación, Servicios Municipales, 2010, Gijón"
"http://www.gijon.es/directorios/show/1816-formacion-y-eett-escuela-taller-eett-e-gijon-ii","1816","es","fecha-actualizacion2014-01-22 12:03:08 +0100","Formación y EETT (Escuela Taller) -EETT e-Gijón II","984 398 636","etegijon@igijon.com","Formación y EETT (Escuela  Talle)-EETT e-Gijón II - C/ Saavedra, 1. Entresuelo","43.536404 -5.664643","Centros de Formación, Servicios Municipales, 2010, Gijón"
"http://www.gijon.es/directorios/show/1760-astur-parapente","1760","es","fecha-actualizacion2014-07-16 12:42:07 +0200","Astur Parapente","rigelpe@telefonica.net","Persona de contacto: Ricardo Igelmo instructor y presidente del club.","C/Naranjo de Bulnes, 28","43.526506 -5.682579","Empresas de Ocio, Centros de Formación, 2010, Gijón, Cultura y Ocio, Educación"
"http://www.gijon.es/directorios/show/1758-promociones-nautica-pesquera-proastur","1758","es","fecha-actualizacion2014-01-22 12:03:08 +0100","Promociones naútica pesquera Proastur","606 318 771","proastur@telefonica.net","Abierto todo el año.","Actividad: Actividades náuticas.Embarcaciones: Catamarán, ATHENA 38, 12 m. eslora, 13 personas (sin patrón). Embarcación de motor, modelo 747, 7,40 m. eslora, 5 pasajeros (sin patrón). Actividades: Pesca en barco motor. Excursiones en barco a motor (a puertos próximos, rutas gastronómicas, turísticas...). Excursiones en velero (a puertos próximos, rutas gastronómicas, turísticas...). Cursos colectivos vela crucero. Avistamientos de aves marinas, delfines y otros cetáceos. Charter fin semana/semana, c/s patrón. Salidas nocturnas, despedidas de soltero/a.Instalaciones y servicios complementarios: Contrato de alquiler de uso de instalaciones del Puerto Deportivo.Grupos reducidos.","C/Capua, 16 - 1º","43.540501 -5.658321","Empresas de Ocio, Centros de Formación"
"http://www.gijon.es/directorios/show/1757-marina-de-gijon-charter-yachts-escuela-de-navegacion","1757","es","fecha-actualizacion2014-01-22 12:03:08 +0100","Marina de Gijón Charter Yachts. Escuela de Navegación","985 171 970","marinadegijon@terra.es","Abierto todo el año.","Actividad: Actividades náuticas.Embarcaciones: 2 embarcaciones de vela, DINA 223, 7 m. de eslora, 5 personas (sin patrón). Embarcación de motor, SUN ODISSEY-30, 9 m. de eslora, 6 personas (sin patrón). Embarcación de motor, BERTRAM 46.6, 15 m. de eslora, 11 personas (sin patrón). Embarcación de motor, modelo único, 18 m. de eslora, 11 personas (sin patrón). Actividades: Pesca en barco motor. Excursiones en barco a motor (a puertos próximos, rutas gastronómicas, turísticas...). Excursiones en velero (a puertos próximos, rutas gastronómicas, turísticas...). Cursos colectivos vela crucero. Avistamientos de aves marinas, delfines y otros cetáceos. Charter fin semana/semana, c/s patrón. Salidas nocturnas, despedidas soltero/a. Titulaciones náutico deportivas. Prácticas de navegación oficiales para todas las titulaciones. Pesca de altura.Titulaciones naúticas: Patrón Navegación Básico, Patrón de Navegaciones de Recreo, Patrón yate y Capitán de yate. Instalaciones servicios complementarios: Local social y aula para 30 personas. Sello de calidad: SICTED.","C/Artillería, 24 Bajo (Cimadevilla)","43.547667 -5.665965","Empresas de Ocio, Centros de Formación","http://www.gijon.es/data/images/f7/7300/250x177_v1_DirectorioocioEscuelaNavegacion.jpg"
"http://www.gijon.es/directorios/show/1756-escuela-de-navegacion-y-pesca-deportiva-bahia-de-gijon","1756","es","fecha-actualizacion2014-01-22 12:03:08 +0100","Escuela de Navegación y Pesca deportiva Bahía de Gijón","985 357 376","ferdy595@hotmail.com","<div style="text-align: justify;">Actividad: Actividades náuticas.Embarcaciones: 3 embarcaciones vela crucero, modelo 747, 7,50 m. de eslora, 5 pasajeros/embarcación. 5 embarcaciones vela ligera, modelo 595, 6 m. eslora, 5 pasajeros/embarcación (sin patrón). 2 embarcaciones vela ligera, modelo raquero, 5,20 m. eslora, 4 pasajeros/embarcación (sin patrón). Embarcación de motor, CRIS CRAFT CAVALIER, 10 m. eslora, 8 pasajeros(sin patrón). Embarcación de motor, UDONDO 31´5, 10 m. eslora, 8 pasajeros (sin patrón). </div><br/><div style="text-align: justify;">Actividades: Pesca en barco a motor. Excursiones en velero (puertos próximos, rutas gastronómicas, turísticas...). Cursos colectivos vela ligera. Cursos colectivos vela crucero. Charter fin semana/semana, c/sin patrón. Titulaciones náutico deportivas.Titulaciones naúticas: Iniciación, perfeccionamiento, regata. Instalaciones y servicios complementarios: Aula de impartición de cursos. Contrato de alquiler de uso de instalaciones del Puerto Deportivo. Periodo de invierno grupos reducidos.</div>","C/Pedro Duro, 2 -1º","43.542346 -5.667647","Empresas de Ocio, Centros de Formación, 2010, Gijón, Cultura y Ocio, Educación","http://www.gijon.es/data/images/f0/f3/39042/554x450_v1_bahia.jpg"
"http://www.gijon.es/directorios/show/1755-nautica-costa-verde-s-a","1755","es","fecha-actualizacion2014-01-22 12:03:08 +0100","Náutica Costa Verde S.A.","629 419 085","juanluis@nauticacostaverde.com","Abierto todo el año.","Actividad: Actividades náuticas.Embarcaciones: Embarcación de vela, GIB´ SEA 33, 10 m. eslora, para 8 personas (sin patrón). Embarcación de motor, GOYMAR 740, 7,40 m. eslora, para 5 personas (sin patrón). Actividades: Pesca en barco motor. Excursiones en barco a motor (a puertos prósimos, rutas gastronómicas, turísticas...) Excursiones en velero (a puertos próximos, rutas gastronómicas, turísticas...) Cursos colectivos vela crucero. Charter fin semana/semana, c/s patrón. Salidas nocturnas, despedidas de soltero/a. Titulaciones náutico deportivas.Titulaciones naúticas: Iniciación y perfeccionamiento. Instalaciones y servicios complementarios: Formación teórica.","C/Álvarez Garaya, 7 12B","43.541125 -5.665308","Empresas de Ocio, Centros de Formación","http://www.gijon.es/data/images/f7/7299/145x60_v1_Directorioocionauticacostaverde.jpg"
"http://www.gijon.es/directorios/show/1754-profundidad-asturias","1754","es","fecha-actualizacion2014-01-22 12:03:08 +0100","Profundidad Asturias","985 154 095","985 362 368","Centro de buceo en el que se realiza bautismo de buceo, cursos de buceo padi, salidas de buceo.","C/Garcilaso de la Vega, 35","43.537888 -5.655861","Empresas de Ocio, Centros de Formación"
"http://www.gijon.es/directorios/show/1399-centro-de-educacion-de-personas-adultas","1399","es","fecha-actualizacion2014-01-22 12:02:56 +0100","Centro de Educación de Personas Adultas","985 380 452 , 985 156 039 , 985 383 509","985 156 039","ceagijon@educastur.org","El Centro inicia su andadura en Septiembre de 1982 con el propósito de llenar el vacio existente en la educación gijonesa. Es de titularidad del Principado de Asturias y los cursos que impartimos son totalmente gratuitos.","C/Jove y Hevia, 5","43.527527 -5.678264","Centros de Formación, 2010, Gijón"
"http://www.gijon.es/directorios/show/1386-universidad-popular","1386","es","fecha-actualizacion2014-01-22 12:02:55 +0100","Universidad Popular","985 181 001","985 350 709","fmc@gijon.es","Lunes a Viernes:9:00-22:00h. Sábados: 10:00-14:00h. y 16:00-21:00h. Domingos: 10:00-14:00h.","Programas: Apoyo a la Creación Artística. Formación especializada. Programas de difusión: ciclos de conciertos, ciclos de cine, actuaciones de teatro y danza, poesía, imagen. Apoyo al asociacionismo.- Colaboración cultural.Formación: Sonido, imagen, teatro, danza.","C/Jovellanos, 21","Centros de Formación","http://www.gijon.es/data/images/f7/7000/250x188_v1_Directorioedificiosmunicipalesantistituto.jpg"
"http://www.gijon.es/directorios/show/1385-universidad-laboral","1385","es","fecha-actualizacion2017-03-28 12:27:02 +0200","Universidad Laboral","985 185 500 , 985 181 080 , 985 131 729   /868 , 902 306 600(Teatro)","985 132 900","laboral@educastur.org","<span style="font-weight: bold;">Autor:</span> Luis Moya.<br/> <br/><div style="text-align: justify;">Obra destinada a Orfanato Minero, en la que el arquitecto Luis Moya configura la ciudad perfecta, autónoma, realidad y símbolo del <span style="font-weight: bold;">&quot;orden nuevo&quot;</span>. Destaca por la monumentalidad, por la armonía irregular y por la adaptación de la orografía del terreno. La <span style="font-weight: bold;">fachada principal, asimétrica</span>, muestra la influencia de la Escuela de Chicago y la puerta se abre bajo un torreón, siguiendo la tradición de Roma y de la Europa medieval. Atravesado el atrio, se pasa a la Plaza Central, de 8300 metros cuadrados, destacando al fondo la silueta de la torre. El teatro tiene 1654 localidades y la capilla, de <span style="font-weight: bold;">influencia paleocristiana</span>, es de dimensiones suficientes para albergar a toda la población residente en la Universidad.</div>","C/ Luis Moya Blanco, 261 (Cabueñes)","43.523804 -5.613383","Monumentos, Institutos de Educación Secundaria, Centros de Formación, Edificios y lugares de interés, Cultura y Ocio, Educación, Turismo","http://www.gijon.es/data/images/f6/6999/200x150_v1_DirectorioMONUMENTOSunivlaboral.jpg"
"http://www.gijon.es/directorios/show/719-formacion-y-eett-escuelas-taller-eett-e-gijon","719","es","fecha-actualizacion2014-01-22 12:02:40 +0100","Formación y EETT (Escuelas Taller) -EETT  e-Gijón","985 092 136","etegijon@igijon.com","Lunes a Viernes: 9:00-14:00h.","Formación y ETT(Escuelas Taller- EET e-Gijón - C/Ernesto Winter, 7 La Camocha.","43.48668 -5.651672","Centros de Formación, Servicios Municipales, 2010, Gijón"
"http://www.gijon.es/directorios/show/588-escuela-oficial-de-idiomas-de-gijon","588","es","fecha-actualizacion2014-01-22 12:02:35 +0100","Escuela Oficial de Idiomas de Gijón","985 393 393","985 393 819","eoigijon@educastur.org","En Julio: 10:00-13:00 h.","C/Puerto Vegarada, s/n.","43.532263 -5.679245","Centros de Formación, Servicios Municipales, 2010, Gijón","http://www.gijon.es/data/images/f6/6518/306x229_v1_Directoriocentrosformacionidiomas.jpg"
"http://www.gijon.es/directorios/show/507-conservatorio-profesional-de-musica-de-gijon","507","es","fecha-actualizacion2014-01-22 12:02:32 +0100","Conservatorio Profesional de Música de Gijón","985 185 825","985 185 829","congijon@educastur.org","(Secretaria) Lunes y Jueves: 11:00-12:00 h.","El Conservatorio Profesional de Música de Gijón, es un centro educativo público, que depende de la Consejería de Cultura y Educación del Principado de Asturias.Este Conservatorio tiene como objetivo la enseñanza de la música como arte y además la educación de los alumnos en lo que se refiere al comportamiento profesional de estos en la sociedad actual, completando así su formación integral, apoyados por la familia y los demás centros educativos a los que asisten.Las actividades profesionales hacia las que se encaminan estos estudios son: Músico concertista, Músico pedagogo, Músico de agrupación  instrumental (orquesta, big-band etc...).","Conservatorio Profesiona de Música de Gijón - C/Luis Moya Blanco, 261","Centros de Formación, 2010, Gijón, Servicios Municipales, Administración, Educación","http://www.gijon.es/data/images/f6/6463/192x256_v1_Directoriocentrosformacionconservatorio.jpg"
"http://www.gijon.es/directorios/show/481-colegio-publico-lloreu","481","es","fecha-actualizacion2014-01-22 12:02:31 +0100","Colegio Público Lloréu","985 325 813","985 325 813","ellloreu@educastur.org","Lunes a Viernes: 9:00-14:00h.(Secretaría)Lunes a Viernes: 9:00-10:00h.","Jornada Continua: SíComedor: Sí (Ayto.)Asturiano: SíOferta Formativa:   -Educación Primaria.","C/Cortijo, 16","43.537484 -5.688096","Colegios, Centros de Formación, 2010, Gijón","http://www.gijon.es/data/images/f6/6446/306x229_v1_Directorioeducacionlloreu.jpg"
"http://www.gijon.es/directorios/show/475-colegio-publico-jovellanos","475","es","fecha-actualizacion2014-01-22 12:02:31 +0100","Colegio Público Jovellanos","985 343 972","985 342 187","jovellan@educastur.org","Lunes a Viernes: 9:00-14:00h.","Jornada Continua: SíComedor: NoAsturiano: SíOferta Formativa:   -Educación Infantil de 2º ciclo.   -Educación Primaria.","C/La Merced, 38","43.540495 -5.661612","Colegios, Centros de Formación","http://www.gijon.es/data/images/f6/6441/250x220_v1_DirectorioeducacioncolegioJovellanos.jpg"
"http://www.gijon.es/directorios/show/464-colegio-publico-educacion-especial-castiello-bernueces","464","es","fecha-actualizacion2014-01-22 12:02:31 +0100","Colegio Público Educación Especial Castiello Bernueces","985 337 089","985 338 004","fmss@gijon.es","Lunes a Viernes: 9:00 -16:30h.","Jornada Continua: SíComedor: SíAsturiano: NoOferta Formativa:   -Escuela Infantil (Red de Esscuelas Infantiles del Pdo. De 0 a 3 años).   -Educación Secundaria Obligatoria.   -Educación Especial.","Camino de la Ería, 699 (Castiello de Bernueces)","43.514378 -5.625901","Colegios, Centros de Formación, 2010, Gijón","http://www.gijon.es/data/images/f6/6435/294x196_v1_DirectorioeducacionCastiello1.JPG"
"http://www.gijon.es/directorios/show/427-centro-de-seguridad-maritima-integral-jovellanos","427","es","fecha-actualizacion2015-08-26 18:34:53 +0200","Centro de Seguridad Marítima Integral Jovellanos","+34 985 159 800","985 167 604","marketing@centrojovellanos.com","http://www.centrojovellanos.com","Este centro es una entidad pública Empresarial adscrita al Ministerio de Fomento a través de la Dirección General de la Marina Mercante.Tiene dos tipos de ofertas: cursos de pago en las Areas de Mar, Industria y Bomberos (se pueden consultar en la web del centro) y cursos gratuitos del Plan Perseo.Son cursos gratuitos para trabajadores ocupados que residan en Regiones Objetivo nº 1, entre las que se encuentra Asturias. Los hay sobre Seguridad, Buceo, Medio Ambiente y Ambito Marítimo.<br/><br/><h3>Información sobre las salas del Centro de Seguridad Marítima Integral de Jovellanos</h3><br/><table><thead><tr><th>Sala</th><th>Teatro</th><th>Otras disposiciones<br/></th><th>m<sup>2</sup></th><th>Altura<br/></th></tr></thead><tbody><tr><td>Salón de actos<br/></td><td>450</td><td><br/></td><td>487,5</td><td>8</td></tr><tr><td>Sala de congresos<br/></td><td><br/></td><td>Escuela 30<br/></td><td>101</td><td>2,60</td></tr><tr><td>Cafetería comedor<br/></td><td><br/></td><td>Banquete 160<br/>Cóctel 180<br/></td><td>200</td><td>4</td></tr><tr><td>Comedor privado<br/></td><td><br/></td><td>Banquete 40<br/>Cóctel 50<br/></td><td>198</td><td>2,60</td></tr></tbody></table>","Veranes, s/n (Cenero)","43.488113 -5.75984","Protección Marítima, Centros de Formación, 2010, Gijón, Servicios municipales, Turismo, Educación, Seguridad Ciudadana, Turismo"
"http://www.gijon.es/directorios/show/420-centro-de-formacion-profesional-nautico-pesquero","420","es","fecha-actualizacion2014-01-22 12:02:30 +0100","Centro de Formación Profesional Náutico Pesquero","985 325 812","985 313 364","maritimo@educastur.org","El Centro de Formación Profesional Náutico Pesquera imparte, además de la Formación Profesional Reglada de la Familia Actividades Marítimo Pesqueras, las siguientes enseñanzas profesionales: Titulaciones Profesionales Náutico Pesqueras, Capitán de Pesca, Patrón Costero Polivalente, Patrón Local de Pesca, Patrón Portuario, Marinero de Puente de la Marina Mercante, Marinero de Máquinas de la Marina Mercante y Días de embarco (Certificados profesionales, Certificado de Formación Básica y Otros Certificados Profesionales).","Avda. Príncipe de Asturias, 74","43.542576 -5.694695","Centros de Formación, 2010, Gijón"
"http://www.gijon.es/directorios/show/419-centro-de-formacion-profesional-ocupacional-las-palmeras","419","es","fecha-actualizacion2014-01-22 12:02:30 +0100","Centro de Formación Profesional Ocupacional Las Palmeras","985 163 282 , 985 163 420","985 143 472","cfogijon@educastur.org","Lunes a Viernes: 8:00-21:00h.","El centro cuenta con: unas fachadas que aparecen cubiertas de zinc, madera y vidrio, además disponemos de los espacios técnicos necesarios (salón de actos, administración talleres de mayor tamaño, aulas teóricas, almacenes, etc) repartidos en aproximadamente unos 3000 m2. En el año 2004 nuestro equipo profesional desarrollo acciones formativas de las que se beneficiaron 548 alumnos y que se agruparon en 23 Especialidades Formativas.","Centro de Formación Ocupacional Las Palmeras - C/Aserradores, s/n.","43.518626 -5.679288","Centros de Formación, 2010, Gijón","http://www.gijon.es/data/images/f6/6409/220x286_v1_Directoriocentrosformacioncentro_palmera.JPG"
"http://www.gijon.es/directorios/show/341-centro-integrado-de-formacion-profesional-industrial-y-servicios-gijon","341","es","fecha-actualizacion2014-01-22 12:02:28 +0100","Centro Integrado de Formación Profesional Industrial y Servicios Gijón","985 185 500","985 18 55 03","industrialyservicios@educastur.org","C/Luis Moya Blanco, 261","43.524787 -5.612748","Centros de Formación, 2010, Gijón","http://www.gijon.es/data/images/f6/6372/250x188_v1_DirectoriocentrosformacionU_laboral.jpg"
"http://www.gijon.es/directorios/show/340-centro-integrado-de-formacion-profesional-hosteleria-y-turismo-de-gijon","340","es","fecha-actualizacion2015-08-26 18:35:01 +0200","Centro Integrado de Formación Profesional Hostelería y Turísmo de Gijón","+34 985 175 076","985 175 077","hosteler@educastur.org","http://www.escueladehosteleriayturismo.com","<div style="text-align: justify;">Este centro pasa por ser pionero en el ámbito de las enseñanzas públicas oficiales de la familia profesional de Hostelería y Turismo, valorado en su momento como un ejemplo a seguir en otras Comunidades Autónomas. Los equipamientos didácticos del Hostelería y Turismo de Gijón responden a un concepto avanzado de estas enseñanzas profesionales. <br/><br/>Tanto el propio edificio que alberga la Escuela como su ubicación, diseño arquitectónico, decoración y equipamientos fueron pensados para generar un ambiente cercano al que presentan las empresas y hábitos profesionales del sector turístico. Se cursan los estudios oficiales correspondientes a la familia profesional de Hostelería y Turismo dentro de la formación profesional específica. <br/><br/>En la actualidad se imparten ciclos formativos de grado medio y ciclos formativos de grado superior, formación ocupacional, talleres de empleo, prácticas en empresas, etc.<br/></div><br/><h3>Información sobre las salas de la Escuela Regional de Hostelería y Turismo de Asturias</h3><br/><table><thead><tr><th>Sala<br/></th><th>Teatro<br/></th><th>Otras disposiciones<br/></th><th>m<sup>2</sup></th><th>Altura<br/></th></tr></thead><tbody><tr><td>Salón de actos<br/></td><td>160</td><td><br/></td><td><br/></td><td><br/></td></tr><tr><td>Aula B 102<br/></td><td><br/></td><td>Escuela 40<br/></td><td>96</td><td>4,5</td></tr><tr><td>Comedor sala<br/></td><td><br/></td><td>Banquete 100<br/></td><td>150</td><td>3</td></tr><tr><td>Hall<br/></td><td><br/></td><td>Cóctel 150<br/></td><td>198</td><td><br/></td></tr></tbody></table>","C/Paseo Begoña, 30","43.537659 -5.660985","Centros de Formación, 2010, Gijón, Congresos, Gijón con Calidad, Educación","http://www.gijon.es/data/images/f6/6371/280x210_v1_Directoriocentrosformacionhosteleria.jpg"
"http://www.gijon.es/directorios/show/183-centro-municipal-integrado-ateneo-de-la-calzada","183","es","fecha-actualizacion2017-03-28 12:22:14 +0200","Centro Municipal Integrado Ateneo de La Calzada","985 181 403","985 301 198","cmicalzada@gijon.es","http://www.gijon.es","Lunes a sábado, de 8:00 a 22:00 h. Cajero: 24h","<p>Este Centro ha sido el último en incorporarse a la red de centros municipales integrados, pese a ser el equipamiento más veterano. Su origen, muy lejano en el tiempo y en la historia del barrio de La Calzada, lo liga a iniciativas vecinales (que aún disponen de espacios en el Centro) y a usos municipales puramente culturales. Una reciente reforma lo ha convertido, desde el año 2007, en un centro municipal integrado con el mismo rango de servicios y organización que el resto.</p><p>Dispone de: oficina de atención a la ciudadanía, Servicios Sociales, salón de actos (aforo de 270 personas), sala de exposiciones, biblioteca, mediateca (14 puestos), salas polivalentes, aulas, talleres especializados y cajero ciudadano.</p><p><img src="/data/images/f0/f4/42478/266x400_v1_LaCalzadaexterior.JPG" alt="exterior la calzada" class="image-izquierda magnify" height="400" width="266" width="266" height="400"/><br/></p><p><span style="font-weight: bold;"><img src="/data/images/f0/f4/42482/400x300_v1_Bibliotecainfantil.JPG" alt="ateneop biblio" class="image-derecha magnify" height="300" width="400" width="400" height="300"/><br/></span></p><p><span style="font-weight: bold;"><br/></span></p><p><span style="font-weight: bold;"><br/></span></p><p><span style="font-weight: bold;"><br/></span></p><p><span style="font-weight: bold;"><br/></span></p><p><span style="font-weight: bold;"><br/></span></p><p><span style="font-weight: bold;"><br/></span></p><p><span style="font-weight: bold;"><br/></span></p><p><span style="font-weight: bold;"><br/></span></p><p><span style="font-weight: bold;"><br/></span></p><p><span style="font-weight: bold;"><br/></span></p><p><span style="font-weight: bold;"><a href="http://issuu.com/agendasdeloscentrosintegrados/docs/red_de_centros_municipales_integrad" title="Ir a http://issuu.com/agendasdeloscentrosintegrados/docs/red_de_centros_municipales_integrad" rel="external"><br/></a></span></p><p><span style="font-weight: bold;"><a href="http://issuu.com/agendasdeloscentrosintegrados/docs/red_de_centros_municipales_integrad" title="Ir a http://issuu.com/agendasdeloscentrosintegrados/docs/red_de_centros_municipales_integrad" rel="external">Espacios en el centro municipal integrado Ateneo de La Calzada (ver espacios).</a></span><br/></p><p></p><table><thead><tr><th style="text-align: center;">Espacio<br/></th><th style="text-align: center;">Puestos y Aforo<br/></th></tr></thead><tbody><tr><td>Salón de actos<br/></td><td style="text-align: right;">270<br/></td></tr><tr><td style="vertical-align: top;">Sala polivalente<br/></td><td style="vertical-align: top; text-align: right;">60</td></tr><tr><td>Sala de exposiciones<br/></td><td style="text-align: right;">75 m2<br/></td></tr><tr><td>Biblioteca<br/></td><td style="text-align: right;">Adultos:28<br/>Infantil:39<br/>Lectura de prensa:27<br/></td></tr><tr><td style="vertical-align: top;">Sala de Estudio<br/>(dos espacios)</td><td style="vertical-align: top; text-align: right;">45 y 30</td></tr><tr><td style="vertical-align: top;">Mediateca</td><td style="vertical-align: top; text-align: right;">16</td></tr><tr><td>Aula 2.2.<br/></td><td style="text-align: right;">25<br/></td></tr><tr><td style="vertical-align: top;">Aula 3.4.</td><td style="vertical-align: top; text-align: right;">30</td></tr><tr><td style="vertical-align: top;">Aula 4.2.</td><td style="vertical-align: top; text-align: right;">18</td></tr><tr><td style="vertical-align: top;">Aula 5.2<br/></td><td style="vertical-align: top; text-align: right;">25</td></tr><tr><td style="vertical-align: top;">Aula 5.5                               <br/></td><td style="vertical-align: top; text-align: right;">                                   40</td></tr><tr><td style="vertical-align: top;">Aula 5.6<br/></td><td style="vertical-align: top; text-align: right;">35<br/></td></tr><tr><td style="vertical-align: top;">Aula Música        <br/></td><td style="vertical-align: top; text-align: right;">25</td></tr><tr><td style="vertical-align: top;">Aula Teatro</td><td style="vertical-align: top; text-align: right;">25</td></tr><tr><td style="vertical-align: top;">Aula fotografía</td><td style="vertical-align: top; text-align: right;">25</td></tr><tr><td style="vertical-align: top;">Aula-Reuniones</td><td style="vertical-align: top; text-align: right;">30</td></tr><tr><td style="vertical-align: top;">Taller de Restauración</td><td style="vertical-align: top; text-align: right;">25</td></tr><tr><td style="vertical-align: top;">Taller de Dibujo</td><td style="vertical-align: top; text-align: right;">25</td></tr><tr><td style="vertical-align: top;">Taller Pintura<br/></td><td style="vertical-align: top; text-align: right;">25<br/></td></tr><tr><td style="vertical-align: top;">Taller madera<br/></td><td style="vertical-align: top; text-align: right;">25</td></tr><tr><td style="vertical-align: top;">Taller cocina</td><td style="vertical-align: top; text-align: right;">25</td></tr><tr><td>Grupo montaña<br/></td><td style="text-align: right;">18<br/></td></tr><tr><td>Grupo filatélico<br/></td><td style="text-align: right;">18<br/></td></tr><tr><td>G. Industrial C.F.<br/></td><td style="text-align: right;">18<br/></td></tr><tr><td>Casa Deporte</td><td style="text-align: right;">25</td></tr><tr><td>Club Alfil<br/></td><td style="text-align: right;">25<br/></td></tr><tr><td>Asociación de vecinos <br/>(dos espacios)</td><td style="text-align: right;">30 y 18</td></tr></tbody></table>","C/Ateneo Obrero de La Calzada, 1","43.539353 -5.694611","Edificios Municipales, Centros de Formación, Cajeros Ciudadanos, Servicio Atención a la Ciudadanía, Servicios Municipales, Sala de Exposiciones, Mediatecas, Zona Wifi, Servicios Sociales, Bibliotecas, Teatro, Aparcamientos, Establecimientos de Recarga del Monedero Transporte, Lineas de autobuses urbanos, Servicios municipales, Teatros, Administración, Comunicaciones, Cultura y Ocio, Educación, Movilidad, Turismo","http://www.gijon.es/data/images/f6/6115/250x333_v1_CM-ateneo.jpg"
