url,identificador,locale,send,foto,nombre,telefono,fax,correo-electronico,web,horario,descripcion,direccion,localizacion,categorias
"http://www.gijon.es/directorios/show/10538-pronorte","10538","es","fecha-actualizacion2016-10-26 08:40:04 +0200","http://www.gijon.es/data/images/f0/f8/89430/3456x2304_v1_pronorte.jpg","Pronorte","+34 659 499 745 +34 985 354 969","comercial@pronorte.es","http://www.pronorte.es","<p>Lunes a viernes: 10:00 a14:00 y 16:30 a 20:00 Sábados:10:00 a 13:30 Tiendaonline 24 horas</p>","<p>PRONORTE es una empresacreada en 1985 en Gijón (acabamos de cumplir 30 años en activo) con elobjetivo de ofrecer la excelencia en un servicio especializado y de máximacalidad.</p><p>El equipohumano es nuestro mejor activo, está formado por profesionales amantes dela música, la mayoría músicos, con una especial sensibilización para comprenderla interacción y el cariño que se puede desarrollar entre un músico y uninstrumento.</p><p>Somosdistribuidores autorizados de las primeras marca y disponemos de taller própiode reparaciones así como luthier para todo tipo de instrumentos decuerda, dando vital importancia al servicio pre y post-venta.</p><p>Nuestradivisión de SONIDO e ILUMINACIÓN (<a href="http://www.pronortesonido.es/" title="Pronorte sonido e iluminación - alquiler de material">www.pronortesonido.es</a>) hacolaborado en estos 30 años con multitud de artistas que vandesde PAVAROTTI a GUNS AND ROSES o de BOBDYLAN a DEEP PURPLE, ganándose el prestigio y el reconocimiento detodo el sector a nivel nacional e internacional.</p>","C/ Adaro, 11 bajo - 33207","43.535611 -5.6682","Comercios, Compras, Turismo"
"http://www.gijon.es/directorios/show/10537-fareye-sneakers","10537","es","fecha-actualizacion2016-10-04 14:40:45 +0200","http://www.gijon.es/data/images/f0/f8/88956/945x945_v1_13880159_152581885167705_6787866288975353102_n.jpg","Fareye Sneakers","684 628 798","http://www.facebook.com/fareyesneakers","Tienda de zapatillas deportivas ubicada en la Calle San Antonio.","C/ San Antonio, 13","43.543516 -5.663808","Comercios, Compras, Turismo"
"http://www.gijon.es/directorios/show/10445-delicias-de-chocolate-marbel","10445","es","fecha-actualizacion2016-04-12 11:50:30 +0200","http://www.gijon.es/data/images/f0/f8/84481/480x640_v1_20151209_091852.jpg","Delicias de Chocolate - Marbel","985 36 31 30","https://www.facebook.com/Delicias-de-chocolate-Marbel-912381758838157/","<p>Productoslibres de gluten, todos incluidos en la lista Face. Conservas, cereales,harinas, chocolate. golosinas, magdalenas, pastas, bases de pizza......</p><p>Chocolatessin gluten, sin lactosa, sin azúcares añadidos.</p><p>Disponende gran variedad de productos libres de alérgenos: harinas, cereales, pastas…</p>","Ezcurdia, 25","43.539876 -5.653303","Comercios, Gijón sin Gluten, Compras, Turismo, Gluten, Turismo"
"http://www.gijon.es/directorios/show/10252-la-paragueria","10252","es","fecha-actualizacion2015-05-28 08:15:15 +0200","http://www.gijon.es/data/images/f0/f7/75106/4608x3072_v1_DSC_0479.JPG","La Paragüeria","984391542","http://www.laparagueria.com","La Paragüería es un espacio nuevo, contemporáneo, diferente, en el que se percibe un espíritu de oficio de antaño, de fabricación minuciosa, cuidada, perfecta; Un espacio en el que todo gira en torno a la lluvia, al agua: Paraguas, chubasqueros y gorros de lluvia. Nuestras marcas: Dots&amp;Squirrel y Romanelli, El Caballo y Victorio y Luccino<br/>Al igual que en las paragüerías de antaño, también hemos querido ofrecer a nuestros clientes un servicio de reparación y restauración de sus paraguas, convirtiéndonos así en un comercio especializado y al servicio global del paraguas.","C/La Merced, 25","43.54188 -5.661972","Comercios, Compras, Turismo, Turismo"
"http://www.gijon.es/directorios/show/10251-romanelli","10251","es","fecha-actualizacion2015-05-28 08:07:51 +0200","http://www.gijon.es/data/images/f0/f7/75032/1799x2705_v1_image1.jpeg","Romanelli","985358812","www.laparagueria.com","Como su nombre indica este comercio cuenta con la prestigiosa marca de paraguas “Romanelli”, además de otras como Dots&amp;Squirrel.<br/>Tienda fundada en 1940, especializada en paraguas y prendas de lluvia, donde podras encontrar los mejores y mas variados modelos de paraguas, con originales chubasqueros combinados con los paraguas.<br/>También podrá encontrar complementos de moda.<br/>Servicio de reparación de paraguas.","C/ Romanelli, 8","43.540193 -5.664504","Comercios, Compras, Turismo, Turismo"
"http://www.gijon.es/directorios/show/9863-gustastur","9863","es","fecha-actualizacion2014-05-30 09:10:05 +0200","Gustastur","985 342 300","Tienda de regalos y productos típicos asturianos.<p><br/></p><h4><strong>10% descuento compramínima de 30€ en productos típicos de Asturias<br/></strong></h4>","C/ Pedro Duro 7, 33206 Gijón","43.541808 -5.666966","Comercios, Tiendas Gastronómicas, Gijón card. Tarjeta turística, Gijón Card, Turismo"
"http://www.gijon.es/directorios/show/9859-fruteria-la-esquina","9859","es","fecha-actualizacion2014-06-02 08:37:32 +0200","http://www.gijon.es/data/images/f0/f6/63352/1936x1296_v1_fruterialaesquina.JPG","Frutería La Esquina","(+34) 985344436/ 640571850 (pedidos)","www.facebook.com/fruteria.gijon","http://www.fruterialaesquinadegijon.es","Frutería “La Esquina” de Gijón es una empresa familiar especializada en frutas, verduras, legumbres y productos artesanos de Asturias, su andadura dentro del sector data del año 1955. Actualmente, se dedican también a la venta a domicilio de productos de buena calidad a precios muy competitivos. La distribución de los pedidos de compra los realizan personalmente con sus vehículos, utilizando un sistema de gestión que les permite indicar a sus clientes cuándo van a recibir con exactitud su pedido. Participan, además, con la Confederación Española de personas con discapacidad física y orgánica de Asturias y la Unión de Discapacitados del Principado de Asturias, por entender que es un colectivo con bastantes dificultades para adquirir productos de calidad y distintos de las grandes superficies.<br/><br/><h4><b>10% descuento compras superiores a 10€ en productos artesanos</b></h4>","Magnus Blikstad, 28 – 33207, Gijón","43.537293 -5.668162","Comercios, Tiendas Gastronómicas, Gijón card. Tarjeta turística, Turismo-Comercio, 2014, Gijón Card, Turismo"
"http://www.gijon.es/directorios/show/9850-superdry","9850","es","fecha-actualizacion2015-02-13 12:38:42 +0100","http://www.gijon.es/data/images/f0/f6/63095/2048x1536_v1_superdry.JPG","Superdry","984 197 828","gijon@superdry.es","http://www.superdry.es/","Superdry es una marca británica con inspiración <i>vintage</i> e influenciada por los diseños y logos japoneses.<br/>Implantada en el mercado hace más de 10 años, actualmente cuenta con mas de 400 tiendas en todo el mundo, siendo la de Gijón la número 26 de España.<br/> Marca de moda joven para chico/chica.","C/ Cabrales, 27","43.540246 -5.660063","Comercios, Compras, Turismo"
"http://www.gijon.es/directorios/show/9739-les-camisetes","9739","es","fecha-actualizacion2014-01-22 12:06:32 +0100","http://www.gijon.es/data/images/f0/f5/57687/850x637_v1_lescamisetes.jpg","Les Camisetes","+34 985 35 93 11","www.lescamisetes.es","Diseño de camisetas y divertidos artículos de regalo,<br/><br/><h4 style="font-weight: bold;">Descuento del 10% en compra superior a 20€ con la tarjeta turística Gijón Card</h4>","Plaza del Marqués, 8","43.544516 -5.662465","Comercios, Gijón card. Tarjeta turística, Gijón Card, Turismo"
"http://www.gijon.es/directorios/show/9576-cosmeticos-bellamoza","9576","es","fecha-actualizacion2014-01-22 12:06:27 +0100","http://www.gijon.es/data/images/f0/f4/49493/401x407_v1_banner130x135.jpg","Cosméticos Bellamoza","984 392 083","contacto@cosmeticosbellamoza.com","www.cosmeticosbellamoza.com","De L a S. De 11:00 a 14:00 y de 17:00 a 20:15.","En Cosméticos Bellamoza fabrican productos de cuidado diario de manera artesanal y con el máximo posible de materias primas naturales. No utilizan conservantes ni colorantes.<br/><br/>A Bellamoza Touchèr Boutique puedes ir a conocer la cosmética hecha con el mimo que se hace un producto artesano, probarlo y llevártelo a casa. Además puedes inscribirte en cursos para niños y adultos que tratan de integrar al usuario en el proceso de elaboración artesanal de un cosmético viéndolo desde el principio hasta el  final aprendiendo conceptos y mezclando tu propio producto.","Calle La Merced, 46.","43.540421 -5.661457","Comercios, Turismo"
"http://www.gijon.es/directorios/show/9372-la-merced-3-vintage-funny-things","9372","es","fecha-actualizacion2015-02-12 14:38:23 +0100","http://www.gijon.es/data/images/f0/f4/42727/720x960_v1_lamerced3.jpg","La Merced 3 - Vintage &amp; Funny Things","984 701 608","http://lamerced3shop.blogspot.com.es/","Tienda Vintage y segunda mano, especializada en moda, decoración y objetos de diseño.","C/ La Merced, 3","43.543525 -5.662564","Comercios, Turismo, Compras, Turismo"
"http://www.gijon.es/directorios/show/8372-espacio-liquido-galeria-de-arte","8372","es","fecha-actualizacion2015-02-12 13:01:59 +0100","http://www.gijon.es/data/images/f6/6527/250x210_v1_Directoriogaleriasdearteespacioliquido.jpg","Espacio Líquido. Galería de arte.","985175053","liquido@espacioliquido.com","http://www.espacioliquido.net/","Galería de arte.","C/ Jovellanos, 3","43.542038 -5.660011","Comercios, Compras, Turismo"
"http://www.gijon.es/directorios/show/7647-alouette-gijon","7647","es","fecha-actualizacion2015-02-12 12:35:51 +0100","http://www.gijon.es/data/images/f0/f3/36629/278x224_v1_alouette.jpg","Alouette Gijón","984 49 18 03","alouettegijon@yahoo.es","Tienda de moda femenina.","C/ Instituto, 29","43.542631 -5.662682","Comercios, Compras, Turismo, 2011, Soho, Turismo"
"http://www.gijon.es/directorios/show/7639-it","7639","es","fecha-actualizacion2015-02-12 13:06:46 +0100","http://www.gijon.es/data/images/f0/f3/36617/278x224_v1_it.jpg","It","984 19 68 46","it@itmoda.es","http://www.itmoda.es/","Comercio de moda mujer y complementos.","C/ Cabrales, 13","43.541121 -5.660456","Comercios, Compras, Soho, Turismo, 2011, Turismo"
"http://www.gijon.es/directorios/show/7631-galeria-viki-blanco-el-arte-de-lo-imposible","7631","es","fecha-actualizacion2015-02-12 13:09:58 +0100","http://www.gijon.es/data/images/f0/f3/36613/278x224_v1_elartedeloimposible.jpg","Galeria Viki Blanco - El Arte de lo Imposible","985 17 07 57","http://www.elartedeloimposible.com/","<div style="text-align: justify;">La labor que desarrolla está centrada en la búsqueda y promoción de jóvenes valores del arte más actual y contemporáneo, fijándose especialmente entre aquellos creadores que viven y trabajan en Asturias. Dándoles, en muchos casos, la primera oportunidad expositiva dentro del circuito de galerías comerciales. <br/></div><br/><div style="text-align: justify;">Pero no por ello, se descuida otro de sus objetivos; la presentación, en la galería, de interesantes creadores extranjeros y de otros nacionales que desarrollan su carrera lejos de Asturias.<br/></div>","C/ Jacobo Olañeta, 10","43.541207 -5.661578","Comercios, Compras, Turismo, Turismo"
"http://www.gijon.es/directorios/show/7623-poison-heart-clothing","7623","es","fecha-actualizacion2015-02-13 11:59:17 +0100","http://www.gijon.es/data/images/f0/f3/36612/278x224_v1_poisonheart.jpg","Poison Heart Clothing","985 349 695","info@poisonheartclothing.com","http://www.poisonheartclothing.com/","Ropa Pinup y Rockabilliy.","C/ Joaquín Fernández Acebal, 8","43.540931 -5.659877","Comercios, Compras, Turismo, Soho, Turismo"
"http://www.gijon.es/directorios/show/7615-patas-arriba","7615","es","fecha-actualizacion2015-02-13 11:51:58 +0100","http://www.gijon.es/data/images/f0/f3/36607/278x224_v1_callatelaboca.jpg","Patas arriba","985 343 067","Tienda de ropa y complementos para grandes y pequeños. Cállate la boca, Kukuxumuxu, Como una regadera, Volkswagen y mucho más.","San Bernardo, 41 - 33201 Gijón.","43.541911 -5.661567","Comercios, Compras, Turismo, Turismo"
"http://www.gijon.es/directorios/show/7607-ski-service","7607","es","fecha-actualizacion2015-02-13 12:33:29 +0100","http://www.gijon.es/data/images/f0/f3/36606/278x224_v1_skiservice.jpg","Ski Service","985 35 24 68","info@skiservice.es","http://www.skiservice.es/","Ropa de ski, snow y surf.","Plaza Romualdo Alvargonzález, 2","43.54125 -5.659289","Comercios, Compras, Turismo, Turismo"
"http://www.gijon.es/directorios/show/7599-v87","7599","es","fecha-actualizacion2015-02-13 13:37:17 +0100","http://www.gijon.es/data/images/f0/f3/36604/278x224_v1_v87.jpg","V87","985 17 04 86","uveochentaysiete@hotmail.es","Tienda de ropa para hombre, mujer y niño. Trabajamos las marcas North Sails, Fred Mello, Aro, Ambrosia Pitigüil y Mónica Cordera.","C/ Langreo, 1","43.540877 -5.663943","Comercios, Compras, Turismo, Turismo"
"http://www.gijon.es/directorios/show/7591-parafernalia-shop","7591","es","fecha-actualizacion2015-02-13 12:11:42 +0100","http://www.gijon.es/data/images/f0/f3/36603/278x224_v1_shop_frente.jpg","Parafernalia Shop","985 347 471","http://www.parafernaliashop.es/","Venta de ropa al por menor.","C/ Langreo, 10","43.54062 -5.665263","Comercios, Compras, Turismo, Turismo"
"http://www.gijon.es/directorios/show/7583-nanin-puericultura","7583","es","fecha-actualizacion2015-02-13 11:41:23 +0100","http://www.gijon.es/data/images/f0/f3/36602/278x224_v1_naninpuericultura.jpg","Nanin Puericultura","985 34 60 47","naninpuericultura@hotmail.com","https://www.naningijon.es/","Puericultura. Complementos infantiles.","C/ Manuel Rodríguez Álvarez, 8","43.539593 -5.700856","Comercios, Compras, Turismo, 2011, Turismo"
"http://www.gijon.es/directorios/show/7567-meana","7567","es","fecha-actualizacion2015-02-13 11:34:08 +0100","http://www.gijon.es/data/images/f0/f3/36600/278x224_v1_meana1.jpg","Meana","985 34 29 33","mj.meana@telecable.es","Boutique multimarca de señora, en donde encontrarás calidad, estilo y personalidad.","C/ San Agustín, 5","43.541336 -5.66029","Comercios, Compras, Turismo, Turismo"
"http://www.gijon.es/directorios/show/7559-extreme","7559","es","fecha-actualizacion2015-02-12 13:06:03 +0100","http://www.gijon.es/data/images/f0/f3/36599/278x224_v1_extreme.jpg","Extreme","985 35 67 72","extremegijon@gmail.com","http://extreme.es-flash.com/","Venta al menor de calzado femenino y complementos.","C/ San Agustín, 14","43.541344 -5.660542","Comercios, Compras, Soho, Turismo, Turismo"
"http://www.gijon.es/directorios/show/7551-carmen-ablanedo","7551","es","fecha-actualizacion2015-02-12 12:41:50 +0100","http://www.gijon.es/data/images/f0/f3/36598/278x224_v1_carmenablanedo.jpg","Carmen Ablanedo","985 35 70 49","<strong></strong>carmenablanedo@ecosoft.es"," <strong></strong>","Moda mujer.","C/ Travesía del Convento, 5","43.540581 -5.659045","Comercios, Compras, Turismo, Turismo"
"http://www.gijon.es/directorios/show/7543-trench","7543","es","fecha-actualizacion2015-02-13 12:58:31 +0100","http://www.gijon.es/data/images/f0/f3/36596/278x224_v1_trench.jpg","Trench","985 340 845","<strong></strong>","http://www.trench-triciclo.com/trench","Moda y complementos.","C/ La Merced, 42","43.540192 -5.661416","Comercios, Compras, Turismo, 2011, Turismo"
"http://www.gijon.es/directorios/show/7535-toscana","7535","es","fecha-actualizacion2015-02-13 12:50:18 +0100","http://www.gijon.es/data/images/f0/f3/36594/278x224_v1_toscana.jpg","Toscana","<strong></strong>984 395 866","http://www.trench-triciclo.com/toscana","Boutique de hombre y de mujer.","C/ La Merced, 41","43.540192 -5.661315","Comercios, Compras, Turismo, 2011, Turismo"
"http://www.gijon.es/directorios/show/7527-amparo-moran","7527","es","fecha-actualizacion2015-02-12 13:32:22 +0100","http://www.gijon.es/data/images/f0/f3/36593/278x224_v1_amparomoran.jpg","Amparo Morán","985 340 137","Joyería.","La Merced, 41","43.539983 -5.661223","Comercios, Compras, Turismo, Turismo"
"http://www.gijon.es/directorios/show/7519-blogger-gijon","7519","es","fecha-actualizacion2015-02-12 12:38:19 +0100","http://www.gijon.es/data/images/f0/f3/36591/278x224_v1_blogger.jpg","Blogger Gijón","984 49 21 03","bloggergijon@gmail.com","Venta ropa y complementos de mujer.","C/ La Merced, 40","43.540123 -5.661309","Comercios, Compras, Soho, Turismo"
"http://www.gijon.es/directorios/show/7503-centro-veterinario-parchis","7503","es","fecha-actualizacion2015-02-12 12:45:57 +0100","http://www.gijon.es/data/images/f0/f3/36587/278x224_v1_centroveterinarioparchis.jpg","Centro Veterinario Parchís","984 29 93 06","http://centroveterinarioparchis.com/","Centro veterinario, boutique canina, complementos y nutrición animal.","C/ La Merced, 35","43.540478 -5.66147","Comercios, Compras, Turismo, 2011, Turismo"
"http://www.gijon.es/directorios/show/7495-la-sombrereria","7495","es","fecha-actualizacion2015-02-12 14:59:58 +0100","http://www.gijon.es/data/images/f0/f3/36586/278x224_v1_sombrereria.jpg","La Sombrerería","985 171 423","lasombrereria@telefonica.net","Sombrerería y complementos.","C/ La Merced 32, 33201 Gijón.","43.54182 -5.662081","Comercios, Compras, Soho, Turismo, Turismo"
"http://www.gijon.es/directorios/show/7487-la-buena-pepa","7487","es","fecha-actualizacion2015-02-12 14:06:05 +0100","http://www.gijon.es/data/images/f0/f3/36585/278x224_v1_pepa.jpg","La Buena Pepa","labuenapepa@hotmail.com","Ropita con aire francés.","C/ Los Moros, 28 bajo","43.541145 -5.663262","Comercios, Compras, Soho, Turismo, 2011, Turismo"
"http://www.gijon.es/directorios/show/7479-la-vaca","7479","es","fecha-actualizacion2015-02-12 15:05:55 +0100","http://www.gijon.es/data/images/f0/f3/36583/278x224_v1_lavaca.jpg","La Vaca","985 357 867","colincolas@hotmail.com","Venta de bisutería y complementos.","C/ La Merced 30, 33201 Gijón.","43.541919 -5.662114","Comercios, Compras, Soho, Turismo, 2011, Turismo"
"http://www.gijon.es/directorios/show/7471-triciclo","7471","es","fecha-actualizacion2016-04-11 17:25:28 +0200","http://www.gijon.es/data/images/f0/f3/36582/278x224_v1_triciclo.jpg","Triciclo","985 341 129","http://www.trench-triciclo.com/triciclo","Boutique de ropa infantil.","La Merced, 29 - C/ La Merced, 29","43.541657 -5.6621","Comercios, Compras, Turismo, 2011, Turismo"
"http://www.gijon.es/directorios/show/7463-libreria-paradiso","7463","es","fecha-actualizacion2015-02-12 15:08:11 +0100","http://www.gijon.es/data/images/f0/f3/36578/278x224_v1_paradiso.jpg","Librería Paradiso","985 341 880","<strong></strong>libreriaparadiso@telecable.es","http://www.libreriaparadiso.com/","Venta de libros (nuevos y de ocasión), discos (compactos, vinilos y singles), posters y postales.","C/ La Merced, 28","43.542121 -5.66221","Comercios, Compras, Soho, Turismo, Turismo"
"http://www.gijon.es/directorios/show/7455-tea-sinensis","7455","es","fecha-actualizacion2015-02-13 12:43:20 +0100","http://www.gijon.es/data/images/f0/f3/36577/278x224_v1_teasinensis.jpg","Tea Sinensis","984 196 738","teasinensis@yahoo.es","http://www.teasinensis.com/","Venta de infusiones (tés, rooibos, tisanas, etc.) y complementos (teteras, filtros, tazas, etc.)","C/ La Merced, 25","43.541919 -5.662055","Comercios, Compras, Soho, Turismo, 2011, Turismo"
"http://www.gijon.es/directorios/show/7447-oleoteca-gourmet-la-chinata","7447","es","fecha-actualizacion2015-02-13 11:50:18 +0100","http://www.gijon.es/data/images/f0/f3/36574/240x200_v1_oleoteca.jpg","Oleoteca Gourmet la Chinata","984 24 69 47","oleotecagijon@gmail.com","http://www.lachinata.es","Venta de alimentación y cosmética.","C/ Cabrales, 35","43.539444 -5.659815","Comercios, Compras, Soho, Turismo"
"http://www.gijon.es/directorios/show/7431-cartaria","7431","es","fecha-actualizacion2015-02-12 12:44:11 +0100","http://www.gijon.es/data/images/f0/f3/36592/278x224_v1_cartaria.jpg","Cartaria","984 049 930 / 607 407 783","info@papeleriacartaria.es","http://www.papeleriacartaria.es/","Papelería de diseño especializada, con productos de artesanía y material de encuadernación.<a href="http://www.papeleriacartaria.es/" title="Ir a http://www.papeleriacartaria.es/" rel="external"><br/></a>","C/ La Merced, 32","43.54184 -5.662118","Comercios, Compras, Turismo, 2011, Soho, Turismo"
"http://www.gijon.es/directorios/show/7415-king-s-road","7415","es","fecha-actualizacion2015-02-12 13:26:57 +0100","http://www.gijon.es/data/images/f0/f3/36571/194x259_v1_kingsroad.jpg","King's Road","985 31 94 27","info@kingsroad.es","http://www.kingsroad.es/","Tienda de ropa, calzado y complementos para hombre y mujer.","C/ Instituto, 35","43.541806 -5.662382","Comercios, Compras, Turismo, 2011, Soho, Turismo"
"http://www.gijon.es/directorios/show/7407-boutique-tamar","7407","es","fecha-actualizacion2015-02-12 12:40:13 +0100","http://www.gijon.es/data/images/f0/f3/36570/276x183_v1_tamar.jpg","Boutique Tamar","985 358 852","Moda mujer.","C/ Instituto, 35","43.5418 -5.662318","Comercios, Compras, Turismo, 2011, Turismo"
"http://www.gijon.es/directorios/show/7399-la-troupe","7399","es","fecha-actualizacion2016-04-11 17:12:08 +0200","http://www.gijon.es/data/images/f0/f3/36569/320x224_v1_latroupe.JPG","La Troupe","985 34 55 38","infolatroupe@gmail.com","Taller de tocados y sombreros a medida.","C/Instituto, 27 Bajo - C/ Instituto, 27","Comercios, Compras, Turismo, Soho, Turismo"
"http://www.gijon.es/directorios/show/7391-daniela-serra","7391","es","fecha-actualizacion2015-02-12 12:57:02 +0100","http://www.gijon.es/data/images/f0/f3/36631/278x224_v1_danielaserra.jpg","Daniela Serra","985 319 302 / 985 349 088 / 670253414","daniela@serramoda.com","Moda mujer.","C/ Instituto, 33","43.541896 -5.662339","Comercios, Compras, 2011, Turismo, Turismo"
"http://www.gijon.es/directorios/show/7390-carmen-nieto","7390","es","fecha-actualizacion2015-02-12 12:42:40 +0100","http://www.gijon.es/data/images/f0/f3/36560/719x462_v1_CARMEN.jpg","Carmen Nieto","984 067 352","http://www.cnbycarmennieto.es/","Diseño y venta de prendas y accesorios femeninos. <a href="http://www.cnbycarmennieto.es/" title="Ir a http://www.cnbycarmennieto.es/" rel="external"></a>","C/ Covadonga, 7 - 1º Drch.","43.539391 -5.658814","Comercios, Compras, Turismo, Soho, Turismo"
"http://www.gijon.es/directorios/show/7379-marisa-del-castillo","7379","es","fecha-actualizacion2015-02-13 10:24:31 +0100","http://www.gijon.es/data/images/f0/f3/36628/278x224_v1_marisacastillo.jpg","Marisa del Castillo","985 35 62 68","<strong></strong>marisadelcas@hotmail.com","Ropa de mujer.","C/ Instituto, 33","43.541872 -5.662361","Comercios, Turismo, Compras, Turismo"
"http://www.gijon.es/directorios/show/7363-trebol","7363","es","fecha-actualizacion2015-02-13 12:55:30 +0100","http://www.gijon.es/data/images/f0/f3/36625/278x224_v1_trebol.jpg","Trébol","985 35 14 54","<strong></strong>","C/ Cabrales, 58","43.541175 -5.660551","Comercios, Turismo, 2011, Compras, Turismo"
"http://www.gijon.es/directorios/show/7339-scalpers","7339","es","fecha-actualizacion2015-02-13 12:05:15 +0100","http://www.gijon.es/data/images/f0/f3/36620/278x224_v1_scalpers.jpg","Scalpers","984 39 57 99","gijon@scalpers.com.es","http://www.scalpers.com.es/","Tienda de moda hombre.","C/ Cabrales, 50","43.541421 -5.660655","Comercios, Turismo, Compras, Soho, Turismo"
"http://www.gijon.es/directorios/show/7331-argaro","7331","es","fecha-actualizacion2015-02-12 12:36:33 +0100","http://www.gijon.es/data/images/f0/f3/36549/144x116_v1_argaro.jpg","Argaro","985 17 18 64","http://www.argaro.com/tienda/","Ropa para caballero y señora.","C/ Cabrales, 50","43.541433 -5.660676","Comercios, Turismo, Compras, Turismo"
"http://www.gijon.es/directorios/show/7323-pizpireta","7323","es","fecha-actualizacion2015-02-13 11:55:19 +0100","http://www.gijon.es/data/images/f0/f3/36616/278x224_v1_pizpireta.jpg","Pizpireta","985 35 87 50","pequepizpireta@hotmail.com","http://www.pizpiretamodainfantil.palbin.com/","Boutique especializada en moda infantil y complementos.","C/ Cabrales, 13","43.541296 -5.660553","Comercios, Turismo, Compras, 2011, Turismo"
"http://www.gijon.es/directorios/show/7271-las-pontigas-carnicerias","7271","es","fecha-actualizacion2014-05-28 16:06:17 +0200","http://www.gijon.es/data/images/f0/f3/35951/276x183_v1_pontigas.jpg","Las Pontigas Carnicerías","985 349 129","<h4><span style="font-weight: bold;">Descuento del 10% con la tarjeta turística Gijón Card</span></h4>","Mercado del Sur, Puesto 32","43.538649 -5.663294","Comercios, Mercados, Tiendas Gastronómicas, Gijón card. Tarjeta turística, Turismo-Comercio, 2011, Gijón Card, Turismo"
"http://www.gijon.es/directorios/show/7264-la-madrena","7264","es","fecha-actualizacion2015-07-07 13:51:26 +0200","http://www.gijon.es/data/images/f0/f3/35950/250x114_v1_quesuuu.jpg","La Madreña","985 345 996","lamadrenagijon@hotmail.com","9:30 a 14:30 h y 17:30 a 20:30 h / Cierra: sábados tarde y domingos","<h4></h4><h4><b>Descuento del 10%en la compra de fabes y quesos para compras superiores a 50€ con la tarjetaturística Gijón Card</b></h4>","Calle Instituto , 8","43.544147 -5.663433","Comercios, Tiendas Gastronómicas, Gijón card. Tarjeta turística, 2011, Turismo-Comercio, Gijón Card, Turismo"
"http://www.gijon.es/directorios/show/7257-d-aca-y-d-alla","7257","es","fecha-actualizacion2014-01-22 12:05:17 +0100","http://www.gijon.es/data/images/f0/f3/35947/120x112_v1_alfajor.jpg","D'Acá y D'Allá","984 190 888","info@acayalla.es","http://www.acayalla.es/","<div style="text-align: justify;">Empresa familiar con el arte culinario traído desde la Argentina, con deliciosas empanadas de Camarón, Carne, Pollo, Jamón y Queso, Hawaianas y de Albahaca y de tomar aguas gaseosas, té frío, café y el exquisito mate típica bebida Argentina.<br/><br style="font-weight: bold;"/></div>","Avenida Constitución, 45 - Avenida de Schultz, 45","43.534558 -5.668589","Comercios, Tiendas Gastronómicas, 2011, Turismo-Comercio, Turismo"
"http://www.gijon.es/directorios/show/2810-speedy-water","2810","es","fecha-actualizacion2014-01-22 12:03:12 +0100","http://www.gijon.es/data/images/f0/f3/36739/130x108_v1_c130x108_v1_speedy.png","Speedy Water","985 342 227","contacto@speedywater.com","http://www.speedywater.com/","<div style="text-align: justify;">En la tienda podrá en encontrar todo tipo de material especializado en buceo recreativo, una pequeña gama de pesca submarina y un apratado textil en el que cuentan con una de las más prestigiosas marcas californianas &quot;Hurley&quot;.<br/></div><br/><div style="text-align: justify;">Dentro de la tienda tambien podrán encontrar una gran aula, el punto neurálgico del centro de buceo, desde dónde se imparten y gestionan todas las actividades y cursos de buceo recreativo, titulaciones naúticas y demás actividades como paseos en barco o lancha rápida. En el aula también se realizan exposiciones fotográficas, talleres, audiovisuales y muchas otras catividades.<br/></div><br/>también realizamos bautismo de <strong>Buceo</strong> (mar/piscina), cursos PADI, salidas todo el año y alquiler de material.<br/><br/><span style="font-weight: bold;">Descansa</span><br/>Domingos","C/ Artillería, 2 – Bajo 33201-Gijón - Calle Artillería, 2 – Bajo 33201-Gijón","43.546896 -5.664957","Turismo de Experiencias, 2011, Otros Espacios Deportivos, Comercios, Deporte, Turismo"
