url,identificador,locale,send,foto,nombre,telefono,fax,correo-electronico,web,horario,descripcion,direccion,localizacion,categorias
"http://www.gijon.es/directorios/show/10331-alpee-departamento-de-orientacion-laboral","10331","es","fecha-actualizacion2017-05-11 10:11:07 +0200","http://www.gijon.es/data/images/f0/f9/94736/130x108_v1_logodirectorioimpulsaempleo.png","ALPEE - Departamento de Orientación Laboral","985 181 557","985 181 562","opea@gijon.es","http://empleo.gijon.es","Lunes a Viernes: 9:00-14:00h.","C/ Avelino González Mallada, 27 - 33204 - Gijón","43.532956 -5.648196","Servicios Municipales, Zona Wifi, Administración, Comunicaciones"
"http://www.gijon.es/directorios/show/9848-alpee-agencia-de-colocacion-0300000029","9848","es","fecha-actualizacion2017-05-11 10:09:41 +0200","http://www.gijon.es/data/images/f0/f9/94736/130x108_v1_logodirectorioimpulsaempleo.png","ALPEE - Agencia de Colocación 0300000029","985 181 557 / 985 181 741 (empresas)","985 181 562","candidaturaagenciacolocacion@gijon.es - ofertasagenciacolocacion@gijon.es","http://empleo.gijon.es","Lunes a Viernes: 09:00 - 14:00 h.","C/ Avelino González Mallada, 27 - Planta Baja - 33204","Servicios Municipales, Zona Wifi, Administración, Comunicaciones"
"http://www.gijon.es/directorios/show/9845-alpee-agencia-de-activacion-juvenil","9845","es","fecha-actualizacion2017-05-11 10:08:58 +0200","http://www.gijon.es/data/images/f0/f9/94736/130x108_v1_logodirectorioimpulsaempleo.png","ALPEE - Agencia de Activación Juvenil","985 181 557","985 181 562","agenciadeactivacion@gijon.es","http://agenciadeactivacion.gijon.es","Lunes a Viernes: 09:00 - 14:00 h.","La Agencia de Activación Juvenil es una experiencia piloto que se pone en marcha en la ciudad de Gijón con el apoyo económico de la Unión Europea.","C/ Avelino González Mallada, 27 - Planta Baja - 33204","Servicios Municipales, Zona Wifi, Administración, Comunicaciones"
"http://www.gijon.es/directorios/show/9674-campo-valdes","9674","es","fecha-actualizacion2014-01-22 12:06:30 +0100","Campo Valdés","43.545462 -5.661285","Zona Wifi, Comunicaciones"
"http://www.gijon.es/directorios/show/9673-parque-calle-torner-viesques","9673","es","fecha-actualizacion2014-01-22 12:06:30 +0100","Parque Calle Torner (Viesques)","43.530685 -5.645578","Zona Wifi, Comunicaciones"
"http://www.gijon.es/directorios/show/9672-parque-severo-ochoa","9672","es","fecha-actualizacion2014-01-22 12:06:30 +0100","Parque Severo Ochoa","43.528638 -5.672754","Zona Wifi, Comunicaciones"
"http://www.gijon.es/directorios/show/9671-ateneo-obrero-de-la-calzada","9671","es","fecha-actualizacion2014-01-22 12:06:30 +0100","Ateneo Obrero de La Calzada","43.539434 -5.694711","Zona Wifi, Comunicaciones"
"http://www.gijon.es/directorios/show/9670-el-cerillero-fernando-vi","9670","es","fecha-actualizacion2014-01-22 12:06:30 +0100","El Cerillero (Fernando VI)","43.5399 -5.703406","Zona Wifi, Comunicaciones"
"http://www.gijon.es/directorios/show/9669-policia-local-hermanos-felgueroso","9669","es","fecha-actualizacion2014-03-11 14:42:19 +0100","Policía Local (Hermanos Felgueroso)","43.535187 -5.658587","Zona Wifi, Boleras, Escuelas Infantiles, Sindicatos, Estaciones de Servicio, Bares y cafés, Edificios y lugares de interés, Puerto deportivo, Saboreando - Restaurantes y sidrerías, Repostería, Comunicaciones, Deporte, Educación, Otros, Movilidad, Turismo"
"http://www.gijon.es/directorios/show/9668-parque-de-la-serena","9668","es","fecha-actualizacion2014-03-11 14:43:39 +0100","Parque de La Serena","43.530505 -5.664557","Zona Wifi, Boleras, Escuelas Infantiles, Sindicatos, Estaciones de Servicio, Bares y cafés, Edificios y lugares de interés, Puerto deportivo, Saboreando - Restaurantes y sidrerías, Comunicaciones, Deporte, Educación, Otros, Movilidad, Turismo"
"http://www.gijon.es/directorios/show/9667-playa-de-san-lorenzo-piles","9667","es","fecha-actualizacion2014-03-11 14:41:08 +0100","Playa de San Lorenzo (Piles)","43.540398 -5.646737","Zona Wifi, Boleras, Escuelas Infantiles, Sindicatos, Estaciones de Servicio, Bares y cafés, Edificios y lugares de interés, Puerto deportivo, Comunicaciones, Deporte, Educación, Otros, Movilidad, Turismo"
"http://www.gijon.es/directorios/show/9666-playa-de-san-lorenzo-nautico","9666","es","fecha-actualizacion2014-03-11 14:40:26 +0100","Playa de San Lorenzo (Naútico)","43.542731 -5.660169","Zona Wifi, Boleras, Escuelas Infantiles, Sindicatos, Estaciones de Servicio, Bares y cafés, Edificios y lugares de interés, Comunicaciones, Deporte, Educación, Otros, Movilidad, Turismo"
"http://www.gijon.es/directorios/show/9665-plaza-del-humedal","9665","es","fecha-actualizacion2014-03-11 14:39:05 +0100","Plaza del Humedal","43.539628 -5.665979","Zona Wifi, Boleras, Escuelas Infantiles, Sindicatos, Estaciones de Servicio, Bares y cafés, Comunicaciones, Deporte, Educación, Otros, Movilidad, Turismo"
"http://www.gijon.es/directorios/show/9664-acuario-de-gijon","9664","es","fecha-actualizacion2014-04-22 15:06:50 +0200","Acuario de Gijón","43.542327 -5.675061","Zona Wifi, Boleras, Comunicaciones, Deporte"
"http://www.gijon.es/directorios/show/9662-puerto-de-vegarada","9662","es","fecha-actualizacion2014-03-11 14:41:54 +0100","Puerto de Vegarada","43.532372 -5.67903","Zona Wifi, Boleras, Escuelas Infantiles, Sindicatos, Estaciones de Servicio, Comunicaciones, Deporte, Educación, Otros, Movilidad"
"http://www.gijon.es/directorios/show/9661-ramon-areces","9661","es","fecha-actualizacion2014-03-11 14:44:00 +0100","Ramón Areces","43.522368 -5.676101","Zona Wifi, Boleras, Escuelas Infantiles, Sindicatos, Estaciones de Servicio, Comunicaciones, Deporte, Educación, Otros, Movilidad"
"http://www.gijon.es/directorios/show/9660-ramon-areces","9660","es","fecha-actualizacion2014-03-11 14:44:22 +0100","Ramón Areces","43.521419 -5.672582","Zona Wifi, Boleras, Escuelas Infantiles, Sindicatos, Comunicaciones, Deporte, Educación, Otros"
"http://www.gijon.es/directorios/show/9659-parque-de-las-palmeras","9659","es","fecha-actualizacion2014-01-22 12:06:30 +0100","Parque de Las Palmeras","43.521139 -5.667465","Zona Wifi, Boleras, Escuelas Infantiles, Sindicatos, Comunicaciones, Deporte, Educación, Otros"
"http://www.gijon.es/directorios/show/9658-piscina-del-llano","9658","es","fecha-actualizacion2014-01-22 12:06:29 +0100","Piscina del Llano","43.527891 -5.659032","Zona Wifi, Boleras, Escuelas Infantiles, Comunicaciones, Deporte, Educación"
"http://www.gijon.es/directorios/show/9657-institutos-perez-de-ayala","9657","es","fecha-actualizacion2014-01-22 12:06:29 +0100","Institutos Pérez de Ayala","43.533118 -5.668838","Zona Wifi, Boleras, Comunicaciones, Deporte"
"http://www.gijon.es/directorios/show/9656-puerta-la-villa","9656","es","fecha-actualizacion2014-01-22 12:06:29 +0100","Puerta La Villa","43.538189 -5.663774","Zona Wifi, Comunicaciones"
"http://www.gijon.es/directorios/show/9655-parque-de-begona","9655","es","fecha-actualizacion2014-01-22 12:06:29 +0100","Parque de Begoña","43.53836 -5.660738","Zona Wifi, Boleras, Comunicaciones, Deporte"
"http://www.gijon.es/directorios/show/9654-plaza-san-miguel","9654","es","fecha-actualizacion2014-04-24 13:59:45 +0200","Plaza San Miguel","Recibe su nombre del militar y político asturiano Evaristo San Miguel y Valledor (1785-1862), autor de la letra del &quot;Himno de Riego&quot; en 1820.<br/>La plaza se sitúa en uno de los vértices de la antigua muralla, levantada en 1837, cuando la ciudad fue declarada plaza fuerte durante la primera guerra carlista. Sus muros se unían en este mismo espacio, formando uno de los baluartes de la fortificación.<br/><br/>En el último cuarto del siglo XIX, el Estado cedió los terrenos que permitirían a la ciudad proyectarse fuera del recinto amurallado. Comenzaba así el  ensanche del arenal de San Lorenzo, que daría como resultado el nacimeineto del popular &quot;Barriu L' Arena&quot;.<br/><br/>Historicismo, art-decó, modernismo y racionalismo son los estilos que caracterizan a los edificios que rodean a la plaza.<br/><br/>Llamada popularmente La Plazuela. De forma ovalada, sirve de rótula entre el Gijón moderno y el del ensanche.<br/><br/>Busto erigido en recuerdo de Evaristo San Miguel y Valledor, héroe de la Guerra de la Independencia.","43.539527 -5.657728","Zona Wifi, Comunicaciones"
"http://www.gijon.es/directorios/show/9653-aparcamiento-del-puerto-deportivo","9653","es","fecha-actualizacion2014-01-22 12:06:29 +0100","Aparcamiento del Puerto Deportivo","43.544007 -5.666993","Zona Wifi, Boleras, Comunicaciones, Deporte"
"http://www.gijon.es/directorios/show/9652-jardines-de-la-reina-y-plaza-del-marques","9652","es","fecha-actualizacion2014-01-22 12:06:29 +0100","Jardines de la Reina y Plaza del Marqués","43.54508 -5.664042","Zona Wifi, Comunicaciones"
"http://www.gijon.es/directorios/show/9651-parque-de-la-fabrica-del-gas","9651","es","fecha-actualizacion2014-01-22 12:06:29 +0100","Parque de la Fábrica del Gas","43.539179 -5.650985","Zona Wifi, Boleras, Escuelas Infantiles, Comunicaciones, Deporte, Educación"
"http://www.gijon.es/directorios/show/9650-plaza-de-la-republica-en-el-coto","9650","es","fecha-actualizacion2014-01-22 12:06:29 +0100","Plaza de la República en El Coto","43.533846 -5.6487","Zona Wifi, Boleras, Comunicaciones, Deporte"
"http://www.gijon.es/directorios/show/9629-alpee-servicio-de-promocion-desarrollo-e-innovacion","9629","es","fecha-actualizacion2017-05-11 10:03:40 +0200","http://www.gijon.es/data/images/f0/f9/94736/130x108_v1_logodirectorioimpulsaempleo.png","ALPEE - Servicio de Promoción, Desarrollo e Innovación","985 181 555","985 181 562","agencialocal@gijon.es","http://empleo.gijon.es","c/ Avelino González Mallada nº 27, 33204 Gijón","Servicios Municipales, Zona Wifi, Empleo, Empleo y promoción económica, Administración, Comunicaciones"
"http://www.gijon.es/directorios/show/9603-alpee-coordinacion-planes-de-empleo","9603","es","fecha-actualizacion2017-05-11 10:02:08 +0200","http://www.gijon.es/data/images/f0/f9/94736/130x108_v1_logodirectorioimpulsaempleo.png","ALPEE - Coordinación Planes de Empleo ","985 181 558/59","985 181 594","inserta@gijon.es","../../../","Lunes a Viernes: 09:00 - 14:00 h.","C/ Avelino González Mallada, 27 - Planta Primera - 33204","Servicios Municipales, Zona Wifi, Administración, Comunicaciones"
"http://www.gijon.es/directorios/show/9551-alpee-servicio-de-orientacion-formacion-y-empleo","9551","es","fecha-actualizacion2017-05-11 10:01:15 +0200","http://www.gijon.es/data/images/f0/f9/94736/130x108_v1_logodirectorioimpulsaempleo.png","ALPEE. Servicio de Orientación, Formación y Empleo","985 181 555","985 181 594","agencialocal@gijon.es","../../../","Lunes a Viernes: 9:00 - 14:00h.","C/ Avelino González Mallada, 27 - Planta Primera - 33204","43.53262 -5.651929","Servicios Municipales, Zona Wifi, Empleo, Empleo y promoción económica, Administración, Comunicaciones"
"http://www.gijon.es/directorios/show/9351-alpee-seccion-de-promocion-del-empleo","9351","es","fecha-actualizacion2017-05-11 10:00:14 +0200","http://www.gijon.es/data/images/f0/f9/94736/130x108_v1_logodirectorioimpulsaempleo.png","ALPEE - Sección de Promoción del Empleo","985 181 564/ 985 181 567/ 985 181 569/ 985 181 570/ 985 181 579/ 985 181 686","985 181 562","secretariatecnica.alpee@gijon.es","http://empleo.gijon.es","Lunes a Viernes: 09:00 - 14:00 h.","C/ Avelino González Mallada, 27 - Planta Primera - 33204","Servicios Municipales, Zona Wifi, Administración, Comunicaciones"
"http://www.gijon.es/directorios/show/9333-alpee-departamento-de-innovacion-para-el-empleo","9333","es","fecha-actualizacion2017-05-11 09:59:25 +0200","http://www.gijon.es/data/images/f0/f9/94736/130x108_v1_logodirectorioimpulsaempleo.png","ALPEE - Departamento de Innovación para el Empleo","985 181 563/ 985 181 593/ 985 181 573/ 985 181 572/ 985 181 574","985 181 562","nuevosproyectos@gijon.es","../../../","Lunes a Viernes: 09:00 - 14:00 h.","El Departamento de Innovación para el Empleo de la Agencia Local de Promoción Económica y Empleo del Ayuntamiento de Gijón se encarga de coordinar y gestionar las siguientes actuaciones:<br/><br/>- Observatorio Socioeconómico Local<br/>- Formulación de nuevos proyectos e iniciativas y obtención de financiación a nivel regional, nacional o europea<br/>- Gestión de iniciativas innovadoras de empleo<br/>- Seguimiento y Evaluación del Acuerdo para el crecimiento y la diversificación de la actividad económica, el impulso del talento y la mejora de la empleabilidad en un marco de cohesión social &quot;Gijón crece 2016/2019&quot;<br/>- Gestión de la comunicación de la Agencia: portal web <a href="http://empleo.gijon.es" title="Ir a http://empleo.gijon.es" rel="external">http://empleo.gijon.es</a>; perfil de facebook <a href="http://www.facebook.com/EmpleoGijon" title="Ir a http://www.facebook.com/EmpleoGijon" rel="external">http://www.facebook.com/EmpleoGijon</a> y perfil de twitter <a href="http://twitter.com/@empleo_gijon" title="Ir a http://twitter.com/@empleo_gijon" rel="external">@empleo_gijon</a><br/>- Representación de la Agencia en el Foro de Desarrollo Económico de Eurocities y en la Red RETOS de Territorios Socialmente Responsables","C/ Avelino González Mallada, 27 - Planta Primera - 33204","Servicios Municipales, Zona Wifi, Administración, Comunicaciones"
"http://www.gijon.es/directorios/show/9329-alpee-departamento-de-formacion","9329","es","fecha-actualizacion2017-05-11 10:06:55 +0200","http://www.gijon.es/data/images/f0/f9/94736/130x108_v1_logodirectorioimpulsaempleo.png","ALPEE - Departamento de Formación","985 181 601/985 181 687/688","985 181 594","formacion.alpee@gijon.es","http://empleo.gijon.es","Lunes a Viernes: 09:00 - 14:00 h.","C/ Avelino González Mallada, 27 - Planta Primera - 33204","43.53271 -5.649413","Servicios Municipales, Zona Wifi, Administración, Comunicaciones"
"http://www.gijon.es/directorios/show/6869-centro-de-cultura-de-roces-alfonso-camin-biblioteca-de-roces","6869","es","fecha-actualizacion2017-03-28 12:26:01 +0200","Centro de Cultura de Roces Alfonso Camin (Biblioteca de Roces)","985 181 692","bibliotecaroces@gijon.es","http://www.gijon.eshttp://www.bibliotecaspublicas.es/redgijon/index.jsp","<p>Lunes a viernes de 9.00 a 14.00 h y de 16.00 a 20.00 h</p>","Ofrece diversos servicios y dispone de diferentes equipamientos tales como:<br/>Salón polivalente(con capacidad para 90 personas), Fonoteca e Información, asesoramiento y recursos para las asociaciones y colectivos del barrio. Biblioteca: Sala de lectura, Sección infantil y juvenil, Sección adultos, Prensa y revistas, Préstamo de libros, discos, revistas, cd-rom, vídeo y dvd, Información bibliográfica y de referencia, <br/>Préstamo interbibliotecario y Catálogo colectivo. Red Municipal. Mediateca (4 Puestos): Acceso gratuito a Internet y Cursos de información digital.","Avda. Salvador Allende, 13","43.518957 -5.683378","Cajeros Ciudadanos, Edificios Municipales, Servicios Municipales, Mediatecas, Zona Wifi, Bibliotecas, Lineas de autobuses urbanos, Administración, Comunicaciones, Cultura y Ocio, Movilidad"
"http://www.gijon.es/directorios/show/6868-centro-municipal-de-contrueces-biblioteca-de-contrueces","6868","es","fecha-actualizacion2017-03-28 12:25:50 +0200","Centro Municipal de Contrueces (Biblioteca de Contrueces)","985 185 114","bibliotecacontrueces@gijon.es","http://www.gijon.eshttp://www.bibliotecaspublicas.es/redgijon/index.jsp","Lunes a viernes de 9.00 a 20.00 h","<p><strong>Biblioteca:</strong> Sala de lectura. Sección adultos (18 puestos). Prensa y revistas (18 puestos). Sección infantil y juvenil (18 puestos). Bebeteca. Sección Asturiana. Centros de interés: Cómic. Préstamo de libros, discos, revistas, cd-rom, vídeo y dvd. Préstamo interbibliotecario. Información bibliográfica y de referencia. Actividades de animación a la lectura: Bebé cuentos, La hora de los cuentos, Club de lectura, Programa de formación en el uso de la biblioteca para escolares. Consulta Catálogo Colectivo de la Red de Bibliotecas del Principado de Asturias. Consulta Red Municipal de Bibliotecas</p><p><strong>Mediateca:</strong> 13 puestos. Acceso gratuito a internet y cursos de formación digital</p><p>2 <strong>aulas </strong>polivalentes. Información, asesoramiento y recursos para las asociaciones y colectivos del barrio.  </p><p><strong>Cajero ciudadano</strong></p>","C/ Rio Nalón, 2","43.521928 -5.664131","Cajeros Ciudadanos, Edificios Municipales, Servicios Municipales, Mediatecas, Zona Wifi, Bibliotecas, Sala de Exposiciones, Administración, Comunicaciones, Cultura y Ocio"
"http://www.gijon.es/directorios/show/6809-alpee-escuela-de-segunda-oportunidad-e2o","6809","es","fecha-actualizacion2017-05-11 10:06:06 +0200","http://www.gijon.es/data/images/f0/f9/94736/130x108_v1_logodirectorioimpulsaempleo.png","ALPEE. Escuela de Segunda Oportunidad - E2O","985 181 799/985 181 798","escuelasegundaoportunidad.alpee@gijon.es","http://empleo.gijon.es","Lunes a jueves: 9:00 a 19:30 h. Viernes: 9:00 a 14.00 h.","Avelino González Mallada, 27 planta semisótano - 33204 - Gijón","Servicios Municipales, Zona Wifi, Administración, Comunicaciones"
"http://www.gijon.es/directorios/show/3466-oficina-de-informacion-juvenil-oij","3466","es","fecha-actualizacion2014-01-22 12:03:20 +0100","http://www.gijon.es/data/images/f0/f3/30310/130x108_v1_c130x108_v1_DirectoriovariosFotowebOIJ5.jpg","Oficina de información Juvenil (OIJ)","985 181 000","985 347 291","oij@gijon.es","Lunes a viernes de 10 a 14 h. Martes y jueves de 17 a 19 h. Julio y agosto sólo mañanas.","Centro de Cultura Antiguo Instituto - C/Jovellanos, 21","43.541448 -5.662229","Servicios Municipales, Mediatecas, Turismo, Servicios municipales, Administración, Comunicaciones, Turismo"
"http://www.gijon.es/directorios/show/3443-centro-municipal-integrado-de-el-llano","3443","es","fecha-actualizacion2016-06-06 14:06:54 +0200","http://www.gijon.es/data/images/f0/f4/42473/1776x846_v1_ElLlanoPG.JPG","Centro Municipal Integrado de El Llano","985 185 240","985 185 244","cmillano@gijon.es","http://www.gijon.es","Lunes a sábado: de 08:00 a 22:00h. Domingos de 8:00 a 15.00 horas. Cajero: 24h","<p align="justify">Es el equipamiento más moderno de la red de centros integrados. Fue inaugurado en el año 2007 tras seguir, en su diseño, las pautas sobre equipamientos de proximidad publicadas en los estudios de la fundación Kaleidos.Red, de la que le ayuntamiento de Gijón fue patrono fundador. Se situa en una área de reciente crecimiento y reforma urbana y atiende a una extensa zona muy poblada con los recursos más modernos, por ejemplo una gran ludoteca. Aunque ofrece servicios deportivos en su gran sala polivalente, no tiene una zona deportiva propiamente dicha pues, al otro lado de la calle, comparte espacio con una de las zona mejor equipadas, en instalaciones deportivas, de Gijón.</p><p align="justify">Dispone de: oficina de atención a la ciudadanía, Servicios Sociales, concejalía de distrito, salón de actos, sala de exposiciones, ludoteca, sala polivalente, aulas, taller de cocina, sala de estudio (120 puestos), biblioteca, mediateca y cajero ciudadano.</p><p align="center"><img src="/data/images/f0/f4/42473/700x333_v1_ElLlanoPG.JPG" alt="Fachada centro de El Llano" class="nicedit_sin-alinear magnify" height="333" width="700" width="700" height="333"/><br/></p><p><br/></p><p style="font-weight: bold;"><a href="http://issuu.com/agendasdeloscentrosintegrados/docs/red_de_centros_municipales_integrad" title="Ir a http://issuu.com/agendasdeloscentrosintegrados/docs/red_de_centros_municipales_integrad" rel="external">Espacios en el centro municipal integrado de El Llano (ver espacios).</a><br/></p><p></p><table><thead><tr><th style="text-align: center;">Espacio<br/></th><th style="text-align: center;">Puestos y aforo<br/></th></tr></thead><tbody><tr><td>Salón de Actos<br/></td><td style="text-align: right;">156<br/></td></tr><tr><td>Aulas 1 y 2<br/></td><td style="text-align: right;">18<br/></td></tr><tr><td>Aulas 3 y 4<br/></td><td style="text-align: right;">36<br/></td></tr><tr><td>Aula de cocina<br/></td><td style="text-align: right;">16<br/></td></tr><tr><td>Sala Polivalente<br/></td><td style="text-align: right;">350 m2<br/></td></tr><tr><td>Sala de estudio<br/></td><td style="text-align: right;">120<br/></td></tr><tr><td>Biblioteca<br/></td><td style="text-align: right;">Adultos:43<br/>Infantil:12<br/>Lectura de prensa:24<br/></td></tr><tr><td>Mediateca<br/></td><td style="text-align: right;">16<br/></td></tr><tr><td>Sala de exposiciones <br/>(Los patios interiores están <br/>habilitados para exponer)<br/></td><td style="text-align: right;">26 metros lineales<br/></td></tr><tr><td>Sala de reuniones (1 y 2)<br/></td><td style="text-align: right;">10 y 14<br/></td></tr><tr><td style="vertical-align: top;">Ludoteca<br/></td><td style="vertical-align: top; text-align: right;">40<br/></td></tr></tbody></table>","Calle Río de Oro, 37","Servicio Atención a la Ciudadanía, Edificios Municipales, Cajeros Ciudadanos, Servicios Municipales, Servicios Sociales, Mediatecas, Zona Wifi, Ludotecas, Bibliotecas, Teatro, Sala de Exposiciones, Otros Espacios Deportivos, Pabellones, Piscinas Municipales, Pistas Polideportivas, Aparcamientos, Establecimientos de Recarga del Monedero Transporte, Lineas de autobuses urbanos, Museos y salas de exposiciones, Centros culturales, Teatros, Aseos públicos, Otras salas de congresos, Administración, Comunicaciones, Cultura y Ocio, Deporte, Movilidad, Turismo"
"http://www.gijon.es/directorios/show/1828-oficina-de-atencion-al-ciudadano-en-el-edificio-administrativo-antiguo-hogar-casa-rosada","1828","es","fecha-actualizacion2015-05-12 13:38:28 +0200","Oficina de Atención al Ciudadano en el Edificio Administrativo Antiguo Hogar (Casa Rosada)","984491960","984 491 963","http://www.gijon.es","<p sizset="0" sizcache="1480"><span>Lunes a viernes: de 8:3</span><span>0 a 17:00 h. Julio y Agosto: Lunes a viernes: de 8:30 a14:00 h. Cajero: 24h</span></p>","Paseo de la Infancia, 2","43.538233 -5.665955","Servicios Municipales, Cajeros Ciudadanos, Mediatecas, Zona Wifi, Servicio Atención a la Ciudadanía, Administración, Comunicaciones"
"http://www.gijon.es/directorios/show/1345-servicio-de-sistemas-de-informacion","1345","es","fecha-actualizacion2015-05-12 13:10:28 +0200","http://www.gijon.es/data/images/f6/6978/202x303_v1_Directorioedificiosmunicipalesinfor.jpg","Servicio de Sistemas de Información","985 181 192","985 175 120","soporte@gijon.es","Cita previa","Plaza Mayor, 9","43.545161 -5.662701","Servicios Municipales, Zona Wifi, Administración, Comunicaciones"
"http://www.gijon.es/directorios/show/1267-policia-local-centralita","1267","es","fecha-actualizacion2014-09-01 15:23:36 +0200","http://www.gijon.es/data/images/f6/6921/250x188_v1_Directorioserviciosmunicipalespolicialocal-centralita.jpg","Policía Local/Centralita","985 181 100 ,  092","985 181 534","http://www.gijon.es","Abierto 24h.","C/San José, 2","43.535219 -5.658692","Policía, Servicios Municipales, Zona Wifi, Seguridad, Administración, Comunicaciones, Seguridad Ciudadana, Turismo, Gijón con Calidad"
"http://www.gijon.es/directorios/show/1248-plaza-del-instituto","1248","es","fecha-actualizacion2015-05-12 13:53:43 +0200","Plaza del Instituto","La más importante de las de Gijón. Conocida popularmente como El Parchís, por la semejanza de la disposición en planta de sus parterres con ese juego de mesa. Punto de reunión, segregado, de pensionistas y adolescentes.","Plaza del Instituto","43.541409 -5.661615","Parques y Jardines, Zona Wifi, Comunicaciones, Medio Ambiente"
"http://www.gijon.es/directorios/show/1112-parque-las-palmeras","1112","es","fecha-actualizacion2015-05-12 13:48:19 +0200","Parque Las Palmeras","C/Río Nalón","43.521248 -5.666644","Parques y Jardines, Zona Wifi, Comunicaciones, Medio Ambiente"
"http://www.gijon.es/directorios/show/1106-parque-de-isabel-la-catolica","1106","es","fecha-actualizacion2015-05-12 13:43:59 +0200","http://www.gijon.es/data/images/f0/f5/59435/915x552_v1_parque.JPG","Parque de Isabel La Católica","<p>Proyectado en 1941, es el espacio verde de mayor extensiónen la ciudad. En sus 151.857 m² coexistendiferentes ambientes. Destacan sus lagos, flanqueados por gran variedad deárboles y poblados de ocas, cisnes y aves silvestres.</p><p>El espacio central es la rosaleda, de estilo francés, dondehabitan los pavos reales, seña de identidad del parque. Otros espacios deinterés son la pradera próxima a la avenida de Castilla y la zona de juegosinfantiles.</p><p>El parque posee un amplio repertorio escultórico conmotivos mitológicos, personajes históricos y personalidades de la ciudad. En sumobiliario destacan los bancos de piedra y hierro fundido de los años veinte.</p>","Avda. Castilla (esquina Avda. Torcuato Fernández Miranda)","43.537723 -5.642917","Parques y Jardines, Edificios y lugares de interés, Puerto deportivo, Zona Wifi, Comunicaciones, Medio Ambiente, Turismo"
"http://www.gijon.es/directorios/show/1006-policia-local-trafico","1006","es","fecha-actualizacion2015-05-12 13:42:49 +0200","http://www.gijon.es/data/images/f6/6814/282x212_v1_DirectorioseguridadCcis-1.jpg","Policía Local - Tráfico","985 181 100 /092","985 181 534","Lunes a Viernes: 9:00-14:00h.","Tramites:Pago de recibos municipales,alquiler de locales de ensayo,adquisición de tarjeta transporte,entrada a la ludoteca,servicio del centro médico deportivo,volante del padrón,olvido/cambio del PIN de la tarjeta ciudadana,recarga,consulta de movimientos,abono mensual,reserva de instalaciones deportivas,inscripción de cursos y consulta del censo electoral.","C/San José, 2","43.535176 -5.658723","Servicios Municipales, Cajeros Ciudadanos, Policía, Zona Wifi, Administración, Comunicaciones, Seguridad Ciudadana"
"http://www.gijon.es/directorios/show/980-oficina-central-de-atencion-al-ciudadano","980","es","fecha-actualizacion2014-01-22 12:02:46 +0100","http://www.gijon.es/data/images/f6/6793/200x150_v1_DirectorioserviciosmunicipalesMvc-32f.jpg","Oficina Central de Atención al Ciudadano.","985 181 105","985 181 182","http://www.gijon.es","<span>Lunes a viernes: De 8:30 a17:00 h. Sábados: De 9:00 a<span id="dtx-highlighting-item" backgroundcolor="lime"> 13</span>:00 h. Julio y Agosto: Lunes a viernes: De 8:30 a 14:00 h. Sábados: De 9:00 a<span id="dtx-highlighting-item" backgroundcolor="lime">13</span>:00 h.</span>","C/Cabrales, 2","Lineas de autobuses urbanos, Piscinas Municipales, Servicios Municipales, Edificios Municipales, Mediatecas, Servicio Atención a la Ciudadanía, Administración, Comunicaciones, Deporte, Movilidad"
"http://www.gijon.es/directorios/show/716-fidma-feria-internacional-de-muestras-de-asturias","716","es","fecha-actualizacion2014-01-22 12:02:40 +0100","http://www.gijon.es/data/images/f6/6634/250x333_v1_DirectorioocioFeriaMuestrasTorre.jpg","FIDMA. Feria Internacional de Muestras de Asturias","985 180 100","985 337 711","infofidma@camaragijon.com","Todos los días(1 al 15 Agosto): 11:00-22:00h.","<div style="text-align: justify;">La Fidma nació como un punto de encuentro entre empresas e instituciones para presentar a sus visitantes el estado de la industria, el comercio y los servicios asturianos. Poco a poco se ha convertido en un escaparate en el que otras comunidades y países exponen sus productos. De esta forma, la Fidma ha ampliado el carácter regional original hasta situarse en un evento económico, social, y cultural de carácter internacional, y ha convertido a Gijón en una ineludible cita anual.</div>","Fidma Feria Intenacional de Muestras de Asturias - Paseo del Doctor Fleming, 1109 (Recinto Ferial Luis Adaro)","43.53781 -5.637496","Ocio, Zona Wifi, 2010, Gijón, Comunicaciones, Cultura y Ocio"
"http://www.gijon.es/directorios/show/569-edificio-trinidad","569","es","fecha-actualizacion2015-05-12 13:17:41 +0200","http://www.gijon.es/data/images/f6/6503/250x333_v1_Directorioedificiosmunicipalestrinidad.jpg","Edificio Trinidad","C/Instituto, 6","43.544364 -5.663597","Edificios Municipales, Zona Wifi, 2010, Gijón, Administración, Comunicaciones"
"http://www.gijon.es/directorios/show/553-edificio-pelayo","553","es","fecha-actualizacion2014-01-22 12:02:34 +0100","Edificio Pelayo","Plaza Mayor, 5","43.544957 -5.662961","Edificios Municipales, Zona Wifi, 2010, Gijón, Administración, Comunicaciones"
"http://www.gijon.es/directorios/show/446-centro-municipal-vega-la-camocha","446","es","fecha-actualizacion2015-05-12 13:24:25 +0200","http://www.gijon.es/data/images/f6/6423/250x200_v1_DirectorioedificiosmunicipalesCM-Vegacamo.jpg","Centro Municipal Vega - La Camocha","985 137 686 , 985 136 011(Servicios Sociales)","985 137 686","utscontrueces.fmss@gijon.es","Lunes a Viernes: 10:00-13:30h. y 17:00-20:30h. Julio y Agosto: 10:00-14:00h. y 17:00-20:00h.","Servicios del Centro: Laboratorio de fotografía, Sala de exposiciones, 2 aulas polivalentes, Centro de la Fundación de Servicios Sociales: Información y Tramitación de Prestaciones Sociales en General, Información y comunicación con el Ayuntamiento a través del Concejal Delegado de Alcaldía, Información, asesoramiento y recursos para las asociaciones y colectivos del barrio. Biblioteca: Sala de lectura, Sección infantil y juvenil, Sección adultos, Prensa y revistas, Préstamo de libros, discos, revistas, cd-rom, vídeo y dvd, Información bibliográfica y de referencia, Préstamo interbibliotecario y Catálogo colectivo. Red Municipal. Mediateca (10 puestos): Acceso gratuito a Internet y Cursos de formación digital.Cajero Ciudadano: Servicios de Pago de Recibos Municipales, alquiler de Locales de Ensayo, adquisición de Tarjeta de Transporte, entrada a Ludotecas, servicios del Centro Médico Deportivo, volante del Padrón, olvido y cambio de PIN, recarga de la Tarjeta, consulta de saldo de la Tarjeta, consulta de movimientos de la Tarjeta, abono mensual del transporte, reserva de Instalaciones Deportivas, inscripción de Cursos y consulta del Censo Electoral.","C/Charles Chaplin, s/n.","43.48682 -5.652342","Sala de Exposiciones, Servicios Municipales, Cajeros Ciudadanos, Mediatecas, Zona Wifi, 2010, Gijón, Administración, Comunicaciones, Cultura y Ocio"
"http://www.gijon.es/directorios/show/445-biblioteca-de-montiana-centro-municipal-de-montiana","445","es","fecha-actualizacion2015-03-12 08:41:19 +0100","http://www.gijon.es/data/images/f6/6422/250x141_v1_Directoriobibliotecasmontiana.jpg","Biblioteca de Montiana (Centro Municipal de Montiana)","985 300 030 , 985 311 877(Servicios Sociales)","bibliotecamontiana@gijon.es","Lunes a Viernes: 16.30 a 20.00 h. Julio y Agosto: Lunes a Viernes: 10:00-13:30h.","Ofrece diversos servicios y dispone de diferentes equipamientos tales como: Biblioteca, Mediateca (6 puestos) y Cajero Ciudadano: Servicios de Pago de Recibos Municipales, alquiler de Locales de Ensayo, adquisición de Tarjeta de Transporte, entrada a Ludotecas, servicios del Centro Médico Deportivo, volante del Padrón, olvido y cambio de PIN, recarga de la Tarjeta, consulta de saldo de la Tarjeta, consulta de movimientos de la Tarjeta, abono mensual del transporte, reserva de Instalaciones Deportivas, inscripción de Cursos y consulta del Censo Electoral.","Montiana, nº 3540. - Montiana, s/n.","43.521078 -5.746939","Servicios Municipales, Cajeros Ciudadanos, Edificios Municipales, Mediatecas, Zona Wifi, 2010, Gijón, Administración, Comunicaciones"
"http://www.gijon.es/directorios/show/443-centro-municipal-integrado-de-l-arena","443","es","fecha-actualizacion2017-03-28 12:24:45 +0200","http://www.gijon.es/data/images/f6/6420/250x188_v1_Directoriobibliotecasarena.jpg","Centro Municipal Integrado de L'Arena","+34 985 181 620","985 181 618","cmiarena@gijon.es","http://www.gijon.es","Lunes a Viernes: 8:00-22:00h. Cajero: 24h.","<p align="justify"> Este centro integrado comparte los servicios del distrito Este con el centro municipal integrado de El Coto. Así puede verse en su publicación mensual de servicios y actividades, la <em>Agenda</em>, compartida por los dos centros y distribuida, tanto en papel como a través de este sitio web.  Con este edificio, el ayuntamiento llega a un territorio, muy cercano al centro, densamente poblado y con necesidad de todo tipo de servicios como los que se ofrecen desde un centro integrado. Es decir, su idea de reunir servicios y actividades coordinadas y cercanas a cualquier residencia. Todos los servicios descentralizados por el ayuntamiento en esta zona de Gijón están aquí presentes, con las características del edificio, presididos por la idea de la integración. Haciendo compatibles servicios generales con otros especializados, por ejemplo en políticas de igualdad y Mujer.  Es decir, un servicio hecho de servicios diferentes, que se prestan como uno sólo para que el usuario elija, según su gusto o necesidades. </p><p align="justify">Dispone de: oficina de atención a la ciudadanía, Oficina municipal de políticas de igualdad, Servicios Sociales, concejalía de distrito, biblioteca, mediateca (16 puestos), cajero ciudadano, sala de exposiciones, salón de actos, aulas y salas polivalentes. Está próximo al pabellón de deportes de La Arena.</p><p align="center"><img src="/data/images/f0/f4/42483/767x500_v1_CENTROARENA%28exterior%29.JPG" alt="arena" class="nicedit_sin-alinear magnify" height="500" width="767" width="767" height="500"/><br/></p><p><br/></p><h3><a href="http://issuu.com/agendasdeloscentrosintegrados/docs/red_de_centros_municipales_integrad" title="Ir a http://issuu.com/agendasdeloscentrosintegrados/docs/red_de_centros_municipales_integrad" rel="external">Espacios del Centro Municipal Integrado de L'Arena (ver espacios).</a><br/></h3><br/><table><thead><tr><th style="text-align: center;">Espacio<br/></th><th style="text-align: center;">Puestos y Aforo<br/></th></tr></thead><tbody><tr><td>Salón de actos<br/></td><td style="text-align: right;">192</td></tr><tr><td>Aulas 1 y 3<br/></td><td style="text-align: right;">25<br/></td></tr><tr><td>Aulas 4 y 5<br/></td><td style="text-align: right;">29<br/></td></tr><tr><td>Aula 2<br/></td><td style="text-align: right;">20<br/></td></tr><tr><td style="vertical-align: top;">Aula 6<br/></td><td style="vertical-align: top; text-align: right;">45<br/></td></tr><tr><td style="vertical-align: top;">Biblioteca<br/></td><td style="vertical-align: top; text-align: right;">Adultos: 144<br/>Infantiles: 37<br/>Lectura de prensa: 24<br/></td></tr><tr><td style="vertical-align: top;">Mediateca<br/></td><td style="vertical-align: top; text-align: right;">16<br/></td></tr><tr><td style="vertical-align: top;">Sala de Exposiciones<br/></td><td style="vertical-align: top; text-align: right;">96 m2<br/></td></tr></tbody></table>","C/Canga Argüelles, 16- 18","43.539034 -5.650709","Sala de Exposiciones, Cajeros Ciudadanos, Edificios Municipales, Mediatecas, Zona Wifi, Servicio Atención a la Ciudadanía, 2010, Gijón, Otras salas de congresos, Servicios Sociales, Ocio, Bibliotecas, Teatro, Pabellones, Lineas de autobuses urbanos, Aseos públicos, Administración, Comunicaciones, Cultura y Ocio, Deporte, Movilidad, Turismo"
"http://www.gijon.es/directorios/show/441-centro-municipal-integrado-de-el-coto","441","es","fecha-actualizacion2016-06-06 14:03:16 +0200","http://www.gijon.es/data/images/f6/6418/150x113_v1_DirectorioedificiosmunicipalesCMI-elcoto.jpg","Centro Municipal Integrado de El Coto","+34 985 181 701","985 132 299","cmicoto@gijon.es","http://www.gijon.es","Lunes a Viernes: 8:00-22:00h. Cajero: 24h.","Es el centro pionero de la red de centros integrados. Un edificio de servicios múltiples, cabecera del distrito Este. Supone la presencia efectiva del ayuntamiento en ese territorio, con todos sus servicios y con sus nuevas estructuras y dotaciones. Su idea es la de reunir servicios y actividades coordinadas y cercanas a cualquier residencia. Todos los servicios descentralizados por el ayuntamiento en esta zona de Gijón están aquí presentes presididos por la idea de la integración. Es decir, un servicio hecho de servicios diferentes, que se prestan como uno sólo para que el usuario elija, según su gusto o necesidades.<br/><br/> <p>Dispone de: oficina de atención a la ciudadanía, Servicios Sociales, Empleo, Patronato Deportivo Municipal, Servicio de Prevención y Salud Laboral, concejalía de distrito, biblioteca, mediateca (10 puestos), cajero ciudadano, sala de exposiciones, salón de actos y salas polivalentes.</p><p><img src="/data/images/f0/f4/42475/298x400_v1_CentroCoto%28exteriorgenerallosa%29.JPG" alt="Fachada El Coto" class="image-izquierda magnify" height="400" width="298" width="298" height="400"/><img src="/data/images/f0/f4/42476/300x400_v1_CentroCoto%28bibliotecainteriordesdepisosuperior%29.JPG" alt="El coto interior" class="image-derecha magnify" height="400" width="300" width="300" height="400"/><br/><br/></p><p><br/></p><p><br/></p><p><br/></p><p><br/></p><p><br/></p><p><br/></p><p><br/></p><p><br/></p><p><br/></p><p><br/></p><p><br/></p><p><a href="http://issuu.com/agendasdeloscentrosintegrados/docs/red_de_centros_municipales_integrad" title="Ir a http://issuu.com/agendasdeloscentrosintegrados/docs/red_de_centros_municipales_integrad" rel="external"><b>Espacios del Centro Municipal Integrado de El Coto (ver espacios).</b><br/></a></p><br/><table><thead><tr><th style="text-align: center;">Espacio<br/></th><th style="text-align: center;">Puestos y Aforo<br/></th></tr></thead><tbody><tr><td>Salón de actos<br/></td><td style="text-align: right;">207<br/></td></tr><tr><td>Sala Polivalente<br/></td><td style="text-align: right;">166 ó 331<br/></td></tr><tr><td>Sala Paraninfo<br/></td><td style="text-align: right;">84<br/></td></tr><tr><td>Aula 1<br/></td><td style="text-align: right;">36<br/></td></tr><tr><td>Aula 2<br/></td><td style="text-align: right;">44<br/></td></tr><tr><td style="vertical-align: top;">Aula 3                                         <br/></td><td style="vertical-align: top; text-align: right;">                                          52 <br/></td></tr><tr><td style="vertical-align: top;">Aula auxiliar<br/></td><td style="vertical-align: top; text-align: right;">6<br/></td></tr><tr><td style="vertical-align: top;">Sala de estudio<br/></td><td style="vertical-align: top; text-align: right;">52<br/></td></tr><tr><td style="vertical-align: top;">Biblioteca<br/></td><td style="vertical-align: top; text-align: right;">Adultos: 68<br/>Infantil:32<br/>Lectura prensa: 24<br/></td></tr><tr><td style="vertical-align: top;">Mediateca<br/></td><td style="vertical-align: top; text-align: right;">10<br/></td></tr><tr><td style="vertical-align: top;">Sala de exposiciones<br/></td><td style="vertical-align: top; text-align: right;">137 m2<br/></td></tr></tbody></table>","Plaza de la República, s/n.","43.533605 -5.649089","Sala de Exposiciones, Servicios Municipales, Cajeros Ciudadanos, Mediatecas, Zona Wifi, Servicio Atención a la Ciudadanía, 2010, Gijón, Otras salas de congresos, Servicios Sociales, Ocio, Bibliotecas, Piscinas Municipales, Pictogramas, Aparcamientos, Establecimientos de Recarga del Monedero Transporte, Lineas de autobuses urbanos, Taxis, Servicios municipales, Museos y salas de exposiciones, Centros culturales, Aseos públicos, Administración, Comunicaciones, Cultura y Ocio, Deporte, Movilidad, Turismo"
"http://www.gijon.es/directorios/show/440-centro-municipal-del-poligono-de-pumarin","440","es","fecha-actualizacion2017-03-28 12:24:25 +0200","Centro Municipal del Polígono de Pumarín","985 185 127 ,  985 185 128","bibliotecapoligono@gijon.es","Lunes a Viernes: 9:00-20:00h.","C/Puerto de Piedrafita, 3","43.530439 -5.674355","Servicios Municipales, Mediatecas, Zona Wifi, 2010, Gijón, Administración, Comunicaciones"
"http://www.gijon.es/directorios/show/438-biblioteca-municipal-de-roces","438","es","fecha-actualizacion2017-03-28 12:24:14 +0200","http://www.gijon.es/data/images/f0/f3/31603/267x200_v1_ExteriorRoces200.jpg","Biblioteca Municipal de Roces","985 181 692","bibliotecaroces@gijon.es","http://bibliotecas.gijon.es/","Lunes a viernes de 9.00 a 14.00 h y de 16.00 a 20.00 h. Julio y agosto de 9.00 a 15.00h","Ofrece diversos servicios y dispone de diferentes equipamientos tales como: <br/><ul><li>Sala de lectura. </li><li>Sección adultos. </li><li>Sección infantil y juvenil. </li><li>Biblioteca para padres y madres. </li><li>Bebeteca. </li><li>Sección Asturiana. </li><li>Centros de interés: Fácil de leer, Cómic, Viajes, Idiomas. </li><li>Prensa y revistas. Préstamo de libros, discos, revistas, vídeo y dvd. </li><li>Préstamo interbibliotecario. Información bibliográfica y de referencia. </li><li>Actividades de animación a la lectura: La hora de los cuentos. </li><li>Programa de formación en el uso de la biblioteca para escolares (Cita previa concertada). </li><li>Información y asesoramiento sobre temas generales de interés para la comunidad. </li><li>Consulta Catálogo Colectivo de la Red de Bibliotecas del Principado de Asturias. </li><li>Consulta Red Municipal de Bibliotecas . </li><li>Mediateca (6 puestos): Acceso gratuito a Internet </li></ul><span style="FONT-WEIGHT: bold">Cómo llegar: </span><br/>Líneas de autobuses: Línea 15","Avda. Salvador Allende, 13 C.P. 33211","43.51898 -5.683518","Bibliotecas, Servicios Municipales, Mediatecas, Zona Wifi, Administración, Comunicaciones, Cultura y Ocio"
"http://www.gijon.es/directorios/show/436-centro-municipal-el-natahoyo","436","es","fecha-actualizacion2017-03-28 12:24:03 +0200","http://www.gijon.es/data/images/f6/6416/250x188_v1_DirectorioedificiosmunicipalesCM-natahoyo.jpg","Centro Municipal El Natahoyo","985 320 348(Biblioteca) , 984 491 969 (Servicios Sociales)","bibliotecanatahoyo@gijon.es","Lunes a Viernes: 9.00 a 20.00 h.","Ofrece diversos servicios y dispone de diferentes equipamientos tales como:Servicios sociales: Información y Tramitación de Prestaciones Sociales en General. Bibliotecas: Sala de lectura, Sección infantil y juvenil, Sección adultos, Prensa y revistas, Préstamo de libros, discos, revistas, cd-rom, vídeo y dvd, Información bibliográfica y de referencia, Préstamo interbibliotecario y Catálogo colectivo. Red Municipal. Mediateca (12 puestos): Acceso gratuito a Internet y Cursos de formación digital.","C/La Estrella, s/n.","43.540316 -5.688418","Sala de Exposiciones, Servicios Municipales, Mediatecas, Zona Wifi, 2010, Gijón, Administración, Comunicaciones, Cultura y Ocio"
"http://www.gijon.es/directorios/show/422-centro-de-iniciativas-juveniles-de-la-calzada","422","es","fecha-actualizacion2016-07-11 13:39:42 +0200","Centro de Iniciativas Juveniles de la Calzada","985 322 130","juventud@gijon.es","<p>Del 1 de septiembre al 30 de junio</p><p>De lunes a viernes de 16:00 a 20:00 h.</p><p>Julio. De lunes a viernes de 10:00 a 14:00 h.</p><p>Agosto cerrado<br/></p>","Punto de información juvenil, taller de fotografía , taller de radio Radiooeste, 2 salas polivalentes, 2 aulas para reuniones y talleresSala de navegación con 9 puestos de conexión a internet, 3 despachos para la prestación de servicios, taquillas para grupos y/o asociaciones, almacén.","Camino del Lucero, 8","43.541398 -5.691302","Servicios Municipales, Mediatecas, 2010, Gijón, Administración, Comunicaciones"
"http://www.gijon.es/directorios/show/416-centro-de-cultura-antiguo-instituto","416","es","fecha-actualizacion2016-05-31 11:59:57 +0200","http://www.gijon.es/data/images/f6/6407/250x188_v1_Directorioedificiosmunicipalesantistituto.jpg","Centro de Cultura Antiguo Instituto","+34 985 181 001","985 350 709","ccai@gijon.es","http://cultura.gijon.es","<span style="font-weight: bold;">Lunes a Viernes:</span> 9:00-21:30h.<br/><span style="font-weight: bold;">Sábados:</span> 10:00-14:00h. y 16:00-21:00h.<br/><span style="font-weight: bold;">Domingos y festivos:</span> 10:00-14:00h.","<p>El 19 deoctubre de 1797, Gaspar Melchor de Jovellanos colocó la primera piedra del RealInstituto Asturiano, fundado con el objetivo de impartir formación científica ytécnica en las materias de marina y minería, dada la importancia de ambasactividades en Asturias.</p><p>Eledificio actual es el resultado de dos fases constructivas. La primera sedesarrolló entre 1797 y 1807 y responde a las trazas de Juan de Villanueva(1739-1811), que proyectó la planta baja, de estilo neoclásico. La segunda fasese corresponde con la ampliación realizada entre 1887 y 1892 por Ricardo MarcosBausá, que consistió en la elevación de dos plantas sobre la original.</p><p>Actualmentealberga el Centro de Cultura Antiguo Instituto, un espacio de referencia parala creación, producción y difusión artística y cultural de la ciudad, así como de la formación especializada en los lenguajes artísticos, proporcionando los espacios y equipamientos adecuados para tal fin. Depende del Departamento de Promoción de las Artes cuyo objetivo primordial es el apoyo a los creadores que inician su trabajo en distintos ámbitos de la creación.Su programación se articula en las siguientes grandes áreas: Programas de Difusión: Conciertos de Música, actuaciones de Teatro y Danza, Poesía, Imagen; Apoyo a la Creación Artística; Formación especializada: Sonido, Imagen, Teatro, Danza; Apoyo al Asociacionismo: casi 200 entidades y asociaciones colaboran anualmente en las actividades del Centro; Grandes eventos culturales: Salón del Libro Iberoamericano, Fetén, Semana de Música Antigua, Danza Gijón, Festival Internacional de Cine, Salón Internacional del Cómic, Al Norte, Festival Internacional de Video-Arte Optica, Festival Internacional de música de Gijón...<br/></p><br/><h3>Accesibilidad:</h3><ul><li>Alta: <ul><li>Acceso </li><li>Movilidad interior</li></ul></li><li>Media: <br/><ul><li>Ascensor</li></ul></li><li>Baja: <ul><li>Aseos<br/></li></ul></li></ul><h3>Observaciones: </h3>Dispone de aseo para personas con discapacidad, pero se considera practicable pues no cumple con las medidas legalmente establecidas (carece de espacio de transferencia y el lavabo tiene pedestal).<br/><br/><h3>Información sobre las salas del Centro de Cultura Antiguo Instituto</h3><br/><table><thead><tr><th>Sala</th><th>Teatro</th><th>Otras disposiciones<br/></th><th>m<sup>2</sup></th><th>Altura<br/></th></tr></thead><tbody><tr><td>Salón de actos<br/></td><td>120</td><td><br/></td><td>150</td><td>4 - 5<br/></td></tr><tr><td>Sala de conferencias<br/></td><td>100</td><td>Escuela</td><td>82</td><td>4<br/></td></tr></tbody></table>","C/Jovellanos, 21. 33201 Gijón/Xixón","43.541448 -5.662224","Sala de Exposiciones, Servicios Municipales, Cajeros Ciudadanos, Edificios Municipales, Mediatecas, Zona Wifi, 2010, Gijón, Servicios municipales, Turismo, Monumentos, Edificios y lugares de interés, Cultura, Otros Recursos Educación, Establecimientos de Recarga del Monedero Transporte, GijonBici, Lineas de autobuses urbanos, Taxis, Museos y salas de exposiciones, Centros culturales, Administración, Comunicaciones, Cultura y Ocio, Educación, Movilidad, Turismo, Fundación Municipal de Cultura, Educación y Universidad Popular"
"http://www.gijon.es/directorios/show/274-torre-del-reloj","274","es","fecha-actualizacion2014-01-22 12:02:26 +0100","http://www.gijon.es/data/images/f6/6340/203x270_v1_Directoriomuseostorrereloj.jpg","Torre del Reloj","985 181 120","985 181 182","archivo@gijon.es","Lunes a Viernes: 9:00-14:00h.","<p>Selevantó en 1572 sobre los restos de la antigua muralla romana. Inicialmente sedestinó a casa consistorial, siendo sede del Ayuntamiento hasta sureutilización como cárcel, función que desempeñó hasta 1909. Tras su abandono,fue demolida en 1911.</p><p>En1989, durante la rehabilitación del barrio de Cimavilla, salieron a la luz losvestigios de la antigua muralla romana. Tras su estudio, se decidió visibilizaresos restos, acometiendo una reconstrucción que mostrase el aspecto original dela estructura defensiva. El edificio de la Torre del Reloj se recuperósiguiendo esos mismos criterios, para mantener la coherencia visual del conjunto.</p><p>Actualmentees sede del Archivo Municipal de Gijón.</p>","C/Recoletas, 5 (Edificio Torre del Reloj). 33201 Gijón","43.545686 -5.663436","Servicios Municipales, Edificios Municipales, Zona Wifi, Gijón, Monumentos, Edificios y lugares de interés, Administración, Comunicaciones, Cultura y Ocio, Turismo"
"http://www.gijon.es/directorios/show/199-alpee-departamento-de-escuelas-taller","199","es","fecha-actualizacion2017-05-11 10:05:18 +0200","http://www.gijon.es/data/images/f0/f9/94736/130x108_v1_logodirectorioimpulsaempleo.png","ALPEE. Departamento de Escuelas Taller","985 181 589","985 181 594","escuelastaller.alpee@gijon.es","http://empleo.gijon.es","Lunes a Viernes: 9:00 - 14:00h.","C/ Avelino González Mallada, 27 - Planta Primera - 33204","Servicios Municipales, 2010, Gijón, Zona Wifi, Administración, Comunicaciones"
"http://www.gijon.es/directorios/show/196-alpee-departamento-economico","196","es","fecha-actualizacion2017-05-11 09:58:27 +0200","http://www.gijon.es/data/images/f0/f9/94736/130x108_v1_logodirectorioimpulsaempleo.png","ALPEE - Departamento Económico","985 181 555","985 181 562","agencialocal@gijon.es","../../../../","<a href="mailto:economico.alpee@gijon.es" title="Enviar correo electrónico a economico.alpee@gijon.es">	</a><a href="mailto:economico.alpee@gijon.es" title="Enviar correo electrónico a economico.alpee@gijon.es">	</a><a href="mailto:economico.alpee@gijon.es" title="Enviar correo electrónico a economico.alpee@gijon.es">	</a>Lunes a Viernes: 9:00-14:00h<a href="mailto:economico.alpee@gijon.es" title="Enviar correo electrónico a economico.alpee@gijon.es">.</a>","<a href="mailto:economico.alpee@gijon.es" title="Enviar correo electrónico a economico.alpee@gijon.es">	</a>C/ Avelino González Mallada, 27 - Planta Primera - 33204<a href="mailto:economico.alpee@gijon.es" title="Enviar correo electrónico a economico.alpee@gijon.es"></a>","Servicios Municipales, 2010, Gijón, Zona Wifi, Administración, Comunicaciones"
"http://www.gijon.es/directorios/show/187-oficina-central-de-atencion-a-la-ciudadania","187","es","fecha-actualizacion2016-06-06 10:53:59 +0200","http://www.gijon.es/data/images/f6/6122/200x150_v1_OAC_central.jpg","Oficina central de atención a la ciudadanía","010. Si llama desde fuera del municipio de Gijón: 984 847 970.","985 181 182","http://www.gijon.es","Invierno: Lunes a Viernes: 8:30-17:00h.Sábado: 9:00-13:00h.Verano (julio y agosto) Lunes a viernes: 8:30-14:00h. Sábado: 9:00-13:00h.","C/Cabrales, 2 - 33201","43.544656 -5.661931","Edificios Municipales, Servicio Atención a la Ciudadanía, Servicios Municipales, Mediatecas, Piscinas Municipales, Lineas de autobuses urbanos, Servicios municipales, Administración, Comunicaciones, Deporte, Movilidad, Turismo"
"http://www.gijon.es/directorios/show/183-centro-municipal-integrado-ateneo-de-la-calzada","183","es","fecha-actualizacion2017-03-28 12:22:14 +0200","http://www.gijon.es/data/images/f6/6115/250x333_v1_CM-ateneo.jpg","Centro Municipal Integrado Ateneo de La Calzada","985 181 403","985 301 198","cmicalzada@gijon.es","http://www.gijon.es","Lunes a sábado, de 8:00 a 22:00 h. Cajero: 24h","<p>Este Centro ha sido el último en incorporarse a la red de centros municipales integrados, pese a ser el equipamiento más veterano. Su origen, muy lejano en el tiempo y en la historia del barrio de La Calzada, lo liga a iniciativas vecinales (que aún disponen de espacios en el Centro) y a usos municipales puramente culturales. Una reciente reforma lo ha convertido, desde el año 2007, en un centro municipal integrado con el mismo rango de servicios y organización que el resto.</p><p>Dispone de: oficina de atención a la ciudadanía, Servicios Sociales, salón de actos (aforo de 270 personas), sala de exposiciones, biblioteca, mediateca (14 puestos), salas polivalentes, aulas, talleres especializados y cajero ciudadano.</p><p><img src="/data/images/f0/f4/42478/266x400_v1_LaCalzadaexterior.JPG" alt="exterior la calzada" class="image-izquierda magnify" height="400" width="266" width="266" height="400"/><br/></p><p><span style="font-weight: bold;"><img src="/data/images/f0/f4/42482/400x300_v1_Bibliotecainfantil.JPG" alt="ateneop biblio" class="image-derecha magnify" height="300" width="400" width="400" height="300"/><br/></span></p><p><span style="font-weight: bold;"><br/></span></p><p><span style="font-weight: bold;"><br/></span></p><p><span style="font-weight: bold;"><br/></span></p><p><span style="font-weight: bold;"><br/></span></p><p><span style="font-weight: bold;"><br/></span></p><p><span style="font-weight: bold;"><br/></span></p><p><span style="font-weight: bold;"><br/></span></p><p><span style="font-weight: bold;"><br/></span></p><p><span style="font-weight: bold;"><br/></span></p><p><span style="font-weight: bold;"><br/></span></p><p><span style="font-weight: bold;"><a href="http://issuu.com/agendasdeloscentrosintegrados/docs/red_de_centros_municipales_integrad" title="Ir a http://issuu.com/agendasdeloscentrosintegrados/docs/red_de_centros_municipales_integrad" rel="external"><br/></a></span></p><p><span style="font-weight: bold;"><a href="http://issuu.com/agendasdeloscentrosintegrados/docs/red_de_centros_municipales_integrad" title="Ir a http://issuu.com/agendasdeloscentrosintegrados/docs/red_de_centros_municipales_integrad" rel="external">Espacios en el centro municipal integrado Ateneo de La Calzada (ver espacios).</a></span><br/></p><p></p><table><thead><tr><th style="text-align: center;">Espacio<br/></th><th style="text-align: center;">Puestos y Aforo<br/></th></tr></thead><tbody><tr><td>Salón de actos<br/></td><td style="text-align: right;">270<br/></td></tr><tr><td style="vertical-align: top;">Sala polivalente<br/></td><td style="vertical-align: top; text-align: right;">60</td></tr><tr><td>Sala de exposiciones<br/></td><td style="text-align: right;">75 m2<br/></td></tr><tr><td>Biblioteca<br/></td><td style="text-align: right;">Adultos:28<br/>Infantil:39<br/>Lectura de prensa:27<br/></td></tr><tr><td style="vertical-align: top;">Sala de Estudio<br/>(dos espacios)</td><td style="vertical-align: top; text-align: right;">45 y 30</td></tr><tr><td style="vertical-align: top;">Mediateca</td><td style="vertical-align: top; text-align: right;">16</td></tr><tr><td>Aula 2.2.<br/></td><td style="text-align: right;">25<br/></td></tr><tr><td style="vertical-align: top;">Aula 3.4.</td><td style="vertical-align: top; text-align: right;">30</td></tr><tr><td style="vertical-align: top;">Aula 4.2.</td><td style="vertical-align: top; text-align: right;">18</td></tr><tr><td style="vertical-align: top;">Aula 5.2<br/></td><td style="vertical-align: top; text-align: right;">25</td></tr><tr><td style="vertical-align: top;">Aula 5.5                               <br/></td><td style="vertical-align: top; text-align: right;">                                   40</td></tr><tr><td style="vertical-align: top;">Aula 5.6<br/></td><td style="vertical-align: top; text-align: right;">35<br/></td></tr><tr><td style="vertical-align: top;">Aula Música        <br/></td><td style="vertical-align: top; text-align: right;">25</td></tr><tr><td style="vertical-align: top;">Aula Teatro</td><td style="vertical-align: top; text-align: right;">25</td></tr><tr><td style="vertical-align: top;">Aula fotografía</td><td style="vertical-align: top; text-align: right;">25</td></tr><tr><td style="vertical-align: top;">Aula-Reuniones</td><td style="vertical-align: top; text-align: right;">30</td></tr><tr><td style="vertical-align: top;">Taller de Restauración</td><td style="vertical-align: top; text-align: right;">25</td></tr><tr><td style="vertical-align: top;">Taller de Dibujo</td><td style="vertical-align: top; text-align: right;">25</td></tr><tr><td style="vertical-align: top;">Taller Pintura<br/></td><td style="vertical-align: top; text-align: right;">25<br/></td></tr><tr><td style="vertical-align: top;">Taller madera<br/></td><td style="vertical-align: top; text-align: right;">25</td></tr><tr><td style="vertical-align: top;">Taller cocina</td><td style="vertical-align: top; text-align: right;">25</td></tr><tr><td>Grupo montaña<br/></td><td style="text-align: right;">18<br/></td></tr><tr><td>Grupo filatélico<br/></td><td style="text-align: right;">18<br/></td></tr><tr><td>G. Industrial C.F.<br/></td><td style="text-align: right;">18<br/></td></tr><tr><td>Casa Deporte</td><td style="text-align: right;">25</td></tr><tr><td>Club Alfil<br/></td><td style="text-align: right;">25<br/></td></tr><tr><td>Asociación de vecinos <br/>(dos espacios)</td><td style="text-align: right;">30 y 18</td></tr></tbody></table>","C/Ateneo Obrero de La Calzada, 1","43.539353 -5.694611","Edificios Municipales, Centros de Formación, Cajeros Ciudadanos, Servicio Atención a la Ciudadanía, Servicios Municipales, Sala de Exposiciones, Mediatecas, Zona Wifi, Servicios Sociales, Bibliotecas, Teatro, Aparcamientos, Establecimientos de Recarga del Monedero Transporte, Lineas de autobuses urbanos, Servicios municipales, Teatros, Administración, Comunicaciones, Cultura y Ocio, Educación, Movilidad, Turismo"
"http://www.gijon.es/directorios/show/180-alpee-agencia-local-de-promocion-economica-y-empleo","180","es","fecha-actualizacion2017-05-11 09:56:52 +0200","http://www.gijon.es/data/images/f0/f9/94736/130x108_v1_logodirectorioimpulsaempleo.png","ALPEE-Agencia Local de Promoción Económica y Empleo","985 181 555","985 181 562","agencialocal@gijon.es","http://empleo.gijon.es","Lunes a Viernes: 9:00-14:00h.","C/ Avelino González Mallada, 27 - 33204 - Gijón","Edificios Municipales, 2010, Gijón, Zona Wifi, Administración, Comunicaciones"
"http://www.gijon.es/directorios/show/164-edificio-administrativo-antigua-pescaderia-municipal","164","es","fecha-actualizacion2017-03-28 12:27:22 +0200","http://www.gijon.es/data/images/f4/4895/150x113_v1_pescaderia.jpg","Edificio Administrativo Antigua Pescadería Municipal","010. Si llama desde fuera del municipio de Gijón: 984 847 970.","985 181 182","http://www.gijon.es","Lunes a Viernes de 8:30 a 17:00 horas, ininterrumpidamente.<br/>Sábados de 9:00-13:00 horas. <br/>Julio y agosto: De 08:30 a 14:00 horas, de lunes a viernes; y sábados de 09:00 a 13:00 horas.","Autor:Miguel García de la Cruz.<br/>Contruida entre 1928-30 para sustituir a otra (Mercado del Adobo) de principios del s. XIX.<br/>De planta rectangular y un solo piso, tiene fachada abierta a cuatro calles, con la principal orientada hacia el Muro de San Lorenzo.<br/>Las fachadas se configuran a través de una sucesión de vanos enmarcados por arcos rebajados; pone el remate a las mismas una ancha y poco saliente cornisa, coronada por bolas escurialenses apoyadas en pedestales. Las entradas principales se desarrollan en forma de pórticos a la manera renacentista, con arcos de medio punto apoyados en columnas de estilo dórico y un coronamiento a base de buenos frontones elevados sobre la cornisa.","C/ Cabrales, nº2","43.544746 -5.662076","Edificios Municipales, Cajeros Ciudadanos, Servicios Municipales, Monumentos, Zona Wifi, Gobierno, Establecimientos de Recarga del Monedero Transporte, Administración, Comunicaciones, Cultura y Ocio, Movilidad"
"http://www.gijon.es/directorios/show/93-biblioteca-municipal-de-contrueces","93","es","fecha-actualizacion2014-01-22 12:02:22 +0100","http://www.gijon.es/data/images/f3/3118/250x188_v1_CM-contrueces.jpg","Biblioteca Municipal de Contrueces","985 185 114","bibliotecacontrueces@gijon.es","http://bibliotecas.gijon.es/","Lunes a viernes de 9.00 a 20.00 h. Julio y agosto de 9.00 a 15.00 h.","<p><strong>Biblioteca:</strong> Sala de lectura. Sección adultos (18 puestos). Prensa y revistas (18 puestos). Sección infantil y juvenil (18 puestos). Bebeteca. Sección Asturiana. Centros de interés: Cómic. Préstamo de libros, discos, revistas, cd-rom, vídeo y dvd. Préstamo interbibliotecario. Información bibliográfica y de referencia. Actividades de animación a la lectura: Bebé cuentos, La hora de los cuentos, Club de lectura, Programa de formación en el uso de la biblioteca para escolares. Consulta Catálogo Colectivo de la Red de Bibliotecas del Principado de Asturias. Consulta Red Municipal de Bibliotecas</p><p><strong>Mediateca:</strong> 13 puestos. Acceso gratuito a internet y cursos de formación digital</p><p>2 <strong>aulas</strong>polivalentes. Información, asesoramiento y recursos para las asociaciones y colectivos del barrio. </p><p><strong>Cajero ciudadano</strong></p>","C/Río Nalón, 2 C.P. 33210","43.521944 -5.664088","Bibliotecas, Bibliotecas, 2010, Gijón, Edificios Municipales, Cajeros Ciudadanos, Mediatecas, Zona Wifi, Administración, Comunicaciones, Cultura y Ocio"
"http://www.gijon.es/directorios/show/92-biblioteca-de-el-llano","92","es","fecha-actualizacion2014-01-22 12:02:22 +0100","http://www.gijon.es/data/images/f0/f4/46634/3072x2304_v1_BiblioLlano.jpg","Biblioteca de El Llano","985 185 248","<a title="Ir a bibliotecallano@gijon.es " href="http://bibliotecallano@gijon.es">bibliotecallano@gijon.es</a>","http://bibliotecas.gijon.es","Lunes a sábado de 9.00 a 20.00 h","Ofrece diversos servicios y dispone de diferentes equipamientos tales como:<br/><ul><li>Sala de estudio. Con capacidad para 120 personas </li><li>Sala de lectura </li><li>Sección adultos </li><li>Sección infantil y juvenil </li><li>Biblioteca para padres y madres </li><li>Sección Asturiana </li><li>Centros de interés: Oposiciones y empleo, Manualidades, Biblioteca de Padres, Letra Grande. Selectividad, Idiomas, Librodisco, Autoayuda</li><li>Prensa y revistas.  </li><li>Préstamo de libros, discos, revistas, cd-rom, vídeo y dvd<br/></li><li>Préstamo interbibliotecario </li><li>Información bibliográfica y de referencia </li><li>Actividades de animación a la lectura: Bebé-cuentos, La hora de los cuentos, Expocuentos, Club de Lectura, Taller de Creación Literaria y Programa de Formación en el Uso de la Biblioteca para Escolares (cita previa concertada) </li><li>Consulta Catálogo Colectivo de la Red de Bibliotecas del Principado de Asturias </li><li>Consulta Red Municipal de Bibliotecas </li><li>Mediateca (16 puestos): acceso gratuito a Internet y cursos de formación digital</li></ul>","Centro Municipal Integrado El Llano - c/Río de Oro, 37 - 33209","43.527246 -5.663562","Bibliotecas, Bibliotecas, Servicios Municipales, Mediatecas, Zona Wifi, Administración, Comunicaciones, Cultura y Ocio"
"http://www.gijon.es/directorios/show/80-casa-consistorial","80","es","fecha-actualizacion2015-05-12 13:12:51 +0200","http://www.gijon.es/data/images/f2/2920/150x113_v1_consitorial.jpg","Casa Consistorial","985 181 111","985 181 182","http://www.gijon.es/","Autor:Andrés Coello realizó el proyecto y Luis Céspedes, primero, y Lucas Mª Palacio dirigieron las obras con algunas modificaciones sobre dicho proyecto.<br/>Fecha: 1861-65.<br/>Se debe a un proyecto del arquitecto Andrés Coello aunque con algunas modificaciones de los técnicos que dirigieron las obras, Luis Céspedes, primero, y Lucas Mª Palacio, después. Es un bloque cúbico de tres plantas situado en una plaza porticada inconclusa por una de sus crujías. La primera planta tiene un amplio balcón de balaustrada y cuatro amplias ventanas.<br/>La segunda planta no muestra separación con la anterior y ambas están recorridas por dobles pilastras con capiteles compuestos. Está rematada por una cornisa, por encima de la cual la recorre una balaustrada, rematada por un frontón semicircular donde se encuentra el reloj y una torreta con el escudo de la ciudad. De carácter historicista, remarcado por la plaza porticada donde se localiza, ha sido remodelado en el año 2002.","43.545041 -5.662098","Edificios Municipales, Gijón en el mundo, Gijón, Zona Wifi, Administración, Comunicaciones"
"http://www.gijon.es/directorios/show/10-centro-municipal-integrado-de-gijon-sur","10","es","fecha-actualizacion2017-07-12 09:58:07 +0200","http://www.gijon.es/data/images/f2/2545/250x188_v1_CMI-gijonsur.jpg","Centro Municipal Integrado de Gijón-Sur","+ 34 985 181 640","<strong></strong>+ 34 985 181 639","cmigijonsur@gijon.es","http://www.gijon.es","Lunes a sábados: 8:00 a 22:00 horas. Domingos de 8:00 a 15:00 horas.","<p style="text-align: justify;">El nacimiento de este centro integrado supuso dotar a la zona Sur de un conjunto de equipamientos que demandaba por su gran crecimiento urbanístico y rejuvenecimiento demográfico. Su arquitectura demuestra a las claras la noción de integración, pues comparte, en el mismo edificio, usos administrativos, deportivos (con pabellón y piscina) y socioculturales, en un gran complejo cívico que es ya una referencia para el barrio y, en algunos servicios, para toda la ciudad. Nuevamente la idea de coordinar y acercar a cualquier residencia todos los servicios descentralizados por el ayuntamiento, visibles en una destacada arquitectura</p><p style="text-align: justify;">Dispone de: oficina de atención a la ciudadanía, concejalía de distrito, Servicios Sociales, biblioteca, Mediateca (12 puestos), sala de estudio (60 puestos), salón de actos, aulas, salas polivalentes, sala de exposiciones, pabellón deportivo, piscina, sauna, gimnasio, canchas de squash y cajero ciudadano</p><p style="text-align: justify;" align="center"><img src="/data/images/f0/f4/42494/640x407_v1_GijonSurteatro.JPG" alt="suteatro" class="nicedit_sin-alinear magnify" height="407" width="640" width="640" height="407"/><br/></p><p><b><a href="http://issuu.com/agendasdeloscentrosintegrados/docs/red_de_centros_municipales_integrad" title="Ir a http://issuu.com/agendasdeloscentrosintegrados/docs/red_de_centros_municipales_integrad" rel="external">Espacios del Centro Municipal Integrado Gijón-Sur (ver espacios).</a></b><br/></p><div style="text-align: center;"><br/></div><table><thead><tr><th style="text-align: center;">Espacio<br/></th><th style="text-align: center;">Puestos y aforo<br/></th></tr></thead><tbody><tr><td>Salón de actos<br/></td><td style="text-align: right;">350</td></tr><tr><td>Aulas 1 a 5<br/></td><td style="text-align: right;">20</td></tr><tr><td>Aula 6/7<br/></td><td style="text-align: right;">70<br/></td></tr><tr><td>Sala de estudio<br/></td><td style="text-align: right;">60<br/></td></tr><tr><td>Biblioteca<br/></td><td style="text-align: right;">Adultos: 25<br/>Infantil: 25<br/>Lectura de prensa: 32<br/></td></tr><tr><td>Mediateca<br/></td><td style="text-align: right;">12<br/></td></tr><tr><td style="vertical-align: top;">Sala de exposiciones<br/></td><td style="vertical-align: top; text-align: right;">180 m2<br/></td></tr><tr><td>Piscina<br/></td><td style="text-align: right;">Vaso grande: 104 usuarios máximo.<br/>Vaso pequeño: 25 usuarios máximo.<br/>No hay graderío.<br/></td></tr><tr><td>Polideportivo<br/></td><td style="text-align: right;">Grada: 300.<br/>Pista: en caso de eventos en pista hasta 700.<br/></td></tr><tr><td style="vertical-align: top;">Gimnasio<br/></td><td style="vertical-align: top; text-align: right;">26<br/></td></tr><tr><td style="vertical-align: top;">Sauna<br/></td><td style="vertical-align: top; text-align: right;">4<br/></td></tr><tr><td style="vertical-align: top;">Canchas de Squash<br/></td><td style="vertical-align: top; text-align: right;">4 (2 pistas)<br/></td></tr></tbody></table>","C/ Ramón Areces, 7. 33211 Gijón","43.524769 -5.678161","Edificios Municipales, Cajeros Ciudadanos, Servicio Atención a la Ciudadanía, Servicios Municipales, Servicios Sociales, Bibliotecas, Teatro, Sala de Exposiciones, Complejos Deportivos, Pabellones, Piscinas Municipales, Pistas Polideportivas, Servicios municipales, Centros culturales, Zona Wifi, Otras salas de congresos, Administración, Comunicaciones, Cultura y Ocio, Deporte, Turismo"
