url,identificador,locale,send,foto,nombre,telefono,fax,correo-electronico,web,horario,descripcion,direccion,localizacion,categorias
"http://www.gijon.es/directorios/show/9844-real-sporting-gijon-business-club","9844","es","fecha-actualizacion2017-07-12 14:11:33 +0200","http://www.gijon.es/data/images/f0/f6/62232/410x315_v1_sala_de_prensa_Molinon2.jpg","Real Sporting Gijón Business Club","984 28 29 36","985 16 76 32","tourmolinon@dtaocioyturismo.com","http://www.realsporting.com/","Celebra tus eventos en un entorno totalmente diferente en Asturias.<br/> <br/> El Molinón ofrece múltiples posibilidades de combinaciones de servicios, espacios y experiencias.<br/> <br/> Un entorno y espacios singulares para la celebración de reuniones de empresa, almuerzos de trabajo, presentaciones de producto, actividades motivacionales y de Team Building, visitas privadas, rodajes y filmaciones y mucho más.<br/>","Luis Adaro s/n 33203 Gijón","43.536178 -5.637274","Recintos singulares, Campos de Fútbol, Club de Empresas de Turismo de Negocios, Deporte"
"http://www.gijon.es/directorios/show/9669-policia-local-hermanos-felgueroso","9669","es","fecha-actualizacion2014-03-11 14:42:19 +0100","Policía Local (Hermanos Felgueroso)","43.535187 -5.658587","Zona Wifi, Boleras, Escuelas Infantiles, Sindicatos, Estaciones de Servicio, Bares y cafés, Edificios y lugares de interés, Puerto deportivo, Saboreando - Restaurantes y sidrerías, Repostería, Comunicaciones, Deporte, Educación, Otros, Movilidad, Turismo"
"http://www.gijon.es/directorios/show/9668-parque-de-la-serena","9668","es","fecha-actualizacion2014-03-11 14:43:39 +0100","Parque de La Serena","43.530505 -5.664557","Zona Wifi, Boleras, Escuelas Infantiles, Sindicatos, Estaciones de Servicio, Bares y cafés, Edificios y lugares de interés, Puerto deportivo, Saboreando - Restaurantes y sidrerías, Comunicaciones, Deporte, Educación, Otros, Movilidad, Turismo"
"http://www.gijon.es/directorios/show/9667-playa-de-san-lorenzo-piles","9667","es","fecha-actualizacion2014-03-11 14:41:08 +0100","Playa de San Lorenzo (Piles)","43.540398 -5.646737","Zona Wifi, Boleras, Escuelas Infantiles, Sindicatos, Estaciones de Servicio, Bares y cafés, Edificios y lugares de interés, Puerto deportivo, Comunicaciones, Deporte, Educación, Otros, Movilidad, Turismo"
"http://www.gijon.es/directorios/show/9666-playa-de-san-lorenzo-nautico","9666","es","fecha-actualizacion2014-03-11 14:40:26 +0100","Playa de San Lorenzo (Naútico)","43.542731 -5.660169","Zona Wifi, Boleras, Escuelas Infantiles, Sindicatos, Estaciones de Servicio, Bares y cafés, Edificios y lugares de interés, Comunicaciones, Deporte, Educación, Otros, Movilidad, Turismo"
"http://www.gijon.es/directorios/show/9665-plaza-del-humedal","9665","es","fecha-actualizacion2014-03-11 14:39:05 +0100","Plaza del Humedal","43.539628 -5.665979","Zona Wifi, Boleras, Escuelas Infantiles, Sindicatos, Estaciones de Servicio, Bares y cafés, Comunicaciones, Deporte, Educación, Otros, Movilidad, Turismo"
"http://www.gijon.es/directorios/show/9664-acuario-de-gijon","9664","es","fecha-actualizacion2014-04-22 15:06:50 +0200","Acuario de Gijón","43.542327 -5.675061","Zona Wifi, Boleras, Comunicaciones, Deporte"
"http://www.gijon.es/directorios/show/9662-puerto-de-vegarada","9662","es","fecha-actualizacion2014-03-11 14:41:54 +0100","Puerto de Vegarada","43.532372 -5.67903","Zona Wifi, Boleras, Escuelas Infantiles, Sindicatos, Estaciones de Servicio, Comunicaciones, Deporte, Educación, Otros, Movilidad"
"http://www.gijon.es/directorios/show/9661-ramon-areces","9661","es","fecha-actualizacion2014-03-11 14:44:00 +0100","Ramón Areces","43.522368 -5.676101","Zona Wifi, Boleras, Escuelas Infantiles, Sindicatos, Estaciones de Servicio, Comunicaciones, Deporte, Educación, Otros, Movilidad"
"http://www.gijon.es/directorios/show/9660-ramon-areces","9660","es","fecha-actualizacion2014-03-11 14:44:22 +0100","Ramón Areces","43.521419 -5.672582","Zona Wifi, Boleras, Escuelas Infantiles, Sindicatos, Comunicaciones, Deporte, Educación, Otros"
"http://www.gijon.es/directorios/show/9659-parque-de-las-palmeras","9659","es","fecha-actualizacion2014-01-22 12:06:30 +0100","Parque de Las Palmeras","43.521139 -5.667465","Zona Wifi, Boleras, Escuelas Infantiles, Sindicatos, Comunicaciones, Deporte, Educación, Otros"
"http://www.gijon.es/directorios/show/9658-piscina-del-llano","9658","es","fecha-actualizacion2014-01-22 12:06:29 +0100","Piscina del Llano","43.527891 -5.659032","Zona Wifi, Boleras, Escuelas Infantiles, Comunicaciones, Deporte, Educación"
"http://www.gijon.es/directorios/show/9657-institutos-perez-de-ayala","9657","es","fecha-actualizacion2014-01-22 12:06:29 +0100","Institutos Pérez de Ayala","43.533118 -5.668838","Zona Wifi, Boleras, Comunicaciones, Deporte"
"http://www.gijon.es/directorios/show/9655-parque-de-begona","9655","es","fecha-actualizacion2014-01-22 12:06:29 +0100","Parque de Begoña","43.53836 -5.660738","Zona Wifi, Boleras, Comunicaciones, Deporte"
"http://www.gijon.es/directorios/show/9653-aparcamiento-del-puerto-deportivo","9653","es","fecha-actualizacion2014-01-22 12:06:29 +0100","Aparcamiento del Puerto Deportivo","43.544007 -5.666993","Zona Wifi, Boleras, Comunicaciones, Deporte"
"http://www.gijon.es/directorios/show/9651-parque-de-la-fabrica-del-gas","9651","es","fecha-actualizacion2014-01-22 12:06:29 +0100","Parque de la Fábrica del Gas","43.539179 -5.650985","Zona Wifi, Boleras, Escuelas Infantiles, Comunicaciones, Deporte, Educación"
"http://www.gijon.es/directorios/show/9650-plaza-de-la-republica-en-el-coto","9650","es","fecha-actualizacion2014-01-22 12:06:29 +0100","Plaza de la República en El Coto","43.533846 -5.6487","Zona Wifi, Boleras, Comunicaciones, Deporte"
"http://www.gijon.es/directorios/show/9573-sala-de-musculacion-pabellon-de-deportes-la-tejerona","9573","es","fecha-actualizacion2014-01-22 12:06:27 +0100","Sala de Musculación | Pabellón de Deportes La Tejerona","985 185  115","m@gijon.es","http://deporte.gijon.es/page/11959-pabellon-de-deportes-la-tejerona","<a title="Ir a Página de inicio" href="http://deporte.gijon.es/page/95-pagina-de%3C/div%3E%0A%0A%0A%20%20%20%20%20%20%3C/div%3E%0A%20%20%20%20%20%20%3Cdiv%20class="></a><a title="Ir a Página de inicio" href="http://deporte.gijon.es/page/95-pagina-de%3C/div%3E%0A%0A%0A%20%20%20%20%20%20%3C/div%3E%0A%20%20%20%20%20%20%3Cdiv%20class="></a><a title="Ir a Horarios de apertura de las instalaciones deportivas" href="http://deporte.gijon.es/page/11880-horarios-de-apertura-de-las-instalaciones-deportivas" rel="external">Horarios generales de las IDM</a>","<ul><li>Sala de musculación de 196 metroscuadrados</li><li>Dotada de pesos libres, máquinas de musculación y zona de cardio. </li><li>Aforo máximo: 20 personas </li></ul><br/><span style="FONT-WEIGHT: bold">+ Info</span>:<br/><ul><li><a title="Ir a precios públicos del pdm" href="http://deporte.gijon.es/page/11897-precios-publicos-del-pdm">Precios públicos del PDM</a> </li><li><a title="Ir a normativa y aforos de las instalaciones deportivas municipales" href="http://deporte.gijon.es/page/11898-normativa-y-aforos-de-las-instalaciones-deportivas-municipales">Normativa aplicable y aforos</a></li></ul>","C/ Juan Botas S/n. <br/><span style="FONT-WEIGHT: bold">Coordenadas:</span> W 5º 39' 44'' - N 43º 31' 40''","43.527463 -5.652766","Otros Espacios Deportivos, Deporte"
"http://www.gijon.es/directorios/show/9570-sala-musculacion-pabellon-de-deportes-la-arena","9570","es","fecha-actualizacion2014-01-22 12:06:27 +0100","http://www.gijon.es/data/images/f0/f4/48892/653x279_v1_GimnasioLaArena653x279.jpg","Sala Musculación | Pabellón de Deportes La Arena","985 181 754","m@gijon.es","http://deporte.gijon.es/page/95-pagina-de-inicio","<a title="Ir a Horarios de apertura de las instalaciones deportivas" href="http://deporte.gijon.es/page/11880-horarios-de-apertura-de-las-instalaciones-deportivas" rel="external">Horarios generales de las IDM</a>","<ul><li>Sala de musculación de 15 X 13,20 metros</li><li>Dotada de pesos libres, máquinas de musculación y zona de cardio.</li><li>Aforo máximo: 26 personas </li></ul><br/><span style="FONT-WEIGHT: bold">+ Info</span>:<br/><ul><li><a title="Ir a precios públicos del pdm" href="http://deporte.gijon.es/page/11897-precios-publicos-del-pdm">Precios públicos del PDM</a> </li><li><a title="Ir a normativa y aforos de las instalaciones deportivas municipales" href="http://deporte.gijon.es/page/11898-normativa-y-aforos-de-las-instalaciones-deportivas-municipales">Normativa aplicable y aforos</a></li></ul>","C/ Emilio Tuya, 31. <span style="FONT-WEIGHT: bold"><br/>Coordenadas:</span> W 5º 38' 58'' - N 43º 32' 20''","43.539216 -5.649612","Otros Espacios Deportivos, Deporte"
"http://www.gijon.es/directorios/show/9569-pista-polideportivo-la-algodonera","9569","es","fecha-actualizacion2014-01-22 12:06:27 +0100","Pista polideportivo La Algodonera","<ul><li>Dimensiones: 40X 20 m</li><li>Pavimento: asfalto</li><li>Cubierta<br/></li><li>Gestionada por el Club Patín Gijón Solimar<br/></li></ul>","Avda. de Las Industrias, s/n 33212","Pistas Polideportivas, Gijón, Deporte, Deporte"
"http://www.gijon.es/directorios/show/9549-complejo-deportivo-de-moreda-natahoyo","9549","es","fecha-actualizacion2014-01-22 12:06:26 +0100","http://www.gijon.es/data/images/f0/f4/45640/556x417_v1_complejodeportivomoresa.jpg","Complejo Deportivo de Moreda - Natahoyo","985 181 418","m@gijon.es","http://deporte.gijon.es/page/95-pagina-de-inicio","<a title="Ir a Horarios de apertura de las instalaciones deportivas" href="http://deporte.gijon.es/page/11880-horarios-de-apertura-de-las-instalaciones-deportivas" rel="external">Horarios generales de IDM</a>","Complejo Deportivo insaugurado el 1/5/2002 que cuenta con un pabellón, un patinódromo, una piscina climatizada y sala de musculación.<br/><br/><p style="FONT-WEIGHT: bold">+ Info:</p><ul><li><a title="Ir a precios públicos del pdm" href="http://deporte.gijon.es/page/11897-precios-publicos-del-pdm">Precios públicos del PDM</a> </li><li><a title="Ir a normativa y aforos de las instalaciones deportivas municipales" href="http://deporte.gijon.es/page/11898-normativa-y-aforos-de-las-instalaciones-deportivas-municipales">Normativa aplicable y aforos</a></li></ul>","<p>Avda. Juan Carlos I s/n. <br/></p><p><strong>Coordenadas:</strong> W 5º 41' 09'' - N 43º 32' 11''</p>","Complejos Deportivos, Deporte, 2012, Gijón, Deporte"
"http://www.gijon.es/directorios/show/6867-piscina-c-d-moreda-natahoyo","6867","es","fecha-actualizacion2014-01-22 12:05:04 +0100","http://www.gijon.es/data/images/f6/6888/250x188_v1_Directorioinstalacionesdeportivaspiscina-moreda.jpg","Piscina | C.D. Moreda - Natahoyo","985 181 418","m@gijon.es","<a title="Ir a Horarios de apertura de las instalaciones deportivas" href="http://deporte.gijon.es/page/11880-horarios-de-apertura-de-las-instalaciones-deportivas" rel="external">Horarios generales de IDM</a>","Piscina climatizada dotada con:<br/><ul><li><span style="FONT-WEIGHT: bold">Vaso polivalente</span> <span style="FONT-WEIGHT: bold">de 6 calles:</span>  25 m de largo X 12,5 m de ancho. Profundidad:1,40 m/1,60 m/ 1,20 m </li><li><span style="FONT-WEIGHT: bold">Sala de ciclo indoor</span></li></ul><p>El sistema de desinfección del agua utilizado:  <span style="FONT-WEIGHT: bold">Rayos ultravioleta</span></p><p style="TEXT-ALIGN: center"><img class="nicedit_sin-alinear" alt="piscina moreda" src="/data/images/f0/f4/48416/658x145_v1_Piscinamoredaultima.jpg" width="658" height="145" width="658" height="145"/><br/></p><p style="FONT-WEIGHT: bold">+ Info:</p><ul><li><a title="Ir a práctica de la natación" href="http://deporte.gijon.es/page/6074-practica-de-la-natacion">Práctica de la natación (Espacio lúdico y horarios del nado con aletas)</a> </li><li><a title="Ir a actividades y cursos" href="http://deporte.gijon.es/page/3826-actividades-y-cursos">Oferta de cursos y actividades acuáticas</a><br/></li><li><a title="Ir a precios públicos del pdm" href="http://deporte.gijon.es/page/11897-precios-publicos-del-pdm">Precios públicos del PDM</a> </li><li><a title="Ir a normativa y aforos de las instalaciones deportivas municipales" href="http://deporte.gijon.es/page/11898-normativa-y-aforos-de-las-instalaciones-deportivas-municipales">Normativa aplicable y aforos</a></li><li><a title="Ir a complejo deportivo moreda - natahoyo" href="http://deporte.gijon.es/page/11261-complejo-deportivo-moreda-natahoyo">C. D. Moreda - Natahoyo</a><a title="Ir a página de inicio" href="http://deporte.gijon.es/page/95-pagina-de-inicio"><br/></a></li></ul><h4><b>Descuento del 40% con la tarjeta turística Gijón Card</b></h4>","Avda. Juan Carlos I s/n. <strong><br/>Coordenadas:</strong> W 5º 41' 09'' - N 43º 32' 11''","43.535938 -5.686039","Piscinas Municipales, 2012, Deporte, Gijón, Deporte, Gijón card. Tarjeta turística, Gijón Card"
"http://www.gijon.es/directorios/show/6866-piscina-c-d-la-calzada","6866","es","fecha-actualizacion2014-01-22 12:05:04 +0100","http://www.gijon.es/data/images/f0/f4/42737/439x329_v1_piscinalacalzada2.jpg","Piscina | C.D La Calzada","985 181 415","m@gijon.es","http://deporte.gijon.es/page/11046-complejo-deportivo-la-calzada","<a title="Ir a Horarios de apertura de las instalaciones deportivas" href="http://deporte.gijon.es/page/11880-horarios-de-apertura-de-las-instalaciones-deportivas" rel="external">Horarios generales de IDM</a>","<p>Piscina climatizada dotada con:</p><ul><li><span style="FONT-WEIGHT: bold">Un</span> <span style="FONT-WEIGHT: bold">vaso polivalente</span> <span style="FONT-WEIGHT: bold">de 6 calles:</span>  25 m  de largo x 12,50 m de ancho. Profundidad: 1,60 m/ 1,20 m/  1,80 m.<br/></li><li><span style="FONT-WEIGHT: bold">Un vaso de enseñanza de 3 calles</span>:  12,50 m de largo x 6 m de largo. Profundidad: 0,80 m/ 0,83 m/ 0,70 m.</li></ul><p style="TEXT-ALIGN: center; FONT-WEIGHT: bold"><img class="nicedit_sin-alinear" alt="interior" src="/data/images/f0/f4/42694/600x132_v1_Piscinalacalzadap600x132p2.jpg" width="600" height="132" width="600" height="132"/><br/></p><p style="FONT-WEIGHT: bold">+ Info:</p><ul><li><a title="Ir a práctica de la natación" href="http://deporte.gijon.es/page/6074-practica-de-la-natacion">Práctica de la natación (Espacio lúdico y horarios del nado con aletas)</a> </li><li><a title="Ir a actividades y cursos" href="http://deporte.gijon.es/page/3826-actividades-y-cursos">Oferta de cursos y actividades acuáticas</a><br/></li><li><a title="Ir a precios públicos del pdm" href="http://deporte.gijon.es/page/11897-precios-publicos-del-pdm">Precios públicos del PDM</a> </li><li><a title="Ir a normativa y aforos de las instalaciones deportivas municipales" href="http://deporte.gijon.es/page/11898-normativa-y-aforos-de-las-instalaciones-deportivas-municipales">Normativa aplicable y aforos</a></li></ul><h4><b>Descuento del 40% con la tarjeta turística Gijón Card</b></h4><div><br/></div>","C/ Simón Bolivar s/n. <strong><br/>Coordenadas:</strong> W 5º 41' 58'' - N 43º 32' 09''","43.535456 -5.69974","Piscinas Municipales, 2011, Deporte, Deporte, Gijón card. Tarjeta turística, Gijón Card"
"http://www.gijon.es/directorios/show/3443-centro-municipal-integrado-de-el-llano","3443","es","fecha-actualizacion2016-06-06 14:06:54 +0200","http://www.gijon.es/data/images/f0/f4/42473/1776x846_v1_ElLlanoPG.JPG","Centro Municipal Integrado de El Llano","985 185 240","985 185 244","cmillano@gijon.es","http://www.gijon.es","Lunes a sábado: de 08:00 a 22:00h. Domingos de 8:00 a 15.00 horas. Cajero: 24h","<p align="justify">Es el equipamiento más moderno de la red de centros integrados. Fue inaugurado en el año 2007 tras seguir, en su diseño, las pautas sobre equipamientos de proximidad publicadas en los estudios de la fundación Kaleidos.Red, de la que le ayuntamiento de Gijón fue patrono fundador. Se situa en una área de reciente crecimiento y reforma urbana y atiende a una extensa zona muy poblada con los recursos más modernos, por ejemplo una gran ludoteca. Aunque ofrece servicios deportivos en su gran sala polivalente, no tiene una zona deportiva propiamente dicha pues, al otro lado de la calle, comparte espacio con una de las zona mejor equipadas, en instalaciones deportivas, de Gijón.</p><p align="justify">Dispone de: oficina de atención a la ciudadanía, Servicios Sociales, concejalía de distrito, salón de actos, sala de exposiciones, ludoteca, sala polivalente, aulas, taller de cocina, sala de estudio (120 puestos), biblioteca, mediateca y cajero ciudadano.</p><p align="center"><img src="/data/images/f0/f4/42473/700x333_v1_ElLlanoPG.JPG" alt="Fachada centro de El Llano" class="nicedit_sin-alinear magnify" height="333" width="700" width="700" height="333"/><br/></p><p><br/></p><p style="font-weight: bold;"><a href="http://issuu.com/agendasdeloscentrosintegrados/docs/red_de_centros_municipales_integrad" title="Ir a http://issuu.com/agendasdeloscentrosintegrados/docs/red_de_centros_municipales_integrad" rel="external">Espacios en el centro municipal integrado de El Llano (ver espacios).</a><br/></p><p></p><table><thead><tr><th style="text-align: center;">Espacio<br/></th><th style="text-align: center;">Puestos y aforo<br/></th></tr></thead><tbody><tr><td>Salón de Actos<br/></td><td style="text-align: right;">156<br/></td></tr><tr><td>Aulas 1 y 2<br/></td><td style="text-align: right;">18<br/></td></tr><tr><td>Aulas 3 y 4<br/></td><td style="text-align: right;">36<br/></td></tr><tr><td>Aula de cocina<br/></td><td style="text-align: right;">16<br/></td></tr><tr><td>Sala Polivalente<br/></td><td style="text-align: right;">350 m2<br/></td></tr><tr><td>Sala de estudio<br/></td><td style="text-align: right;">120<br/></td></tr><tr><td>Biblioteca<br/></td><td style="text-align: right;">Adultos:43<br/>Infantil:12<br/>Lectura de prensa:24<br/></td></tr><tr><td>Mediateca<br/></td><td style="text-align: right;">16<br/></td></tr><tr><td>Sala de exposiciones <br/>(Los patios interiores están <br/>habilitados para exponer)<br/></td><td style="text-align: right;">26 metros lineales<br/></td></tr><tr><td>Sala de reuniones (1 y 2)<br/></td><td style="text-align: right;">10 y 14<br/></td></tr><tr><td style="vertical-align: top;">Ludoteca<br/></td><td style="vertical-align: top; text-align: right;">40<br/></td></tr></tbody></table>","Calle Río de Oro, 37","Servicio Atención a la Ciudadanía, Edificios Municipales, Cajeros Ciudadanos, Servicios Municipales, Servicios Sociales, Mediatecas, Zona Wifi, Ludotecas, Bibliotecas, Teatro, Sala de Exposiciones, Otros Espacios Deportivos, Pabellones, Piscinas Municipales, Pistas Polideportivas, Aparcamientos, Establecimientos de Recarga del Monedero Transporte, Lineas de autobuses urbanos, Museos y salas de exposiciones, Centros culturales, Teatros, Aseos públicos, Otras salas de congresos, Administración, Comunicaciones, Cultura y Ocio, Deporte, Movilidad, Turismo"
"http://www.gijon.es/directorios/show/2810-speedy-water","2810","es","fecha-actualizacion2014-01-22 12:03:12 +0100","http://www.gijon.es/data/images/f0/f3/36739/130x108_v1_c130x108_v1_speedy.png","Speedy Water","985 342 227","contacto@speedywater.com","http://www.speedywater.com/","<div style="text-align: justify;">En la tienda podrá en encontrar todo tipo de material especializado en buceo recreativo, una pequeña gama de pesca submarina y un apratado textil en el que cuentan con una de las más prestigiosas marcas californianas &quot;Hurley&quot;.<br/></div><br/><div style="text-align: justify;">Dentro de la tienda tambien podrán encontrar una gran aula, el punto neurálgico del centro de buceo, desde dónde se imparten y gestionan todas las actividades y cursos de buceo recreativo, titulaciones naúticas y demás actividades como paseos en barco o lancha rápida. En el aula también se realizan exposiciones fotográficas, talleres, audiovisuales y muchas otras catividades.<br/></div><br/>también realizamos bautismo de <strong>Buceo</strong> (mar/piscina), cursos PADI, salidas todo el año y alquiler de material.<br/><br/><span style="font-weight: bold;">Descansa</span><br/>Domingos","C/ Artillería, 2 – Bajo 33201-Gijón - Calle Artillería, 2 – Bajo 33201-Gijón","43.546896 -5.664957","Turismo de Experiencias, 2011, Otros Espacios Deportivos, Comercios, Deporte, Turismo"
"http://www.gijon.es/directorios/show/2444-piscina-la-camocha","2444","es","fecha-actualizacion2014-01-22 12:03:11 +0100","http://www.gijon.es/data/images/f0/f4/48346/682x192_v1_Piscinalacamocha.jpg","Piscina  La Camocha","985 181 016","m@gijon.es","http://deporte.gijon.es/page/95-pagina-de-inicio","<a title="Ir a Horarios de apertura de las instalaciones deportivas" href="http://deporte.gijon.es/page/11880-horarios-de-apertura-de-las-instalaciones-deportivas" rel="external">Horarios generales de IDM</a>","Piscina climatizada inaugurada el 02/07/2012 dotada con:<br/><ul><li><span style="FONT-WEIGHT: bold">Un vaso polivalente</span>  de forma irregular que cuenta con dos zonas claramente diferenciadas:</li></ul><ol><li><span style="FONT-WEIGHT: bold">Zona de nado de 4 calles:</span> de 20 m de largo X 8 metros de ancho. Profundidad: 1,25 m/1,60 m/1,10 m.</li><li><span style="FONT-WEIGHT: bold">Zona de Wellness</span> con zona de chorros, banco de burbujas y bañera de hidromasaje. Profundidad:0,80 m/ 1,10 m</li></ol><ul style="FONT-WEIGHT: bold"><li>Una sala polivalente</li></ul><p>El sistema de desinfección del agua utilizado: <span style="FONT-WEIGHT: bold">Rayos ultravioleta</span></p><p style="TEXT-ALIGN: center"><img class="nicedit_sin-alinear magnify" alt="Piscina La Camocha" src="/data/images/f0/f4/48414/658x145_v1_PiscinaLaCamocha3.jpg" width="658" height="145"/><br/></p><span style="FONT-WEIGHT: bold">+ Info:</span><ul><li><a title="Ir a práctica de la natación" href="http://deporte.gijon.es/page/6074-practica-de-la-natacion">Práctica de la natación (Espacio lúdico y horarios del nado con aletas)</a></li><li><a title="Ir a actividades y cursos" href="http://deporte.gijon.es/page/3826-actividades-y-cursos">Oferta de cursos y actividades acuáticas</a><br/></li><li><a title="Ir a precios públicos del pdm" href="http://deporte.gijon.es/page/11897-precios-publicos-del-pdm">Precios públicos del PDM</a></li><li><a title="Ir a normativa y aforos de las instalaciones deportivas municipales" href="http://deporte.gijon.es/page/11898-normativa-y-aforos-de-las-instalaciones-deportivas-municipales">Normativa aplicable y aforos</a></li></ul><div style="TEXT-ALIGN: center"><p><br/></p></div>","Avd. La Camocha s/n. <br/><span style="FONT-WEIGHT: bold">Coordenadas:</span> W 5º 39' 43''- N 43º 32' 01''","43.48779 -5.648767","Deporte, Gijón, Piscinas Municipales, Deporte"
"http://www.gijon.es/directorios/show/1965-pistas-de-squash-c-d-gijon-sur","1965","es","fecha-actualizacion2014-01-22 12:03:11 +0100","http://www.gijon.es/data/images/f0/f4/48687/599x257_v1_pistadesquash.jpg","Pistas de squash | C. D. Gijón Sur","985 181 654","o@gijon.es","http://deporte.gijon.es/page/11501-complejo-deportivo-pumarin-gijon-sur","<a title="Ir a Horarios de apertura de las instalaciones deportivas" href="http://deporte.gijon.es/page/11880-horarios-de-apertura-de-las-instalaciones-deportivas" rel="external">Horarios generales de las IDM<br/></a>","El C. D. de Pumarín &quot;Gijón Sur&quot; cuenta con dos pistas de squash de 9,75 X6,40 m.<br/><br/><div style="TEXT-ALIGN: center"><img class="nicedit_sin-alinear" alt="pistas de squash" src="/data/images/f0/f4/48687/599x257_v1_pistadesquash.jpg" width="599" height="257"/><br/></div><br/><span style="FONT-WEIGHT: bold">+ Info:</span><br/><ul><li><a title="Ir a precios públicos del pdm" href="http://deporte.gijon.es/page/11897-precios-publicos-del-pdm">Precios públicos del PDM</a></li><li><a title="Ir a normativa y aforos de las instalaciones deportivas municipales" href="http://deporte.gijon.es/page/11898-normativa-y-aforos-de-las-instalaciones-deportivas-municipales">Normativa aplicable y aforos</a></li><li><a title="Ir a Squash" href="http://deporte.gijon.es/page/6100-squash" rel="external">Oferta de cursos de squash</a></li><li><a title="Ir a complejo deportivo pumarín " href="http://deporte.gijon.es/page/11501-complejo-deportivo-pumarin-gijon-sur">C. D. Pumarín &quot;Gijón Sur&quot;</a></li></ul>","<p>C/Ramón Areces, 7. </p><p><strong>Coordenadas:</strong> W 5º 40' 41'' - N 43º 31' 29''</p>","43.524842 -5.677979","Deporte, Otros Espacios Deportivos, Deporte"
"http://www.gijon.es/directorios/show/1958-pista-de-atletismo-c-d-las-mestas","1958","es","fecha-actualizacion2014-01-22 12:03:11 +0100","http://www.gijon.es/data/images/f0/f4/47133/391x261_v1_mestaspista.jpg","Pista de Atletismo | C.D. Las Mestas","985 181 758","m@gijon.es","http://deporte.gijon.es/page/11726-complejo-deportivo-las-mestas","<A title="Ir a Página de inicio" href="http://deporte.gijon.es/page/95-pagina-de-inicio" rel="externa            <div><a title="Ir a Horarios de apertura de las instalaciones deportivas" href="http://deporte.gijon.es/page/11880-horarios-de-apertura-de-las-instalaciones-deportivas" rel="external">Horarios generales de las IDM</a></div>","Pista de atletismo homologada según la normativa de la Real Federación Española de Atletismo que forma parte del Estadio Jose Luis Rubio (Zona Sur C. D. Las Mestas).<br/><ul><li>400 m de cuerda con 8 calles de pavimento sintético.</li><li>Foso de saltos</li><li>Zona de lanzamientos</li></ul><p><span style="FONT-WEIGHT: bold">+ Info:</span><br/></p><ul><li><a title="Ir a precios públicos del pdm" href="http://deporte.gijon.es/page/11897-precios-publicos-del-pdm">Precios públicos del PDM</a></li><li><a title="Ir a normativa y aforos de las instalaciones deportivas municipales" href="http://deporte.gijon.es/page/11898-normativa-y-aforos-de-las-instalaciones-deportivas-municipales">Normativa aplicable y aforos</a></li><li><a title="Ir a Complejo Deportivo Las Mestas" href="http://deporte.gijon.es/page/11726-complejo-deportivo-las-mestas" rel="external">C.D. Las Mestas</a><br/></li></ul><p style="TEXT-ALIGN: center"><br/></p><p style="TEXT-ALIGN: center"><img class="nicedit_sin-alinear" alt="Pista atletismo" src="/data/images/f0/f4/48214/650x270_v1_sillaruedas.jpg" width="650" height="270"/><br/></p><p style="TEXT-ALIGN: center"><img class="nicedit_sin-alinear" alt="Pista de atletismo" src="/data/images/f0/f4/48213/650x275_v1_pistadeatletismo.jpg" width="650" height="275"/><br/></p>","Complejo deportivo Las Mestas - Avda. Jesús Revuelta s/n.<span style="FONT-WEIGHT: bold"><br/>Coordenadas:</span> W 5º 38' 09''- N 43º 31' 57''.","43.529385 -5.63736","Deporte, Otros Espacios Deportivos, Gijón, Deporte"
"http://www.gijon.es/directorios/show/1956-padel-c-d-contrueces","1956","es","fecha-actualizacion2014-01-22 12:03:11 +0100","http://www.gijon.es/data/images/f0/f4/48707/599x417_v1_Pistasdepadel.jpg","Padel | C.D  Contrueces","985 181 611","m@gijon.es","http://deporte.gijon.es/page/11908-complejo-deportivo-el-llano-contrueces","<a title="Ir a Horarios de apertura de las instalaciones deportivas" href="http://deporte.gijon.es/page/11880-horarios-de-apertura-de-las-instalaciones-deportivas" rel="external">Horarios generales de las IDM</a>","El C.D. El Llano Contrueces está dotado con dos pistas de pádel descubiertas.<br/><br/><span style="FONT-WEIGHT: bold">+ Info:</span><br/><ul><li><a title="Ir a precios públicos del pdm" href="http://deporte.gijon.es/page/11897-precios-publicos-del-pdm">Precios públicos del PDM</a></li><li><a title="Ir a normativa y aforos de las instalaciones deportivas municipales" href="http://deporte.gijon.es/page/11898-normativa-y-aforos-de-las-instalaciones-deportivas-municipales">Normativa aplicable y aforos</a></li><li><a title="Ir a Pádel" href="http://deporte.gijon.es/page/6094-padel" rel="external">Oferta de cursos de pádel</a><br/></li></ul>","Complejo Deportivo El Llano Contrueces - Avda. de El Llano, 71 - Avd. del Llano, 71<br/><span style="FONT-WEIGHT: bold">Coordenadas:</span>W 5º 39' 44'' - N 43º 31' 34'","43.525977 -5.662272","Deporte, Otros Espacios Deportivos, Gijón, Deporte"
"http://www.gijon.es/directorios/show/1953-campos-de-beisbol-c-d-universidad-laboral","1953","es","fecha-actualizacion2014-01-22 12:03:11 +0100","http://www.gijon.es/data/images/f0/f4/45803/515x209_v1_campodebeisbol.jpg","Campos de Béisbol | C.D. Universidad Laboral","985 181 728","m@gijon.es","http://deporte.gijon.es/page/11509-complejo-deportivo-universidad-laboral      > <span class=","<A title="Ir a Págin            <div class=" href="><a title="Ir a Horarios de apertura de las instalaciones deportivas" href="http://deporte.gijon.es/page/11880-horarios-de-apertura-de-las-instalaciones-deportivas" rel="external">Horarios generales de las IDM</a></div>","Dos campos de beísbol: uno de entrenamiento y otro de juego.<br/><div style="TEXT-ALIGN: center"><img class="nicedit_sin-alinear" alt="Campo de besibol" src="/data/images/f0/f4/45802/650x143_v1_universidacampobeisbol.jpg" width="650" height="143"/><br/></div><div style="TEXT-ALIGN: center"><br/><p style="TEXT-ALIGN: left"><span style="FONT-WEIGHT: bold">+ Info:</span><br/></p><ul style="TEXT-ALIGN: left"><li><a title="Ir a precios públicos del pdm" href="http://deporte.gijon.es/page/11897-precios-publicos-del-pdm">Precios públicos del PDM</a></li><li><a title="Ir a normativa y aforos de las instalaciones deportivas municipales" href="http://deporte.gijon.es/page/11898-normativa-y-aforos-de-las-instalaciones-deportivas-municipales">Normativa aplicable y aforos</a></li><li><a title="Ir a complejo deportivo universidad laboral" href="http://deporte.gijon.es/page/11509-complejo-deportivo-universidad-laboral">C. D. Universidad Labora</a><a title="Ir a página de inicio" href="http://deporte.gijon.es/page/95-pagina-de-inicio">l</a></li></ul><br/></div>","Complejo deportivo Universidad Laboral - C/ Jose Luis Älvarez Margaride, s/n 1459<span style="FONT-WEIGHT: bold">. <br/>Coordenadas:</span> W 5º 37' 15''-  N 43º 31' 30''","43.526055 -5.619636","Deporte, Otros Espacios Deportivos, Gijón, Deporte"
"http://www.gijon.es/directorios/show/1951-campo-de-rugby-de-futbol-americano-o-pista-de-saltos-hipicos-c-d-las-mestas","1951","es","fecha-actualizacion2014-01-22 12:03:11 +0100","http://www.gijon.es/data/images/f0/f4/48220/586x416_v1_1.jpg","Campo de Rugby, de Fútbol Americano o Pista de Saltos Hípicos  | C.D. Las Mestas","9851 817 58","m@gijon.es","http://deporte.gijon.es/page/11726-complejo-deportivo-las-mestas","<a title="Ir a Horarios de apertura de las instalaciones deportivas" href="http://deporte.gijon.es/page/11880-horarios-de-apertura-de-las-instalaciones-deportivas" rel="external">Horarios generales de IDM</a>","Campo de hierba natural que se utiliza como campo de rugby y de fútbol americano que se conviete en la pista de saltos del <a title="Ir a http://hipico.gijon.es/private/80-prsuarez" href="http://hipico.gijon.es/private/80-prsuarez" rel="external"><span style="FONT-WEIGHT: bold">tradicional Concurso Hípico de Gijón</span></a> que se celebra en verano.<br/><br/><ul><li>Dimensiones: 130 m X 73 m <br/></li></ul><p style="TEXT-ALIGN: center"><img class="nicedit_sin-alinear" alt="pista  de saltos" src="/data/images/f0/f4/48221/668x155_v1_explanadas.jpg" width="668" height="155"/><br/></p><div style="TEXT-ALIGN: center"><img class="nicedit_sin-alinear magnify" alt="campo de rugby" src="/data/images/f0/f4/48222/659x216_v1_campoderugby.jpg" width="659" height="216"/><br/></div><span style="FONT-WEIGHT: bold">+ Info:</span><br/><ul><li><a title="Ir a precios públicos del pdm" href="http://deporte.gijon.es/page/11897-precios-publicos-del-pdm">Precios públicos del PDM</a></li><li><a title="Ir a normativa y aforos de las instalaciones deportivas municipales" href="http://deporte.gijon.es/page/11898-normativa-y-aforos-de-las-instalaciones-deportivas-municipales">Normativa aplicable y aforos</a></li><li><a title="Ir a complejo deportivo las mestas" href="http://deporte.gijon.es/page/11726-complejo-deportivo-las-mestas">C. D. Las Mestas</a></li><li><a title="Ir a hipico.gijon.es" href="http://hipico.gijon.es">hipico.gijon.es</a></li></ul><br/> ","Avda. Jesús Revuelta s/n.<br/><span style="FONT-WEIGHT: bold">Coordenadas:</span> W 5º 38' 09''- N 43º 31' 57''.","43.531718 -5.635772","Deporte, Otros Espacios Deportivos, Gijón, Hípico, Deporte"
"http://www.gijon.es/directorios/show/1907-pistas-de-padel-c-d-la-calzada","1907","es","fecha-actualizacion2014-01-22 12:03:10 +0100","http://www.gijon.es/data/images/f0/f4/42735/500x253_v1_padelcalzadaweb.jpg","Pistas de Padel | C.D. La Calzada","985 181 415","m@gijon.es","http://deporte.gijon.es/page/11046-complejo-deportivo-la-calzada","<a title="Ir a Complejo Deportivo La Calzada" href="http://deporte.gijon.es/page/11046-complejo-deportivo-la-calzada" rel="external"></a><a title="Ir a Complejo Deportivo La Calzada" href="http://deporte.gijon.es/page/11046-complejo-deportivo-la-calzada" rel="external"></a><a title="Ir a Complejo Deportivo La Calzada" href="http://deporte.gijon.es/page/11046-complejo-deportivo-la-calzada" rel="external"></a><a title="Ir a Horarios de apertura de las instalaciones deportivas" href="http://deporte.gijon.es/page/11880-horarios-de-apertura-de-las-instalaciones-deportivas" rel="external">Horarios generales de IDM</a>","El Complejo Deportivo de La Calzada está dotado de <span style="FONT-WEIGHT: bold">tres pistas de pádel cubiertas.<br/><br/>+ Info:</span><br/><ul><li><a title="Ir a precios públicos del pdm" href="http://deporte.gijon.es/page/11897-precios-publicos-del-pdm">Precios públicos del PDM</a> </li><li><a title="Ir a normativa y aforos de las instalaciones deportivas municipales" href="http://deporte.gijon.es/page/11898-normativa-y-aforos-de-las-instalaciones-deportivas-municipales">Normativa aplicable y aforos</a> </li><li><a title="Ir a Pádel" href="http://deporte.gijon.es/page/6094-padel" rel="external">Oferta de cursos de pádel</a> </li><li><a title="Ir a complejo deportivo la calzada" href="http://deporte.gijon.es/page/11046-complejo-deportivo-la-calzada">C. D. La Calzada</a><a title="Ir a página de inicio" href="http://deporte.gijon.es/page/95-pagina-de-inicio"><br/></a></li></ul>","<p>C/Simón Bolivar s/n. </p><p><strong>Coordenas:</strong> W 5º 41' 09''- N 43º 32' 09''</p>","43.535825 -5.699501","Otros Espacios Deportivos, Deporte, Gijón, 2012, Deporte"
"http://www.gijon.es/directorios/show/1906-pistas-de-tenis-c-d-la-calzada","1906","es","fecha-actualizacion2014-01-22 12:03:10 +0100","http://www.gijon.es/data/images/f0/f4/42502/500x244_v1_tenis.jpg","Pistas de tenis | C.D. La Calzada","985 18 14 15","http://deporte.gijon.es/page/95-pagina-de-inicio","<a title="Ir a Horarios de apertura de las instalaciones deportivas" href="http://deporte.gijon.es/page/11880-horarios-de-apertura-de-las-instalaciones-deportivas" rel="external">Horarios generales de las IDM</a>","El Complejo Deportivo de La Calzada cuenta <span style="FONT-WEIGHT: bold">con 4 pistas</span>:<br/><ul><li>2 pistas de cubiertas de suelo sintético </li><li>2 pistas descubiertas de suelo asfáltico</li></ul><p style="TEXT-ALIGN: center"><img class="nicedit_sin-alinear" alt="pistas de tenis desc" src="/data/images/f0/f4/48708/700x154_v1_CALTenisDescub700x154.jpg" width="700" height="154"/><br/></p><div style="TEXT-ALIGN: center"><span style="FONT-WEIGHT: bold"><img class="nicedit_sin-alinear" alt="Tenis cub" src="/data/images/f0/f4/48709/700x154_v1_CALTeniscubierto700x154.jpg" width="700" height="154"/></span><br/><span style="FONT-WEIGHT: bold"></span></div><span style="FONT-WEIGHT: bold">+ Info:</span><br/><ul><li><a title="Ir a precios públicos del pdm" href="http://deporte.gijon.es/page/11897-precios-publicos-del-pdm">Precios públicos del PDM</a> </li><li><a title="Ir a normativa y aforos de las instalaciones deportivas municipales" href="http://deporte.gijon.es/page/11898-normativa-y-aforos-de-las-instalaciones-deportivas-municipales">Normativa aplicable y aforos</a> </li><li><a title="Ir a Tenis" href="http://deporte.gijon.es/page/6101-tenis" rel="external">Oferta de cursos de tenis</a> </li><li><a title="Ir a complejo deportivo la calzada" href="http://deporte.gijon.es/page/11046-complejo-deportivo-la-calzada">C.D. La Calzada</a><a title="Ir a Página de inicio" href="http://deporte.gijon.es/page/95-pagina-de-inicio"><br/></a></li></ul>","C/Simon Bolivar s/n. <span style="FONT-WEIGHT: bold"><br/>Coordenas: </span>W 5ª 41' 58''-N 43º 32' 09''","Otros Espacios Deportivos, Deporte, 2012, Gijón, Deporte"
"http://www.gijon.es/directorios/show/1900-sala-de-musculacion-piscina-el-llano","1900","es","fecha-actualizacion2014-01-22 12:03:10 +0100","http://www.gijon.es/data/images/f0/f4/48621/386x289_v1_salamuscullano.jpg","Sala de Musculación | Piscina El Llano","985 181 611","m@gijon.es","http://deporte.gijon.es/page/95-pagina-de-inicio","<a title="Ir a Horarios de apertura de las instalaciones deportivas" href="http://deporte.gijon.es/page/11880-horarios-de-apertura-de-las-instalaciones-deportivas" rel="external">Horarios generales de IDM</a>","<ul><li>Sala de musculación de 32 X 6 metros</li><li>Dotada de pesos libres y máquinas de musculación<br/></li><li>Aforo máximo: 25 personas<br/></li></ul><span style="FONT-WEIGHT: bold">+ Info:</span><br/><ul><li><a title="Ir a precios públicos del pdm" href="http://deporte.gijon.es/page/11897-precios-publicos-del-pdm">Precios públicos del PDM</a> </li><li><a title="Ir a normativa y aforos de las instalaciones deportivas municipales" href="http://deporte.gijon.es/page/11898-normativa-y-aforos-de-las-instalaciones-deportivas-municipales">Normativa aplicable y aforos</a></li></ul>","Avd. Llano 69. <span style="FONT-WEIGHT: bold"><br/>Coordenadas:</span> W 5º 38' 58''- Latitud: 43º 32'' 01''","Otros Espacios Deportivos, 2010, Gijón, Salas de musculación, Deporte"
"http://www.gijon.es/directorios/show/1899-sala-de-musculacion-c-d-la-calzada","1899","es","fecha-actualizacion2014-01-22 12:03:10 +0100","http://www.gijon.es/data/images/f0/f4/42511/375x238_v1_gimnasiodelacalzada.jpg","Sala de Musculación | C.D. La Calzada","985 181 415","m@gijon.es","http://deporte.gijon.es/page/11046-complejo-deportivo-la-calzada","<a title="Ir a Página de inicio" href="http://deporte.gijon.es/page/95-pagina-de-inicio" rel="external"></a><a title="Ir a Horarios de apertura de las instalaciones deportivas" href="http://deporte.gijon.es/page/11880-horarios-de-apertura-de-las-instalaciones-deportivas" rel="external">Horarios generales de IDM</a>","<ul><li>Sala de musculación de 21,70 X 9,70 metros </li><li>Dotada de pesos libres, máquinas de musculación y zona de cardio. </li><li>Aforo máximo: 15 personas  </li></ul><br/><span style="FONT-WEIGHT: bold">+ Info:</span><br/><ul><li><a title="Ir a precios públicos del pdm" href="http://deporte.gijon.es/page/11897-precios-publicos-del-pdm">Precios públicos del PDM</a> </li><li><a title="Ir a normativa y aforos de las instalaciones deportivas municipales" href="http://deporte.gijon.es/page/11898-normativa-y-aforos-de-las-instalaciones-deportivas-municipales">Normativa aplicable y aforos</a></li></ul><br/><br/><br/><br/><div style="TEXT-ALIGN: right"><img class="nicedit_sin-alinear" alt="gimnasio" src="/data/images/f0/f4/42738/334x233_v1_gimnasiolacalzada2.jpg" width="334" height="233"/><img class="nicedit_sin-alinear" alt="gimnasio" src="/data/images/f0/f4/42739/379x243_v1_gimnasiolacalzada.jpg" width="379" height="243"/><br/></div>","Complejo deportivo La Calzada - <p>C/ Simón Bolivar, s/n.</p><p><strong>Coordenadas:</strong> W 5º 41' 58'' - N 43º 32' 09''</p>","43.535856 -5.69963","Otros Espacios Deportivos, Gijón, Salas de musculación, 2012, Deporte"
"http://www.gijon.es/directorios/show/1897-sala-musculacion-c-d-moreda-natahoyo","1897","es","fecha-actualizacion2014-01-22 12:03:10 +0100","http://www.gijon.es/data/images/f0/f4/45641/360x250_v1_Salademusculacionmoreda.jpg","Sala Musculación | C.D. Moreda-Natahoyo","985 181 418","m@gijon.es","http://deporte.gijon.es/page/11261-complejo-deportivo-moreda-natahoyo","<a title="Ir a Página de inicio" href="http://deporte.gijon.es/page/95-pagina-de-inic            <div class=" horario"><a title="Ir a Página de inicio" href="http://deporte.gijon.es/page/95-pagina-de-inic%3C/div%3E%0A%0A%0A%20%20%20%20%20%20%3C/div%3E%0A%20%20%20%20%20%20%3Cdiv%20class="></a><a title="Ir a Horarios de apertura de las instalaciones deportivas" href="http://deporte.gijon.es/page/11880-horarios-de-apertura-de-las-instalaciones-deportivas" rel="external">Horarios generales del PDM</a></div>","<ul><li>78 metros cuadrados. </li><li>Aforo máximo 12 personas </li><li>Dotado de con máquinas de musculación y pesos libres.</li></ul><span style="FONT-WEIGHT: bold">+ Info:</span> <p></p><ul><li><a title="Ir a precios públicos del pdm" href="http://deporte.gijon.es/page/11897-precios-publicos-del-pdm">Precios públicos del PDM</a> </li><li><a title="Ir a normativa y aforos de las instalaciones deportivas municipales" href="http://deporte.gijon.es/page/11898-normativa-y-aforos-de-las-instalaciones-deportivas-municipales">Normativa aplicable y aforos</a></li><li><a title="Ir a Complejo Deportivo Moreda - Natahoyo" href="http://deporte.gijon.es/page/11261-complejo-deportivo-moreda-natahoyo" rel="external">C. D. Moreda-Natahoyo</a><br/></li></ul><p><br/></p>","Avda. Juan Carlos I s/n. <strong><br/>Coordenadas:</strong> N 5º 41' 09'' - W 43º 32' 11''","43.536292 -5.686154","Otros Espacios Deportivos, 2010, Gijón, Salas de musculación, Deporte"
"http://www.gijon.es/directorios/show/1896-sala-musculacion-pabellon-de-perchera-la-brana","1896","es","fecha-actualizacion2014-01-22 12:03:10 +0100","http://www.gijon.es/data/images/f0/f4/48627/554x378_v1_salaperche.jpg","Sala Musculación | Pabellón de  Perchera-  La Braña","985 181 757","m@gijon.es","http://deporte.gijon.es/page/95-pagina-de-inicio","<a title="Ir a Horarios de apertura de las instalaciones deportivas" href="http://deporte.gijon.es/page/11880-horarios-de-apertura-de-las-instalaciones-deportivas" rel="external">Horarios generales de las IDM</a>","<ul><li>Sala de musculación de 10,12 X 5,97 metros</li><li>Dotada de pesos libres y máquinas de musculación<br/></li><li>Aforo máximo: 10 personas </li></ul><br/><span style="FONT-WEIGHT: bold">+ Info:</span><br/><ul><li><a title="Ir a precios públicos del pdm" href="http://deporte.gijon.es/page/11897-precios-publicos-del-pdm">Precios públicos del PDM</a> </li><li><a title="Ir a normativa y aforos de las instalaciones deportivas municipales" href="http://deporte.gijon.es/page/11898-normativa-y-aforos-de-las-instalaciones-deportivas-municipales">Normativa aplicable y aforos</a></li></ul>.","Pabellón de Deportes Perchera- La Braña - C/ Orán s/n. <span style="FONT-WEIGHT: bold"><br/>Coordenadas:</span> W 5º 40' 51''- N 43º 32' 13''","43.530847 -5.680532","Otros Espacios Deportivos, Gijón, Salas de musculación, Deporte, Deporte"
"http://www.gijon.es/directorios/show/1895-sala-musculacion-c-d-pumarin-gijon-sur","1895","es","fecha-actualizacion2014-01-22 12:03:10 +0100","http://www.gijon.es/data/images/f0/f4/45771/467x351_v1_CDGijonSursalamusculacion03467x351.jpg","Sala Musculación | C.D. Pumarín " Gijón sur"","985 181 654","m@gijon.es","http://deporte.gijon.es/page/11501-complejo-deportivo-pumarin-gijon-sur","<a title="Ir a Horarios de apertura de las instalaciones deportivas" href="http://deporte.gijon.es/page/11880-horarios-de-apertura-de-las-instalaciones-deportivas" rel="external">Horarios generales de IDM</a>","<ul><li>Sala de musculación de 13 X 7,35 metros dotada de pesos libres, máquinas de musculación y zona de cardio aislada que cuenta con elípticas, remos y steps.<br/></li><li>Aforo máximo 26 personas</li></ul><p><span style="FONT-WEIGHT: bold">+ Info:</span><br/></p><ul><li><a title="Ir a precios públicos del pdm" href="http://deporte.gijon.es/page/11897-precios-publicos-del-pdm">Precios públicos del PDM</a> </li><li><a title="Ir a normativa y aforos de las instalaciones deportivas municipales" href="http://deporte.gijon.es/page/11898-normativa-y-aforos-de-las-instalaciones-deportivas-municipales">Normativa aplicable y aforos</a></li><li><a title="Ir a complejo deportivo pumarín " href="http://deporte.gijon.es/page/11501-complejo-deportivo-pumarin-gijon-sur">C.D. pumarín &quot;Gijón Sur&quot;</a></li></ul><p style="TEXT-ALIGN: center"><img class="nicedit_sin-alinear" alt="sala musculacion" src="/data/images/f0/f4/45771/340x256_v1_CDGijonSursalamusculacion03467x351.jpg" width="340" height="256"/><br/></p>","Complejo Deportivo Gijón Sur - <p>C/Ramón Areces, 7. </p><p><strong>Coordenadas:</strong> W 5º 40' 41'' - N 43º 31' 29''</p>","43.524803 -5.678086","Otros Espacios Deportivos, 2010, Gijón, Salas de musculación, Deporte"
"http://www.gijon.es/directorios/show/1893-sala-musculacion-piscina-el-coto","1893","es","fecha-actualizacion2014-01-22 12:03:10 +0100","http://www.gijon.es/data/images/f0/f4/48626/650x220_v1_salacoto.jpg","Sala Musculación | Piscina El Coto","985 181 742","m@gijon.es","http://deporte.gijon.es/page/95-pagina-de-inicio","<a title="Ir a Horarios de apertura de las instalaciones deportivas" href="http://deporte.gijon.es/page/11880-horarios-de-apertura-de-las-instalaciones-deportivas" rel="external">Horarios Generales de IDM</a>","<ul><li>Sala de musculación de 15 X 7 metros </li><li>Dotada de pesos libres, máquinas de musculación y zona de cardio </li><li>Aforo máximo: 16 personas</li></ul><p style="TEXT-ALIGN: center"><img class="nicedit_sin-alinear" alt="sala coto" src="/data/images/f0/f4/48626/650x220_v1_salacoto.jpg" width="650" height="220"/><br/></p><br/><span style="FONT-WEIGHT: bold">+ Info:</span><br/><ul><li><a title="Ir a precios públicos del pdm" href="http://deporte.gijon.es/page/11897-precios-publicos-del-pdm">Precios públicos del PDM</a> </li><li><a title="Ir a normativa y aforos de las instalaciones deportivas municipales" href="http://deporte.gijon.es/page/11898-normativa-y-aforos-de-las-instalaciones-deportivas-municipales">Normativa aplicable y aforos</a></li></ul><br/><br/><div style="TEXT-ALIGN: center"><br/></div>","Piscina El  Coto - Plaza de la República, s/n. - Plaza la República s/n. <span style="FONT-WEIGHT: bold"><br/>Coordenadas: </span>W 5º 38' 58''- N 43º 32' 01''","Otros Espacios Deportivos, 2010, Gijón, Salas de musculación, Deporte"
"http://www.gijon.es/directorios/show/1892-sala-musculacion-c-d-las-mestas","1892","es","fecha-actualizacion2014-01-22 12:03:10 +0100","http://www.gijon.es/data/images/f0/f4/48229/440x330_v1_salademusculacionmestas.jpg","Sala Musculación | C.D. Las Mestas","985 181 758","m@gijon.es","http://deporte.gijon.es/page/95-pagina-de-inicio","<a title="Ir a Horarios de apertura de las instalaciones deportivas" href="http://deporte.gijon.es/page/11880-horarios-de-apertura-de-las-instalaciones-deportivas" rel="external">Horarios generales de las IDM</a>","<ul><li>Sala de musculación ubicada debajo de la grada nueva del recinto de la Zona Norte del C. D. Las Mestas.</li><li>Dotada con salas de musculación y pesos libres.</li><li>Suelo de hormigón pulido</li></ul><p style="TEXT-ALIGN: center"><img class="nicedit_sin-alinear magnify" alt="sala musculación" src="/data/images/f0/f4/48230/440x330_v1_salamusculacion2.jpg" width="440" height="330"/><br/></p><p><span style="FONT-WEIGHT: bold">+ Info</span>:<br/></p><ul><li><a title="Ir a precios públicos del pdm" href="http://deporte.gijon.es/page/11897-precios-publicos-del-pdm">Precios públicos del PDM</a></li><li><a title="Ir a normativa y aforos de las instalaciones deportivas municipales" href="http://deporte.gijon.es/page/11898-normativa-y-aforos-de-las-instalaciones-deportivas-municipales">Normativa aplicable y aforos</a></li><li><a title="Ir a Complejo Deportivo Las Mestas" href="http://deporte.gijon.es/page/11726-complejo-deportivo-las-mestas" rel="external">C.D. Las Mestas</a><br/></li></ul>","Complejo deportivo Las Mestas - Avda. Jesús Revuelta s/n.<br/><span style="FONT-WEIGHT: bold">Coordenas:</span> W 5º 38' 09''-N 43º 31' 57''.","43.53038 -5.639591","Otros Espacios Deportivos, Gijón, Salas de musculación, Deporte, Deporte"
"http://www.gijon.es/directorios/show/1891-salas-de-musculacion-palacio-de-deportes","1891","es","fecha-actualizacion2014-01-22 12:03:10 +0100","http://www.gijon.es/data/images/f0/f4/48619/401x289_v1_gimnaisopalacio.jpg","Salas de Musculación | Palacio de Deportes","985 181 751","m@gijon.es","http://deporte.gijon.es/page/95-pagina-de-inicio","<a title="Ir a Horarios de apertura de las instalaciones deportivas" href="http://deporte.gijon.es/page/11880-horarios-de-apertura-de-las-instalaciones-deportivas" rel="external">Horarios generales de las IDM</a>","<ul><li>Sala de musculación de 14,65 X 6,25 metros </li><li>Dotada de pesos libres y máquinas de musculación.</li><li>Aforo máximo: 15 personas<br/></li></ul><span style="FONT-WEIGHT: bold">+ Info:</span><br/><ul><li><a title="Ir a precios públicos del pdm" href="http://deporte.gijon.es/page/11897-precios-publicos-del-pdm">Precios públicos del PDM</a> </li><li><a title="Ir a normativa y aforos de las instalaciones deportivas municipales" href="http://deporte.gijon.es/page/11898-normativa-y-aforos-de-las-instalaciones-deportivas-municipales">Normativa aplicable y aforos</a></li></ul>","P. del Doctor Flemming, 929, 33203 - Doctor Flemming, 929.<br style="FONT-WEIGHT: bold"/><span style="FONT-WEIGHT: bold">Coordenadas:</span> W 5º 38' 03''- N 43º 32' 09''","43.536354 -5.632832","Otros Espacios Deportivos, 2010, Gijón, Salas de musculación, Deporte"
"http://www.gijon.es/directorios/show/1877-sauna-c-d-moreda-natahoyo","1877","es","fecha-actualizacion2014-01-22 12:03:10 +0100","http://www.gijon.es/data/images/f0/f4/45781/447x360_v1_CDMoredaSauna01447x360.jpg","Sauna | C.D Moreda-Natahoyo","985 181 418","m@gijon.es","http://deporte.gijon.es/page/11261-complejo-deportivo-moreda-natahoyo","<a title="Ir a Horarios de apertura de las instalaciones deportivas" href="http://deporte.gijon.es/page/11880-horarios-de-apertura-de-las-instalaciones-deportivas" rel="external">Horarios Generales de las IDM</a>","<span style="FONT-WEIGHT: bold">Consejos</span><br/><ul><li>Antes de entrar, ducharse con agua caliente. </li><li>Secarse y entrar en la sauna con una temperatura aproximada de 80º. </li><li>Permanecer de 15 a 20 minutos tumbado. </li><li>Producir un poco de vapor. </li><li>Los 5 últimos minutos estar sentado. </li><li>Ducharse con agua fría empezando por los pies y acabando por la cabeza. </li><li>Depués de secarse, quedar tumbado unos minutos relajándose.</li></ul><p><span style="FONT-WEIGHT: bold">+ Info:</span></p><ul><li>Normativa y aforos </li><li>Precios públicos del PDM</li><li><a title="Ir a complejo deportivo moreda - natahoyo" href="http://deporte.gijon.es/page/11261-complejo-deportivo-moreda-natahoyo">C.D. de Moreda-Natahoyo</a></li></ul>","Avda. Juan Carlos I s/n. <strong><br/>Coordenadas:</strong> W 5º 41' 09'' - N 43º 32' 11''","43.536323 -5.68624","Otros Espacios Deportivos, Gijón, Saunas, Deporte, Deporte"
"http://www.gijon.es/directorios/show/1875-sauna-palacio-de-deportes","1875","es","fecha-actualizacion2014-01-22 12:03:10 +0100","http://www.gijon.es/data/images/f0/f4/45784/340x318_v1_saunageneral.jpg","Sauna | Palacio de Deportes","985 181 751","m@gijon.es","http://deporte.gijon.es/page/95-pagina-de-inicio","<a title="Ir a Horarios de apertura de las instalaciones deportivas" href="http://deporte.gijon.es/page/11880-horarios-de-apertura-de-las-instalaciones-deportivas" rel="external">Horarios generales de IDM</a>","<span style="FONT-WEIGHT: bold">Consejos</span><br/><br/><ul><li>Antes de entrar, ducharse con agua caliente.</li><li>Secarse y entrar en la sauna con una temperatura aproximada de 80º.</li><li>Permanecer de 15 a 20 minutos tumbado.</li><li>Producir un poco de vapor.</li><li>Los 5 últimos minutos estar sentado.</li><li>Ducharse con agua fría empezando por los pies y acabando por la cabeza.</li><li>Depués de secarse, quedar tumbado unos minutos relajándose.</li></ul><p><span style="FONT-WEIGHT: bold">+ Info:</span><br/></p><ul><li><a title="Ir a precios públicos del pdm" href="http://deporte.gijon.es/page/11897-precios-publicos-del-pdm">Precios públicos del PDM</a> </li><li><a title="Ir a normativa y aforos de las instalaciones deportivas municipales" href="http://deporte.gijon.es/page/11898-normativa-y-aforos-de-las-instalaciones-deportivas-municipales">Normativa aplicable y aforos</a></li></ul>","P. del Doctor Flemming, 929, 33203 - Palacio de deportes. P. Doctor Flemming.<br/> <span style="FONT-WEIGHT: bold">Coordenadas:</span> W 5º 38' 03'' - N 43º 32' 09''","43.536494 -5.632896","Gijón, Otros Espacios Deportivos, Saunas, Deporte, Deporte"
"http://www.gijon.es/directorios/show/1873-sauna-c-d-gijon-sur","1873","es","fecha-actualizacion2014-01-22 12:03:10 +0100","Sauna | C. D. Gijón Sur","985 181 654","m@gijon.es","http://deporte.gijon.es/page/11501-complejo-deportivo-pumarin-gijon-sur","<a title="Ir a Horarios de apertura de las instalaciones deportivas" href="http://deporte.gijon.es/page/11880-horarios-de-apertura-de-las-instalaciones-deportivas" rel="external">Horarios generales de IDM</a>","<span style="FONT-WEIGHT: bold"><br/>Consejos</span><br/><br/><ul><li>Antes de entrar, ducharse con agua caliente. </li><li>Secarse y entrar en la sauna con una temperatura aproximada de 80º. </li><li>Permanecer de 15 a 20 minutos tumbado. </li><li>Producir un poco de vapor. </li><li>Los 5 últimos minutos estar sentado. </li><li>Ducharse con agua fría empezando por los pies y acabando por la cabeza. </li><li>Depués de secarse, quedar tumbado unos minutos relajándose.</li></ul><p><span style="FONT-WEIGHT: bold">+ Info:</span><br/></p><ul><li><a title="Ir a precios públicos del pdm" href="http://deporte.gijon.es/page/11897-precios-publicos-del-pdm">Precios públicos del PDM</a> </li><li><a title="Ir a normativa y aforos de las instalaciones deportivas municipales" href="http://deporte.gijon.es/page/11898-normativa-y-aforos-de-las-instalaciones-deportivas-municipales">Normativa aplicable y aforos</a></li></ul>","C/Ramón Areces, 7. <strong><br/>Coordenadas:</strong> W 5º 40' 41'' - N 43º 31' 29''","43.523543 -5.625805","Gijón, Otros Espacios Deportivos, Saunas, Deporte, Deporte"
"http://www.gijon.es/directorios/show/1872-sauna-piscina-el-coto","1872","es","fecha-actualizacion2014-01-22 12:03:10 +0100","http://www.gijon.es/data/images/f0/f4/45784/340x318_v1_saunageneral.jpg","Sauna | Piscina El Coto","985 181 742","m@gijon.es","http://deporte.gijon.es/page/12075-piscina-el-coto","<a title="Ir a Horarios de apertura de las instalaciones deportivas" href="http://deporte.gijon.es/page/11880-horarios-de-apertura-de-las-instalaciones-deportivas" rel="external">Horarios generales de las IDM</a>","<span style="FONT-WEIGHT: bold">Consejos</span><br/><br/><ul><li>Antes de entrar, ducharse con agua caliente. </li><li>Secarse y entrar en la sauna con una temperatura aproximada de 80º. </li><li>Permanecer de 15 a 20 minutos tumbado. </li><li>Producir un poco de vapor. </li><li>Los 5 últimos minutos estar sentado. </li><li>Ducharse con agua fría empezando por los pies y acabando por la cabeza. </li><li>Depués de secarse, quedar tumbado unos minutos relajándose.</li></ul>","Plaza de la República s/n. <br/><span style="FONT-WEIGHT: bold">Coordenadas: </span>W<span style="FONT-WEIGHT: bold"> </span>5º 38' 58''<span style="FONT-WEIGHT: bold">- </span>N<span style="FONT-WEIGHT: bold"> </span>43º<span style="FONT-WEIGHT: bold"> </span>32' 01'<span style="FONT-WEIGHT: bold">'</span>","43.533414 -5.648974","2010, Gijón, Saunas, Otros Espacios Deportivos, Deporte"
"http://www.gijon.es/directorios/show/1844-pabellon-c-d-moreda-natahoyo","1844","es","fecha-actualizacion2014-01-22 12:03:09 +0100","http://www.gijon.es/data/images/f0/f4/44728/556x417_v1_CDMoredaPabellon03556x417.jpg","Pabellón | C.D. Moreda -Natahoyo","985 18 14 18","m@gijon.es","http://deporte.gijon.es/page/11261-complejo-deportivo-moreda-natahoyo","<a title="Ir a Horarios de apertura de las instalaciones deportivas" href="http://deporte.gijon.es/page/11880-horarios-de-apertura-de-las-instalaciones-deportivas" rel="external">Horarios generales de IDM</a>","Pabellón integradoen el Complejo Deportivo Moreda-Natahoyo dotada con:<span style="FONT-WEIGHT: bold"><br/></span><ul><li><span style="FONT-WEIGHT: bold">Una pista polideportiva </span>divisible en tres módulos:    </li></ul>       - Dimensiones: 44 x 22 m <br/>       - Pavimento: madera. Parquet flotante<br/>       - Campos reglamentarios de baloncesto, bádminton, voleibol, balonmano y fútbol sala<br/><br/><span style="FONT-WEIGHT: bold"></span><ul><li><span style="FONT-WEIGHT: bold">Gradas </span>con 160 asientos y una capacidad máxima para 200 personas<br/></li></ul><p><img class="nicedit_sin-alinear" alt="pabellon moreda" src="/data/images/f0/f4/44725/678x149_v1_MORPabellon678x149.jpg" width="678" height="149"/></p><p><span style="FONT-WEIGHT: bold">+ Info:</span><br/></p><ul><li><a title="Ir a precios públicos del pdm" href="http://deporte.gijon.es/page/11897-precios-publicos-del-pdm">Precios públicos del PDM</a> </li><li><a title="Ir a normativa y aforos de las instalaciones deportivas municipales" href="http://deporte.gijon.es/page/11898-normativa-y-aforos-de-las-instalaciones-deportivas-municipales">Normativa aplicable y aforos</a></li><li><a title="Ir a Complejo Deportivo Moreda - Natahoyo" href="http://deporte.gijon.es/page/11261-complejo-deportivo-moreda-natahoyo" rel="external">C. D. Moreda-Natahoyo</a><br/></li></ul>","Complejo deportivo Moreda.Natahoyo - Avda. Juan Carlos I, s/n. - Avd. Juan Carlos I, s/n.<span style="FONT-WEIGHT: bold"><br/></span><strong>Coordenadas:</strong>W 5º 41' 09'' - N 43º 32' 11''","43.536354 -5.686154","Deporte, Pabellones, 2012, Gijón, Pictogramas, Deporte"
"http://www.gijon.es/directorios/show/1835-pabellon-c-d-pumarin-gijon-sur","1835","es","fecha-actualizacion2014-01-22 12:03:09 +0100","http://www.gijon.es/data/images/f0/f4/45767/481x361_v1_CDGijonSur04481x361.jpg","Pabellón | C.D. Pumarín "Gijón Sur"","985 181 654","m@gijon.es","http://deporte.gijon.es/page/11501-complejo-deportivo-pumarin-gijon-sur","<A title="Ir a Complejo Deportivo Pumarín " href="http://deporte.gijon.es/page/11501-complejo-deportivo-pumarin-gijon-sur" rel="            <div><a title="Ir a Horarios de apertura de las instalaciones deportivas" href="http://deporte.gijon.es/page/11880-horarios-de-apertura-de-las-instalaciones-deportivas" rel="external">Horarios Generales de las IDM</a></div>","Pabellón integrado en el Complejo Deportivo de Pumarín Gijón Sur dotado con:<br/><ul><li><span style="FONT-WEIGHT: bold">Una pista polideportiva</span> divisible en tres módulos:</li></ul>      - Dimensiones: de 48 x 30 m  <br/>      - Pavimento: madera<br/>      - Campos reglamentarios de balonmano, baloncesto, fútbol sala y voleibol.<br/><br/><ul><li><span style="FONT-WEIGHT: bold">Gradas</span> con 250 asientos y una capacidad  máxima para 300 personas.</li></ul><p style="TEXT-ALIGN: center"><span style="FONT-WEIGHT: bold"><img class="nicedit_sin-alinear" alt="Pabellon gijon sur" src="/data/images/f0/f4/45768/640x141_v1_GSRPabellon640x141.jpg" width="640" height="141"/><br/></span></p><p><span style="FONT-WEIGHT: bold">+ Info:</span><br/></p><ul><li><a title="Ir a precios públicos del pdm" href="http://deporte.gijon.es/page/11897-precios-publicos-del-pdm">Precios públicos del PDM</a> </li><li><a title="Ir a normativa y aforos de las instalaciones deportivas municipales" href="http://deporte.gijon.es/page/11898-normativa-y-aforos-de-las-instalaciones-deportivas-municipales">Normativa aplicable y aforos</a></li><li><a title="Ir a Complejo Deportivo Pumarín " href="http://deporte.gijon.es/page/11501-complejo-deportivo-pumarin-gijon-sur" rel="external">C. D. Pumarín &quot;Gijón Sur&quot;</a><br/></li></ul><p style="TEXT-ALIGN: center"><br/></p>","<p>C/Ramón Areces, 7.</p><p><strong>Coordenadas: </strong>W 5º 40' 41''- N 43º 31' 29''</p>","43.524838 -5.677606","Deporte, Pabellones, Pabellones, Gijón, Deporte"
"http://www.gijon.es/directorios/show/1834-pabellon-c-d-el-llano-contrueces","1834","es","fecha-actualizacion2014-01-22 12:03:09 +0100","http://www.gijon.es/data/images/f0/f4/48439/200x136_v1_Llano.jpg","Pabellón | C.D. El Llano-Contrueces","985 181 417","m@gijon.es","http://deporte.gijon.es/page/95-pagina-de-inicio","<a title="Ir a Horarios de apertura de las instalaciones deportivas" href="http://deporte.gijon.es/page/11880-horarios-de-apertura-de-las-instalaciones-deportivas" rel="external">Horarios generales de las IDM</a>","Pabellón integrado en el Complejo Deportivo El Llano Contrueces dotado con:<br/><ul><li><span style="FONT-WEIGHT: bold">Una pista polideportiva</span> divisible en tres módulos:</li></ul>      - Dimensiones: 45 X 27 m  <br/>      - Pavimento: parquet de madera<br/>      - Campos reglamentarios de baloncesto, balonmano, fútbol sala, voleibol yhockey patines.<br/><div style="TEXT-ALIGN: center"><img class="nicedit_sin-alinear" alt="pabellon" src="/data/images/f0/f4/48433/658x145_v1_DSC_0448658x145.jpg" width="658" height="145"/><br/></div> <br/><br/><ul><li><span style="FONT-WEIGHT: bold">Sala polivalente</span> de 279 metros cuadrados con tatami de artes marciales y pista de bádminton de parque de madera.</li></ul><ul><li><span style="FONT-WEIGHT: bold">Gradas</span> con una capacidad para 400 espectadores.</li></ul><p style="TEXT-ALIGN: center"><img class="image-izquierda" alt="tatami" src="/data/images/f0/f5/50250/311x253_v1_tatami.jpg" width="311" height="253"/></p><p><img class="image-derecha" alt="Pisa badminto" src="/data/images/f0/f5/50281/367x237_v1_badminton.jpg" width="367" height="237"/><br/></p><p><br/></p><p><br/></p><p><br/></p><p><br/></p><p><br/></p><p><br/></p><p><br/></p><p><span style="FONT-WEIGHT: bold">+ Info:</span><br/></p><ul><li><a title="Ir a precios públicos del pdm" href="http://deporte.gijon.es/page/11897-precios-publicos-del-pdm">Precios públicos del PDM</a></li><li><a title="Ir a normativa y aforos de las instalaciones deportivas municipales" href="http://deporte.gijon.es/page/11898-normativa-y-aforos-de-las-instalaciones-deportivas-municipales">Normativa aplicable y aforos</a></li></ul><p style="TEXT-ALIGN: center"><br/></p>","Avd.Llano 71. <span style="FONT-WEIGHT: bold"><br/>Coordenadas:</span> W 5º 39' 44''- N 43º 31' 34''","43.526013 -5.662194","Deporte, Pabellones, Deporte"
"http://www.gijon.es/directorios/show/1832-campo-de-golf-deva-golf-pitch-putt","1832","es","fecha-actualizacion2014-05-28 12:47:41 +0200","http://www.gijon.es/data/images/f9/9676/640x480_v1_campogeneral.jpg","Campo de Golf - Deva Golf Pitch &amp; Putt","985 133 140","http://www.devagolf.es","Deva Golf es el primer recorrido de 18 hoyos, pares 3 Pitch &amp; Putt del Principado de Asturias. Se encuentra ubicado en la parroquia de Deva, en el término municipal de Gijón, con un cómodo y rápido acceso desde la C. N. 632 o desde la Ronda Sur de Gijón. Deva Golf tiene como misión convertirse en un referente dentro de los clubes de golf Pitch&amp;Putt en España. Para ello desarrollará una gestión profesional de todos los servicios, incluyendo la comercialización y venta de Derechos de Uso que le permitirán ser Titular de Deva Golf.<br/><br/><h4 style="font-weight: bold;">Descuento del 10% con la tarjeta turística Gijón Card<br/></h4>","C/ Camino del Trole, 1175. 33394, Gijón (Asturias)","43.508679 -5.611732","Campos de Golf, 2010, Gijón, Gijón card. Tarjeta turística, Deporte, Gijón Card"
"http://www.gijon.es/directorios/show/1825-sala-de-tiro-con-arco-la-camocha","1825","es","fecha-actualizacion2014-01-22 12:03:09 +0100","http://www.gijon.es/data/images/f0/f4/48874/645x280_v1_Tiroconarco.jpg","Sala de Tiro con Arco La Camocha","mantenimiento.pdm@gijon.es","http://deporte.gijon.es/page/95-pagina-de-inicio","<a href="http://deporte.gijon.es/page/11880-horarios-de-apertura-de-las-instalaciones-deportivas" title="Ir a Horarios de apertura de las instalaciones deportivas" rel="external">Horarios generales de IDM</a>","<div style="text-align: center;"><img src="/data/images/f0/f4/48875/645x280_v1_saladetiroconarco2.jpg" alt="sala tiro con arco" class="nicedit_sin-alinear" width="645" height="280"/><br/></div>","C/La Camocha. <br/><span style="font-weight: bold;">Coordenadas:</span> W 5º 38' 51'' - N 43º 29' 20''","Otros Espacios Deportivos, Edificios Municipales, Administración, Deporte"
"http://www.gijon.es/directorios/show/1779-puerto-deportivo","1779","es","fecha-actualizacion2014-09-01 15:25:15 +0200","Puerto Deportivo","985 344 543","985 358 415","info@puertodeportivogijon.es","Servicios del Edificio del Puerto Deportivo:Aduana, capitanía (distribución de pantalanes), servicio Meteorológico, radio (Canal 9 VHF), oficina de Información Turística, teléfonos y fax públicos, salón de Actos y Proyecciones, sala de ExposicionesDuchas y servicios, hielo, recogida de ropa para lavandería y servicio de reparto de correspondencia a embarcaciones en tránsito.Otros Servicios: Combustible, talleres y varadero, grúa 10 Tm, máquina de agua a presión para limpieza de cascos, escuela de vela, restaurante, infogijón Servicio Municipal de Información turística y estación Náutica Gijón Costa Verde.","C/Claudio Alvargonzález","Estaciones de Transporte, Otros Espacios Deportivos, Deporte, Movilidad, Gijón con Calidad"
"http://www.gijon.es/directorios/show/1679-palacio-de-deportes-de-la-guia-presidente-adolfo-suarez","1679","es","fecha-actualizacion2016-03-14 09:44:38 +0100","http://www.gijon.es/data/images/f0/f4/48351/720x432_v1_PALACI01.JPG","Palacio de Deportes de la Guía "Presidente Adolfo Suárez"","985 181 750","m@gijon.es","http://deporte.gijon.es/page/95-pagina-de-inicio","<a title="Ir a Horarios de apertura de las instalaciones deportivas" href="http://deporte.gijon.es/page/11880-horarios-de-apertura-de-las-instalaciones-deportivas" rel="external">Horarios generales de las IDM</a>","<div style="TEXT-ALIGN: justify">Situado en el margen derecho del Río Piles, a escasos metros del Estadio de El Molinón, del Parque de &quot;Isabel La Católica&quot; y de la Feria de Muestras, ha sido proyectado por el arquitecto Salvador Pérez Arroyo, dentro de una importante zona de esparcimiento y ocio de la ciudad.<br/>Desde su inauguración en 1992, esta moderna instalación con 14.000 m2 construidos, se ha convertido en el equipamento deportivo estrella, lo que ha permitido albergar en su interior importantes competiciones y espectáculos deportivos y culturales.<br/>A ello hay que añadir el intenso uso diario por parte de deportistas federados aficionados de todas las categorías, que encuentran en su polivalente dotación los locales adecuados para la práctica deportiva.<br/><br/><div style="TEXT-ALIGN: center"><img class="nicedit_sin-alinear magnify" alt="palacio pista central" src="/data/images/f0/f4/48444/658x145_v1_PALpistacentral658x145.jpg" height="145" width="658" width="658" height="145"/><br/></div></div><br/><div style="TEXT-ALIGN: center"><span style="FONT-WEIGHT: bold"><img class="nicedit_sin-alinear magnify" alt="Pabellon auxiliar" src="/data/images/f0/f4/48447/658x145_v1_PALPabauxiliar658x145.jpg" height="145" width="658" width="658" height="145"/></span><br/><span style="FONT-WEIGHT: bold"></span></div><span style="FONT-WEIGHT: bold">Equipamientos</span><br/><br/><ul><li>Pista central con un aforo máximo de 7.000 espectadores <br/></li><li>Pabellón auxiliar con un aforo de 500 espectadores sentados</li><li><a title="Ir a Tatami" href="http://deporte.gijon.es/page/11961-tatami" rel="external">Sala de artes marciales o tatami</a></li><li><a title="Ir a Sala de Haltelofilica" href="http://deporte.gijon.es/page/11943-sala-de-haltelofilica" rel="external">Sala de haltelofilia</a></li><li><a title="Ir a Sala de Musculación" href="http://deporte.gijon.es/page/11946-sala-de-musculacion" rel="external">Sala musculación</a></li><li><a title="Ir a Pistas de Squash" href="http://deporte.gijon.es/page/11948-pistas-de-squash" rel="external">Pistas de squash</a></li><li><a title="Ir a Sala de Billar" href="http://deporte.gijon.es/page/11942-sala-de-billar" rel="external">Sala de billar</a></li><li><a title="Ir a Sala de Billar" href="http://deporte.gijon.es/page/11942-sala-de-billar" rel="external"></a><a title="Ir a Sala de Boxeo" href="http://deporte.gijon.es/page/11947-sala-de-boxeo" rel="external">Sala de boxeo</a></li><li><a title="Ir a Sala de Esgrima" href="http://deporte.gijon.es/page/11941-sala-de-esgrima" rel="external">Sala de esgrima</a></li><li>Cafetería. Sala vip</li><li>Vestuarios: 10 de equipos y cuatro de árbitros</li><li>Aparcamientos: 2.000 turismos y 50 autocares.</li></ul><p style="FONT-WEIGHT: bold">+ Info:</p><ul><li><a title="Ir a Actividades y cursos" href="http://deporte.gijon.es/page/3826-actividades-y-cursos" rel="external">Oferta de actividades y cursos</a><br/></li><li><a title="Ir a Precios Públicos del PDM" href="http://deporte.gijon.es/page/11897-precios-publicos-del-pdm" rel="external">Precios Públicos del PDM</a><br/></li><li><a title="Ir a Normativa y aforos de las Instalaciones Deportivas Municipales" href="http://deporte.gijon.es/page/11898-normativa-y-aforos-de-las-instalaciones-deportivas-municipales" rel="external">Normativa vigente y aforos</a></li></ul><p><br/></p>","Pº del Doctor Flemming, 929.<span style="FONT-WEIGHT: bold"><br/>Coordenadas: </span>W 5º 381 03'' - N 43º 32' 09''<span style="FONT-WEIGHT: bold"> <br/></span>","43.536463 -5.633004","Pictogramas, Pabellones, Gijón, Deporte, Deporte"
"http://www.gijon.es/directorios/show/1402-campos-de-futbol-c-d-universidad-laboral","1402","es","fecha-actualizacion2014-01-22 12:02:56 +0100","http://www.gijon.es/data/images/f0/f4/45788/436x327_v1_c.duniversidadlaboral.jpg","Campos de Fútbol | C.D Universidad Laboral","985 181 728","mantenimiento.pdm@gijon.es","http://deporte.gijon.es/page/11509-complejo-deportivo-universidad-laboral","<a title="Ir a Horarios de apertura de las instalaciones deportivas" href="http://deporte.gijon.es/page/11880-horarios-de-apertura-de-las-instalaciones-deportivas" rel="external">Horarios generales de las IDM<br/></a>","<ul><li>El C. D. Universidad Laboral cuenta con un campos de fútbol reglamentario de hierba natural.</li><li>Medidas: 102 X 67 m</li></ul><p>+ Info</p><p><br/></p><p><br/></p><p><a href="http://deporte.gijon.es/page/11509-complejo-deportivo-universidad-laboral" title="Ir a complejo deportivo universidad laboral">C. D. Universidad Labora</a><a href="http://deporte.gijon.es/page/95-pagina-de-inicio" title="Ir a página de inicio">l</a></p>","Campos de Fútbol Universidad Laboral - Ctra. N-632 km. 67, 200 - <p>C/ Jose Luis Álvarez Margaride, s/n 1459. </p><p><strong>Coordenadas:</strong> N 5º 37' 15 -W 43º 31' 30''</p>","43.522259 -5.615129","Campos de Fútbol, 2010, Gijón, Deporte"
"http://www.gijon.es/directorios/show/1401-piscina-c-d-pumarin-gijon-sur","1401","es","fecha-actualizacion2014-05-28 12:54:26 +0200","http://www.gijon.es/data/images/f0/f4/45770/467x351_v1_piscinaPumarin7467x351.jpg","Piscina | C.D. Pumarín "Gijón Sur"","985 181 654","m@gijon.es","http://deporte.gijon.es/page/95-pagina-de-inicio","<a title="Ir a Horarios de apertura de las instalaciones deportivas" href="http://deporte.gijon.es/page/11880-horarios-de-apertura-de-las-instalaciones-deportivas" rel="external">Horarios generales de las IDM</a>","<p>Piscina climatizada dotada con:<br/></p><ol><li><span style="FONT-WEIGHT: bold">Un vaso polivalente</span> <span style="FONT-WEIGHT: bold">de 6 calles: </span>de 25 m X 12,5 m. Profundidad:1,60 m/1,80 m/ 1,20 m. </li><li><span style="FONT-WEIGHT: bold">Un vaso de enseñanza de 3 calles: </span>de 12,50 X 6 m. Profundidad: 0,70 m/0,90 m/0,80 m.</li></ol><p style="TEXT-ALIGN: center"><img class="nicedit_sin-alinear" alt="piscina" src="/data/images/f0/f4/45769/713x157_v1_GSRPiscina713x157.jpg" height="157" width="713" width="713" height="157"/><br/></p><p style="FONT-WEIGHT: bold">+ Info:</p><ul><li><a title="Ir a Práctica de la natación" href="http://deporte.gijon.es/page/6074-practica-de-la-natacion" rel="external">Práctica de la natación (Espacio lúdico y horarios del nado con aletas)</a> </li><li><a title="Ir a Actividades y cursos" href="http://deporte.gijon.es/page/3826-actividades-y-cursos" rel="external">Oferta de cursos y actividades acuáticas</a><br/></li><li><a title="Ir a precios públicos del pdm" href="http://deporte.gijon.es/page/11897-precios-publicos-del-pdm">Precios públicos del PDM</a> </li><li><a title="Ir a normativa y aforos de las instalaciones deportivas municipales" href="http://deporte.gijon.es/page/11898-normativa-y-aforos-de-las-instalaciones-deportivas-municipales">Normativa aplicable y aforos</a></li></ul><h4><b>Descuento del 40% con la tarjeta turística Gijón Card</b></h4><p><br/></p><p style="TEXT-ALIGN: center"><br/></p>","<p>C/Ramón Areces, 7.<span style="FONT-WEIGHT: bold"><br/></span></p><p><span style="FONT-WEIGHT: bold">Coordenadas:</span> W 5º 40' 41'' - N 43º 31' 29''</p>","43.524811 -5.678","Piscinas Municipales, Gijón, Deporte, 2012, Gijón Card, Deporte, Gijón card. Tarjeta turística"
"http://www.gijon.es/directorios/show/1217-pista-polideportiva-tremanes","1217","es","fecha-actualizacion2014-01-22 12:02:51 +0100","Pista Polideportiva Tremañes","<ul><li>Dimensiones: 43,50 x 25.</li><li>Pavimento: Asfalto.</li><li>Gestionada por la Asociación de Vecinos San Juan Bautista.</li></ul>","Avda. de Los Campones - Parque Tremañes.33211","43.530847 -5.69639","Pistas Polideportivas, Deporte"
"http://www.gijon.es/directorios/show/1216-pista-polideportiva-serin","1216","es","fecha-actualizacion2014-01-22 12:02:51 +0100","Pista Polideportiva Serín","<ul><li>Pavimento: Asfalto.</li><li>Gestionada por la Asociación de Vecinos San Miguel - Serín.</li></ul>","Serín. 33697","Pistas Polideportivas, Deporte"
"http://www.gijon.es/directorios/show/1215-pista-polideportiva-santa-barbara","1215","es","fecha-actualizacion2014-01-22 12:02:51 +0100","Pista Polideportiva Santa Bárbara","<ul><li>Dimesniones: 34,10 x 18,15. </li><li>Pavimento: Asfalto.</li><li>Gestionada por la Asociación de Vecinos Santa Bárbara.</li></ul>","Barrio de Santa Bárbara. 33211","43.522802 -5.689153","Pistas Polideportivas, Deporte"
"http://www.gijon.es/directorios/show/1214-pista-polideportiva-san-martin","1214","es","fecha-actualizacion2014-01-22 12:02:51 +0100","Pista Polideportiva San Martín","<ul><li>Dimensiones: 47,60 x 23,20 m.</li><li>Pavimento: Asfalto.</li><li>Gestionada por la Asociación de Vecinos La Atalaya.</li></ul>","Parroquia de San Martín de Huerces. 33350","43.475727 -5.676526","Pistas Polideportivas, Deporte"
"http://www.gijon.es/directorios/show/1213-pista-polideportiva-pumarin-1-500","1213","es","fecha-actualizacion2014-01-22 12:02:51 +0100","Pista Polideportiva Pumarín 1.500","<ul><li>Dimensiones: 31 x 18 m</li><li>Paviementoo: Asfalto.</li><li>Gestionada por la Asociación de Vecinos Severo Ochoa (Pumarín).</li></ul>","Avda. Gaspar García Laviana, s/n. 33210","Pistas Polideportivas, Deporte"
"http://www.gijon.es/directorios/show/1212-pista-polideportiva-portuarios","1212","es","fecha-actualizacion2014-01-22 12:02:51 +0100","Pista Polideportiva Portuarios","<ul><li>Dimensiones: 62,20 x 22,50 m.</li><li>Pavimento: Asfalto.</li><li>Gestionada por la Asociación de Vecinos Nuestra Señora del Carmen.</li></ul>","Barrio de Portuarios, s/n. (Jove). 33290","43.552868 -5.702173","Pistas Polideportivas, Deporte"
"http://www.gijon.es/directorios/show/1211-pista-polideportiva-poligono-pumarin","1211","es","fecha-actualizacion2014-01-22 12:02:51 +0100","Pista Polideportiva Polígono Pumarín","<ul><li>Dimesniones: 50 x 25 m.</li><li>Pavimento: Asfalto.</li><li>Gestionada por la Asociación de Vecinos Evaristo San Miguel.</li></ul>","C/Puerto Vegarada, s/n. 33207","Pistas Polideportivas, Deporte"
"http://www.gijon.es/directorios/show/1210-pista-polideportiva-plaza-europa","1210","es","fecha-actualizacion2014-01-22 12:02:51 +0100","Pista Polideportiva Plaza Europa","<ul><li>Pavimento: asfalto</li></ul>","Plaza Europa, s/n.","43.537809 -5.663222","Pistas Polideportivas, Deporte"
"http://www.gijon.es/directorios/show/1207-pista-polideportiva-montevil-2","1207","es","fecha-actualizacion2014-01-22 12:02:51 +0100","http://www.gijon.es/data/images/f6/6907/250x188_v1_Directorioinstalacionesdeportivasmontevil2.jpg","Pista Polideportiva Montevil 2","<ul><li>Dimensiones: 40X 20 m</li><li>Pavimento: asfalto</li><li>Gestionada por la Asociación de Vecinos El Roble<br/></li></ul><br/>Asociación de Vecinos El Roble - Montevil.","C/Velázquez, s/n. 33211","Pistas Polideportivas, Deporte"
"http://www.gijon.es/directorios/show/1206-pista-polideportiva-montevil-1","1206","es","fecha-actualizacion2014-01-22 12:02:51 +0100","Pista Polideportiva Montevil 1","<ul><li>Dimensiones: 81,40 x 23. </li><li>Pavimento: Asfalto.</li><li>Gestionada por la Asociación El Roble Montevil.</li></ul>","C/Miguel de Unamuno, s/n.  33211(Parque de Montevil)","43.517774 -5.672867","Pistas Polideportivas, Deporte"
"http://www.gijon.es/directorios/show/1205-pista-polideportiva-monteana","1205","es","fecha-actualizacion2014-01-22 12:02:51 +0100","Pista Polideportiva Monteana","<ul><li>Dimensiones: 46,60 x 21 m. </li><li>Pavimento: asfalto.</li><li>Gestionada por la Asociación de Vecinos Monte Areo San Andrés (Monteana).</li></ul>","Parroquia de Monteana. 33391","43.520983 -5.747421","Pistas Polideportivas, Deporte"
"http://www.gijon.es/directorios/show/1204-pista-polideportiva-lloreda","1204","es","fecha-actualizacion2014-01-22 12:02:51 +0100","Pista Polideportiva Lloreda","<ul><li>Dimensiones: 45 x 27,10 m</li><li>Pavimento: asfalto.</li><li>Gestionada por la Asociación de Vecinos Evaristo Valle.</li></ul>","Avda. de Los Campones, s/n. 33211","43.527405 -5.707521","Pistas Polideportivas, Deporte"
"http://www.gijon.es/directorios/show/1203-pista-polideportiva-laviada","1203","es","fecha-actualizacion2014-01-22 12:02:51 +0100","Pista Polideportiva Laviada","<ul><li>Dimensiones: 44,20 x 28.</li><li>Paviemnto: asfalto.</li><li>Gestionada por la Asociación de Vecinos Laviada.</li></ul>","Avda. Carlos Marx, s/n. 33207(Parque Laviada.)","43.535627 -5.670699","Pistas Polideportivas, Deporte"
"http://www.gijon.es/directorios/show/1201-pista-polideportiva-la-providencia","1201","es","fecha-actualizacion2014-01-22 12:02:51 +0100","Pista Polideportiva La Providencia","<ul><li>Dimensiones: 40 X20 m</li><li>Pavimento: asfalto</li><li>Gestionada por la Asociación La Providencia</li></ul>","La Providencia, s/n.","43.548054 -5.618176","Pistas Polideportivas, Deporte"
"http://www.gijon.es/directorios/show/1200-pista-polideportiva-la-camocha","1200","es","fecha-actualizacion2014-01-22 12:02:51 +0100","Pista Polideportiva La Camocha","<ul><li>Dimensiones: 40 x 22 m.</li><li>Cubierta<br/></li><li>Pavimento: Asfalto.</li><li>Gestionada por la Asociación de Vecinos Vega - La Camocha.</li></ul>","Barrio de Vega. Junto a Campo de Fútbol. 33350","43.487463 -5.648732","Pistas Polideportivas, Deporte"
"http://www.gijon.es/directorios/show/1199-pista-polideportiva-la-algodonera","1199","es","fecha-actualizacion2014-01-22 12:02:51 +0100","Pista Polideportiva La Algodonera","<ul><li>Dimensiones: 40 x 29,50.</li><li>Cubierta<br/></li><li>Pavimento: Terrazo.</li><li>Gestionada por el Club Patín Solimar.</li></ul>","Avda. de las Industrias, s/n. 33212","43.537536 -5.698503","Pistas Polideportivas, Deporte"
"http://www.gijon.es/directorios/show/1196-pista-polideportiva-granda","1196","es","fecha-actualizacion2014-01-22 12:02:51 +0100","Pista Polideportiva Granda","<ul><li>Dimensiones: 40 x 29,5 m. </li><li>Pavimento: Terrazo.</li><li>Gestionada por la Asociación de Vecinos Santo Tomás.</li></ul>","Parroquia de Granda. Detrás del Matadero Municipal.","43.502356 -5.667325","Pistas Polideportivas, Deporte"
"http://www.gijon.es/directorios/show/1195-pista-polideportiva-el-llano","1195","es","fecha-actualizacion2014-01-22 12:02:50 +0100","Pista Polideportiva El Llano","<ul><li>Dimensiones: 45 x 24,20.</li><li>Pavimento: Asfalto.</li><li>Gestionada por la Asociación de Vecinos Fumeru.</li></ul>","C/ Eleuterio Quintanilla, s/n. (Parque La Serena). 33209","43.530489 -5.664209","Pistas Polideportivas, Deporte"
"http://www.gijon.es/directorios/show/1194-pista-polideportiva-el-lauredal","1194","es","fecha-actualizacion2014-01-22 12:02:50 +0100","Pista Polideportiva El Lauredal","<ul><li>Características: 44,40 x 22,34 m</li><li>Cubierta<br/></li><li>Pavimento: Asfalto.</li><li>Gestionada por la Asociación de Vecinos Alfonso Camín.</li></ul>","C/Betty Friedan, s/n. (Parque de El Lauredal)","43.542677 -5.70074","Pistas Polideportivas, Deporte"
"http://www.gijon.es/directorios/show/1191-pista-polideportiva-contrueces","1191","es","fecha-actualizacion2014-01-22 12:02:50 +0100","Pista Polideportiva Contrueces","<ul><li>Dimensiones: 40,5 x 22.</li><li>Asfalto.</li><li>Gestionada por la Asociación de Vecinos Los Ríos (Contrueces).</li></ul>","C/ Río Nalón, s/n. 33210","43.521271 -5.667097","Pistas Polideportivas, Deporte"
"http://www.gijon.es/directorios/show/1163-pista-polideportiva-cimadevilla","1163","es","fecha-actualizacion2014-01-22 12:02:50 +0100","Pista Polideportiva Cimadevilla","<ul><li>Dimensiones: 42,70 x 24,15 m.</li><li>Pavimento: Asfalto.</li><li>Gestionada por la Asociación de Vecinos Gigia.</li></ul>","C/Subida al Cerro, s/n. Cerro Santa Catalina. 33201","43.549096 -5.664941","Pistas Polideportivas, Deporte"
"http://www.gijon.es/directorios/show/1162-pista-polideportiva-abadia-de-cenero","1162","es","fecha-actualizacion2014-01-22 12:02:50 +0100","Pista Polideportiva Abadía de Cenero","<ul><li>Dimensiones: 44,30 x 22 m.</li><li>Pavimento: Asfalto.</li><li>Gestionada por la Asociación de vecinos Los 16 Abadía de Cenero.</li></ul>","Ctra. AS 363. Sotiello. Junto a la Abadía de Cenero. 33391","43.501289 -5.733635","Pistas Polideportivas, Deporte"
"http://www.gijon.es/directorios/show/1161-pista-polideportiva-caldones","1161","es","fecha-actualizacion2014-01-22 12:02:50 +0100","Pista Polideportiva Caldones","<ul><li>Dimensiones: 22,20 x 16,10.</li><li>Pavimento: Asfalto.</li><li>Gestionada por la Asociación de vecinos El Carbayu.</li></ul>"," Barrio La Iglesia. Junto a antiguas escuelas. 33391","43.485606 -5.62736","Pistas Polideportivas, Deporte"
"http://www.gijon.es/directorios/show/1160-pista-polideportiva-baldornon","1160","es","fecha-actualizacion2014-01-22 12:02:50 +0100","Pista Polideportiva Baldornón","<ul><li>Dimensiones: 32,20 x 16,10 m. </li><li>Pavimento: Asfalto.  </li><li>Gestiona por la Asociación de Vecinos La Raposa.</li></ul>","Baldornón. Rioseco","43.456562 -5.613221","Pistas Polideportivas, Deporte"
"http://www.gijon.es/directorios/show/1158-piscina-el-llano-luis-alvargonzalez","1158","es","fecha-actualizacion2014-01-22 12:02:50 +0100","http://www.gijon.es/data/images/f6/6890/285x214_v1_Directorioinstalacionesdeportivasllano05.JPG","Piscina El Llano "Luis Alvargonzalez"","985 181 611","m@gijon.es","http://deporte.gijon.es/page/95-pagina-de-inicio","<a title="Ir a Horarios de apertura de las instalaciones deportivas" href="http://deporte.gijon.es/page/11880-horarios-de-apertura-de-las-instalaciones-deportivas" rel="external">Horarios generales de las IDM</a><a title="Ir a Contacto" href="/page/6910-contacto"></a>","<div style="TEXT-ALIGN: justify">Esta piscina que lleva el nombre del médico gijonés 'Luis Alvargonzález', fue construida en el año 1991, según el proyecto de Alejandro y Antonio Miranda, y supuso un indudable salto hacia adelante en la infraestructura deportiva de nuestra ciudad.<br/>Piscina climatizada dotada con:<br/><ul><li><span style="FONT-WEIGHT: bold">Un vaso polivalente de 8 calles:</span> 25 m de largo X 16 m de ancho. Profundidad: 1,80 m / 2 m</li><li><span style="FONT-WEIGHT: bold">Un vaso de enseñanza de 3 calles:</span> 16 m de largo X 8 m de ancho. Profundidad: 0,77m / 1 m/ 0,90 m</li><li><span style="FONT-WEIGHT: bold">Una sala de musculación:</span> de 192 metros cuadrados y con suelo sintético</li><li><span style="FONT-WEIGHT: bold">Grada</span> con con 475 asientos</li></ul><p style="TEXT-ALIGN: center"><img class="nicedit_sin-alinear" alt="Piscina El LLano" src="/data/images/f0/f4/48412/658x145_v1_piscinaElLlano.jpg" width="658" height="145" width="658" height="145"/><br/></p><span style="FONT-WEIGHT: bold">+ Info:</span><ul><li><a title="Ir a práctica de la natación" href="http://deporte.gijon.es/page/6074-practica-de-la-natacion">Práctica de la natación (Espacio lúdico y horarios del nado con aletas)</a></li><li><a title="Ir a actividades y cursos" href="http://deporte.gijon.es/page/3826-actividades-y-cursos">Oferta de cursos y actividades acuáticas</a><br/></li><li><a title="Ir a precios públicos del pdm" href="http://deporte.gijon.es/page/11897-precios-publicos-del-pdm">Precios públicos del PDM</a></li><li><a title="Ir a normativa y aforos de las instalaciones deportivas municipales" href="http://deporte.gijon.es/page/11898-normativa-y-aforos-de-las-instalaciones-deportivas-municipales">Normativa aplicable y aforos</a></li></ul><h4><b>Descuento del 40% con la tarjeta turística Gijón Card</b></h4></div>","Avda. de El Llano, 69. <br/><span style="FONT-WEIGHT: bold">Coordenadas: </span>W 5º 39' 43''- N 43º 31' 38''.","43.527331 -5.6618","Piscinas Municipales, Gijón, Deporte, Deporte, Gijón card. Tarjeta turística, Gijón Card"
"http://www.gijon.es/directorios/show/1157-piscina-de-el-coto","1157","es","fecha-actualizacion2014-05-28 13:01:56 +0200","http://www.gijon.es/data/images/f6/6889/250x174_v1_Directorioinstalacionesdeportivaspiscina-coto.jpg","Piscina de El Coto","985 181 742","m@gijon.es","http://deporte.gijon.es/page/95-pagina-de-inicio","<a title="Ir a Horarios de apertura de las instalaciones deportivas" href="http://deporte.gijon.es/page/11880-horarios-de-apertura-de-las-instalaciones-deportivas" rel="external">Horarios Generales de IDM</a><a title="Ir a Contacto" href="/page/6910-contacto"></a>","<div style="TEXT-ALIGN: justify">Piscina climatizada inaugurada el 01/06/1999 dotada con:<br/><ul><li><span style="FONT-WEIGHT: bold">Un vaso polivalente de 6 calles:</span> de 25 m de largo x 12,50 m de ancho. Profundidad: 1,60 m/ 1,80 m/ 1,20 m</li><li><span style="FONT-WEIGHT: bold">Un vaso de enseñanza de 3 calles:</span> de 12,50 m de largo X 6 m de ancho. Profundidad: 0,70 m /0,88 m / 0,80 m</li><li><span style="FONT-WEIGHT: bold">Una sala de musculación</span> de 114 metros cuadrados.</li><li><span style="FONT-WEIGHT: bold">Una sauna</span><br style="FONT-WEIGHT: bold"/></li><li><span style="FONT-WEIGHT: bold">Grada</span> con capacidad para 40 espectadores.</li></ul><p>El sistema de desinfección del aguautilizado: <span style="FONT-WEIGHT: bold">Rayos ultravioleta.</span></p><div style="TEXT-ALIGN: center"><img class="nicedit_sin-alinear magnify" alt="Piscina El Coto" src="/data/images/f0/f4/48419/658x145_v1_PiscinaCoto.jpg" width="658" height="145" width="658" height="145"/><br/></div><p style="FONT-WEIGHT: bold"><br/></p><p style="FONT-WEIGHT: bold">+ Info:</p><ul><li><a title="Ir a práctica de la natación" href="http://deporte.gijon.es/page/6074-practica-de-la-natacion">Práctica de la natación (Espacio lúdico y horarios del nado con aletas)</a></li><li><a title="Ir a actividades y cursos" href="http://deporte.gijon.es/page/3826-actividades-y-cursos">Oferta de cursos y actividades acuáticas</a><br/></li><li><a title="Ir a precios públicos del pdm" href="http://deporte.gijon.es/page/11897-precios-publicos-del-pdm">Precios públicos del PDM</a></li><li><a title="Ir a normativa y aforos de las instalaciones deportivas municipales" href="http://deporte.gijon.es/page/11898-normativa-y-aforos-de-las-instalaciones-deportivas-municipales">Normativa aplicable y aforos</a></li></ul><h4><b>Descuento del 40% con la tarjeta turística Gijón Card</b></h4></div>","Plaza de la República, s/n. <br/><span style="FONT-WEIGHT: bold">Coordenadas:</span> W 5º 38' 58''- N 43º 32' 01''","43.533352 -5.649741","Piscinas Municipales, 2010, Gijón, 2011, Gijón Card, Gijón card. Tarjeta turística, Deporte"
"http://www.gijon.es/directorios/show/1009-pabellon-de-deportes-perchera-la-brana","1009","es","fecha-actualizacion2014-01-22 12:02:46 +0100","http://www.gijon.es/data/images/f6/6817/288x216_v1_Directorioinstalacionesdeportivaspercherap.jpg","Pabellón de Deportes Perchera - La Braña","985 181 757","m@gijon.es","/page/6910-contacto","<a title="Ir a Horarios de apertura de las instalaciones deportivas" href="http://deporte.gijon.es/page/11880-horarios-de-apertura-de-las-instalaciones-deportivas" rel="external">Horarios generales de las IDM</a>","La construcción de esta instalación en 1986 en la zona de Pumarín, según el proyecto de Jorge Zapata Suárez, supuso el arranque definitivo en cuanto a dotación de espacios deportivos cubiertos en los diferentes barrios de Gijón.<br/><br/>Pabellón dotado con:<br/><br/><ul><li><span style="FONT-WEIGHT: bold">Una pista polideportiva</span> divisible en tres módulos:</li></ul>      - Dimensiones: 45 x 28 m<br/>     - Pavimento: suelo sintético<br/>     - Campos reglamentarios de baloncesto, de voleibol, de balonmano y de fútbol sala.<br/><br/><ul><li><span style="FONT-WEIGHT: bold">Gradas </span>con 345 asientos y una capacidad para 500 espectadores</li></ul><ul><li><span style="FONT-WEIGHT: bold"><a title="Ir a Sala de musculación" href="http://deporte.gijon.es/page/11952-sala-de-musculacion" rel="external">Una sala de musculación</a></span> de 60 m2  </li></ul><p style="TEXT-ALIGN: center"><img class="nicedit_sin-alinear" alt="pabellon" src="/data/images/f0/f4/48493/714x157_v1_PERPabellon714x157.jpg" width="714" height="157"/><br/></p><p><span style="FONT-WEIGHT: bold">+ Info:</span><br/></p><ul><li><a title="Ir a precios públicos del pdm" href="http://deporte.gijon.es/page/11897-precios-publicos-del-pdm">Precios públicos del PDM</a></li><li><a title="Ir a normativa y aforos de las instalaciones deportivas municipales" href="http://deporte.gijon.es/page/11898-normativa-y-aforos-de-las-instalaciones-deportivas-municipales">Normativa aplicable y aforos</a></li></ul><p><br/></p><p style="TEXT-ALIGN: center"><br/></p>","C/ Orán, s/n. <span style="FONT-WEIGHT: bold"><br/>Coordenadas: </span>W 5º 40' 51'' - N 43º 32' 13''","43.530785 -5.68049","Pabellones, Gijón, Deporte, Pabellones, Deporte"
"http://www.gijon.es/directorios/show/1008-pabellon-de-deportes-mata-jove","1008","es","fecha-actualizacion2017-09-14 10:17:40 +0200","http://www.gijon.es/data/images/f6/6816/250x169_v1_Directorioinstalacionesdeportivasmatajove.jpg","Pabellón de Deportes Mata-Jove","985 181 756","m@gijon.es","/page/6910-contacto","<a title="Ir a Horarios de apertura de las instalaciones deportivas" href="http://deporte.gijon.es/page/11880-horarios-de-apertura-de-las-instalaciones-deportivas" rel="external">Horarios generales de las IDM</a>","Edificado en 1991 dentro de una importante área educativa del populoso barrio de La Calzada es utilizada como estructura básica para la práctica deportiva tanto de nivel competitivo como escolar. <br/><br/>Instalación dotada con:<br/><br/><ul><li><span style="FONT-WEIGHT: bold">Una pista poliderportiva</span> divisible en tres módulos:</li></ul>      - Dimensiones: 45,34 X 27,93 m<br/>      - Pavimento: madera. Parquet flotante<br/>      -Campos reglamentarios para practicar balonmano, fútbol sala, baloncesto, voleibol y hockey sobre patines ( con valla hidráulica perimetral).<br/><br/><ul><li><span style="FONT-WEIGHT: bold">Gradas</span> 230 asientos con una capacidad máxima de 500 personas.<br/></li></ul><p style="TEXT-ALIGN: center"><img class="nicedit_sin-alinear" alt="pabellon" src="/data/images/f0/f4/48499/714x157_v1_MATPab714x157.jpg" width="714" height="157" width="714" height="157"/><br/></p><ul><li><span style="FONT-WEIGHT: bold">Un rocódromo: </span><p>Tiene una pared principal de 15 x 16 m de 300 m2 de superficie escalable con vías de hasta 20 m, una pared de iniciación de 9 x 14 m de 165 m2 de superficie escalable con vías de hasta 18 m y un boulder de 9 x 3,5 m de 45 m2 de superficie escalable con un desplome de unos 45º.</p></li></ul><p><img class="nicedit_sin-alinear" alt="rocodromo" src="/data/images/f0/f4/48500/714x157_v1_MATRocodromo714x157.jpg" width="714" height="157" width="714" height="157"/><br/></p><p><span style="FONT-WEIGHT: bold">+ Info:</span></p><ul><li><a title="Ir a precios públicos del pdm" href="http://deporte.gijon.es/page/11897-precios-publicos-del-pdm">Precios públicos del PDM</a> </li><li><a title="Ir a normativa y aforos de las instalaciones deportivas municipales" href="http://deporte.gijon.es/page/11898-normativa-y-aforos-de-las-instalaciones-deportivas-municipales">Normativa aplicable y aforos</a></li><li><b>Horario de asistencia técnica:</b> El rocódromo cuenta con la asistencia técnica de un monitor de escalada encargado también, de expedir los diferentes credenciales necesarios para accerder a esta instalación en el horario de 18.30 a 21.30 h de lunes a jueves.<br/></li></ul><br/> <br/><br/><br/> ","C/Simón Bolívar, s/n. <span style="FONT-WEIGHT: bold"><br/>Coordenadas:</span> W 5º 42' 05''- N 43º 32' 13''","43.536761 -5.700577","Pabellones, Gijón, Deporte, Pabellones, Deporte"
"http://www.gijon.es/directorios/show/1007-pabellon-de-deportes-la-arena","1007","es","fecha-actualizacion2014-01-22 12:02:46 +0100","http://www.gijon.es/data/images/f6/6815/250x188_v1_Directorioinstalacionesdeportivasarena.jpg","Pabellón de Deportes La Arena","985 181 754","m@gijon.es","http://deporte.gijon.es/page/95-pagina-de-inicio","<a title="Ir a Horarios de apertura de las instalaciones deportivas" href="http://deporte.gijon.es/page/11880-horarios-de-apertura-de-las-instalaciones-deportivas" rel="external">Horarios generales de las IDM</a>","Esta veterana y acogedora instalación, construida durante los años 60, fue durante años el único pabellón cubierto <br/>disponible en la ciudad.<br/><br/>Pabellón dotado con:<br/><br/><ul><li><span style="FONT-WEIGHT: bold">Una pista poliderportiva </span>divisible en tres módulos:</li></ul>      - Dimensiones: 45,20 X 27,02 m<br/>      - Pavimento: suelo sintético<br/>       -Campos reglamentarios para practicar balonmano, fútbol sala, baloncesto y voleibol.<br/><br/><ul><li><span style="FONT-WEIGHT: bold">Gradas</span> con 642 asientos y una capacidad máxima de 799 personas<br/></li></ul><ul><li><span style="FONT-WEIGHT: bold"><a title="Ir a Sala de Musculación" href="http://deporte.gijon.es/page/11960-sala-de-musculacion" rel="external">Una sala de musculación</a> </span>de 198 m2</li></ul><p><img class="nicedit_sin-alinear" alt="pabellon" src="/data/images/f0/f4/48492/714x157_v1_laarena.jpg" width="714" height="157"/><br/></p><p><span style="FONT-WEIGHT: bold">+ Info:</span><br/></p><ul><li><a title="Ir a precios públicos del pdm" href="http://deporte.gijon.es/page/11897-precios-publicos-del-pdm">Precios públicos del PDM</a></li><li><a title="Ir a normativa y aforos de las instalaciones deportivas municipales" href="http://deporte.gijon.es/page/11898-normativa-y-aforos-de-las-instalaciones-deportivas-municipales">Normativa aplicable y aforos</a></li></ul>","C/ Emilio Tuya, 31.<span style="FONT-WEIGHT: bold"> <br/>Coordenadas:</span> W 5º 38' 58'' - N 43º 32' 20''","43.539169 -5.649601","Pabellones, 2010, Gijón, Deporte, Cultura, Pabellones, Deporte"
"http://www.gijon.es/directorios/show/980-oficina-central-de-atencion-al-ciudadano","980","es","fecha-actualizacion2014-01-22 12:02:46 +0100","http://www.gijon.es/data/images/f6/6793/200x150_v1_DirectorioserviciosmunicipalesMvc-32f.jpg","Oficina Central de Atención al Ciudadano.","985 181 105","985 181 182","http://www.gijon.es","<span>Lunes a viernes: De 8:30 a17:00 h. Sábados: De 9:00 a<span id="dtx-highlighting-item" backgroundcolor="lime"> 13</span>:00 h. Julio y Agosto: Lunes a viernes: De 8:30 a 14:00 h. Sábados: De 9:00 a<span id="dtx-highlighting-item" backgroundcolor="lime">13</span>:00 h.</span>","C/Cabrales, 2","Lineas de autobuses urbanos, Piscinas Municipales, Servicios Municipales, Edificios Municipales, Mediatecas, Servicio Atención a la Ciudadanía, Administración, Comunicaciones, Deporte, Movilidad"
"http://www.gijon.es/directorios/show/608-estadio-el-molinon","608","es","fecha-actualizacion2014-05-12 14:50:22 +0200","http://www.gijon.es/data/images/f6/6530/297x253_v1_DirectorioinstalacionesdeportivasEstadioElMolinon.jpg","Estadio El Molinón","985 167 677","Medidas del terreno de juego: 105 x 70 metros. Real Sporting de Gijón S.A.D.","Avda. de El Molinón","43.536268 -5.637403","Campos de Fútbol, 2010, Gijón, Deporte"
"http://www.gijon.es/directorios/show/443-centro-municipal-integrado-de-l-arena","443","es","fecha-actualizacion2017-03-28 12:24:45 +0200","http://www.gijon.es/data/images/f6/6420/250x188_v1_Directoriobibliotecasarena.jpg","Centro Municipal Integrado de L'Arena","+34 985 181 620","985 181 618","cmiarena@gijon.es","http://www.gijon.es","Lunes a Viernes: 8:00-22:00h. Cajero: 24h.","<p align="justify"> Este centro integrado comparte los servicios del distrito Este con el centro municipal integrado de El Coto. Así puede verse en su publicación mensual de servicios y actividades, la <em>Agenda</em>, compartida por los dos centros y distribuida, tanto en papel como a través de este sitio web.  Con este edificio, el ayuntamiento llega a un territorio, muy cercano al centro, densamente poblado y con necesidad de todo tipo de servicios como los que se ofrecen desde un centro integrado. Es decir, su idea de reunir servicios y actividades coordinadas y cercanas a cualquier residencia. Todos los servicios descentralizados por el ayuntamiento en esta zona de Gijón están aquí presentes, con las características del edificio, presididos por la idea de la integración. Haciendo compatibles servicios generales con otros especializados, por ejemplo en políticas de igualdad y Mujer.  Es decir, un servicio hecho de servicios diferentes, que se prestan como uno sólo para que el usuario elija, según su gusto o necesidades. </p><p align="justify">Dispone de: oficina de atención a la ciudadanía, Oficina municipal de políticas de igualdad, Servicios Sociales, concejalía de distrito, biblioteca, mediateca (16 puestos), cajero ciudadano, sala de exposiciones, salón de actos, aulas y salas polivalentes. Está próximo al pabellón de deportes de La Arena.</p><p align="center"><img src="/data/images/f0/f4/42483/767x500_v1_CENTROARENA%28exterior%29.JPG" alt="arena" class="nicedit_sin-alinear magnify" height="500" width="767" width="767" height="500"/><br/></p><p><br/></p><h3><a href="http://issuu.com/agendasdeloscentrosintegrados/docs/red_de_centros_municipales_integrad" title="Ir a http://issuu.com/agendasdeloscentrosintegrados/docs/red_de_centros_municipales_integrad" rel="external">Espacios del Centro Municipal Integrado de L'Arena (ver espacios).</a><br/></h3><br/><table><thead><tr><th style="text-align: center;">Espacio<br/></th><th style="text-align: center;">Puestos y Aforo<br/></th></tr></thead><tbody><tr><td>Salón de actos<br/></td><td style="text-align: right;">192</td></tr><tr><td>Aulas 1 y 3<br/></td><td style="text-align: right;">25<br/></td></tr><tr><td>Aulas 4 y 5<br/></td><td style="text-align: right;">29<br/></td></tr><tr><td>Aula 2<br/></td><td style="text-align: right;">20<br/></td></tr><tr><td style="vertical-align: top;">Aula 6<br/></td><td style="vertical-align: top; text-align: right;">45<br/></td></tr><tr><td style="vertical-align: top;">Biblioteca<br/></td><td style="vertical-align: top; text-align: right;">Adultos: 144<br/>Infantiles: 37<br/>Lectura de prensa: 24<br/></td></tr><tr><td style="vertical-align: top;">Mediateca<br/></td><td style="vertical-align: top; text-align: right;">16<br/></td></tr><tr><td style="vertical-align: top;">Sala de Exposiciones<br/></td><td style="vertical-align: top; text-align: right;">96 m2<br/></td></tr></tbody></table>","C/Canga Argüelles, 16- 18","43.539034 -5.650709","Sala de Exposiciones, Cajeros Ciudadanos, Edificios Municipales, Mediatecas, Zona Wifi, Servicio Atención a la Ciudadanía, 2010, Gijón, Otras salas de congresos, Servicios Sociales, Ocio, Bibliotecas, Teatro, Pabellones, Lineas de autobuses urbanos, Aseos públicos, Administración, Comunicaciones, Cultura y Ocio, Deporte, Movilidad, Turismo"
"http://www.gijon.es/directorios/show/441-centro-municipal-integrado-de-el-coto","441","es","fecha-actualizacion2016-06-06 14:03:16 +0200","http://www.gijon.es/data/images/f6/6418/150x113_v1_DirectorioedificiosmunicipalesCMI-elcoto.jpg","Centro Municipal Integrado de El Coto","+34 985 181 701","985 132 299","cmicoto@gijon.es","http://www.gijon.es","Lunes a Viernes: 8:00-22:00h. Cajero: 24h.","Es el centro pionero de la red de centros integrados. Un edificio de servicios múltiples, cabecera del distrito Este. Supone la presencia efectiva del ayuntamiento en ese territorio, con todos sus servicios y con sus nuevas estructuras y dotaciones. Su idea es la de reunir servicios y actividades coordinadas y cercanas a cualquier residencia. Todos los servicios descentralizados por el ayuntamiento en esta zona de Gijón están aquí presentes presididos por la idea de la integración. Es decir, un servicio hecho de servicios diferentes, que se prestan como uno sólo para que el usuario elija, según su gusto o necesidades.<br/><br/> <p>Dispone de: oficina de atención a la ciudadanía, Servicios Sociales, Empleo, Patronato Deportivo Municipal, Servicio de Prevención y Salud Laboral, concejalía de distrito, biblioteca, mediateca (10 puestos), cajero ciudadano, sala de exposiciones, salón de actos y salas polivalentes.</p><p><img src="/data/images/f0/f4/42475/298x400_v1_CentroCoto%28exteriorgenerallosa%29.JPG" alt="Fachada El Coto" class="image-izquierda magnify" height="400" width="298" width="298" height="400"/><img src="/data/images/f0/f4/42476/300x400_v1_CentroCoto%28bibliotecainteriordesdepisosuperior%29.JPG" alt="El coto interior" class="image-derecha magnify" height="400" width="300" width="300" height="400"/><br/><br/></p><p><br/></p><p><br/></p><p><br/></p><p><br/></p><p><br/></p><p><br/></p><p><br/></p><p><br/></p><p><br/></p><p><br/></p><p><br/></p><p><a href="http://issuu.com/agendasdeloscentrosintegrados/docs/red_de_centros_municipales_integrad" title="Ir a http://issuu.com/agendasdeloscentrosintegrados/docs/red_de_centros_municipales_integrad" rel="external"><b>Espacios del Centro Municipal Integrado de El Coto (ver espacios).</b><br/></a></p><br/><table><thead><tr><th style="text-align: center;">Espacio<br/></th><th style="text-align: center;">Puestos y Aforo<br/></th></tr></thead><tbody><tr><td>Salón de actos<br/></td><td style="text-align: right;">207<br/></td></tr><tr><td>Sala Polivalente<br/></td><td style="text-align: right;">166 ó 331<br/></td></tr><tr><td>Sala Paraninfo<br/></td><td style="text-align: right;">84<br/></td></tr><tr><td>Aula 1<br/></td><td style="text-align: right;">36<br/></td></tr><tr><td>Aula 2<br/></td><td style="text-align: right;">44<br/></td></tr><tr><td style="vertical-align: top;">Aula 3                                         <br/></td><td style="vertical-align: top; text-align: right;">                                          52 <br/></td></tr><tr><td style="vertical-align: top;">Aula auxiliar<br/></td><td style="vertical-align: top; text-align: right;">6<br/></td></tr><tr><td style="vertical-align: top;">Sala de estudio<br/></td><td style="vertical-align: top; text-align: right;">52<br/></td></tr><tr><td style="vertical-align: top;">Biblioteca<br/></td><td style="vertical-align: top; text-align: right;">Adultos: 68<br/>Infantil:32<br/>Lectura prensa: 24<br/></td></tr><tr><td style="vertical-align: top;">Mediateca<br/></td><td style="vertical-align: top; text-align: right;">10<br/></td></tr><tr><td style="vertical-align: top;">Sala de exposiciones<br/></td><td style="vertical-align: top; text-align: right;">137 m2<br/></td></tr></tbody></table>","Plaza de la República, s/n.","43.533605 -5.649089","Sala de Exposiciones, Servicios Municipales, Cajeros Ciudadanos, Mediatecas, Zona Wifi, Servicio Atención a la Ciudadanía, 2010, Gijón, Otras salas de congresos, Servicios Sociales, Ocio, Bibliotecas, Piscinas Municipales, Pictogramas, Aparcamientos, Establecimientos de Recarga del Monedero Transporte, Lineas de autobuses urbanos, Taxis, Servicios municipales, Museos y salas de exposiciones, Centros culturales, Aseos públicos, Administración, Comunicaciones, Cultura y Ocio, Deporte, Movilidad, Turismo"
"http://www.gijon.es/directorios/show/384-campo-municipal-de-rugby-la-calzada","384","es","fecha-actualizacion2014-01-22 12:02:29 +0100","Campo Municipal de Rugby . La Calzada","630 022 023","Cantro Municipal de Rugby - Mata-Jove, La Calzada","43.536531 -5.703031","Otros Espacios Deportivos, 2010, Gijón, Deporte"
"http://www.gijon.es/directorios/show/383-campo-municipal-de-golf-la-llorea","383","es","fecha-actualizacion2017-02-10 11:20:58 +0100","http://www.gijon.es/data/images/f0/f2/29011/900x601_v1_Greenhoyo8B.jpg","Campo Municipal de Golf La Llorea","985 181 030","informaciongolf.pdm@gijon.es","http://deporte.gijon.es/page/6198-campo-de-golf-la-llorea","<div style="text-align: justify;">El campo se encuentra ubicado en una rasa costera, elevada a unos 100 m. sobre el nivel del mar, que se encuentra muy próximo. Se trata de un campo de 18 hoyos, par 72, todavía joven y por ello un poco abierto de espacios y una distancia total de 5.971 metros.<br/><p><a href="http://lallorea.gijon.es" title="Ir a http://lallorea.gijon.es" rel="external">Acceda a toda la información del Campo Municipal de Golf La Llorea</a></p><h4><span style="font-weight: bold;">Descuento del 30% con la tarjeta turística Gijón Card</span></h4><ul><li>Ofrecen <a href="http://www.gijon.info/page/14654-promocion-golf-2015" title="Ir a http://www.gijon.info/page/14654-promocion-golf-2015" rel="external">precios especiales</a> a clientes de determinados hoteles de Gijón, con la promoción &quot;Días con Sal&quot;, con el programa &quot;Escapadas&quot; (para clientes con licencia federativa) y para los cruceristas que lleguen a la ciudad.<br/></li></ul></div><span style="font-weight: bold;"></span>","Carretera Nacional 632 (Km 62), nº 6.779. 33394 Gijón. Autovía A-8, salida 371. En la 2ª rotonda tomar dirección Infanzón y en la siguiente dirección Santander.<br/> <br/><span style="font-weight: bold;">Coordenadas:</span> N 43º 31‘ 21“ - W 5º 34’ 42”","43.519587 -5.578823","Campos de Golf, Gijón, Gijón Card, Gijón card. Tarjeta turística, Gijón con Calidad, Deporte"
"http://www.gijon.es/directorios/show/382-campo-municipal-de-golf-el-tragamon","382","es","fecha-actualizacion2017-02-10 11:25:12 +0100","http://www.gijon.es/data/images/f0/f2/29075/1200x900_v1_ElTragamoncalle9.jpg","Campo Municipal de Golf El Tragamón","985 365 379","985 365 379","madera3@madera3.es","http://deporte.gijon.es/eltragamon","El campo se encuentra enclavado en la parroquia de Castiello de Bernueces, a menos de 5 Km. del centro de Gijón. Se trata de un campo semirústico de 9 hoyos, par 68, con una distancia total de 5.184 metros. El recorrido no presenta excesivas dificultades, haciéndolo ideal para jugadores de todos los niveles.<br/><p><b><a href="http://eltragamon.gijon.es" title="Ir a http://eltragamon.gijon.es">Acceda a toda la información del Campo Municipal de Golf El Tragamón</a></b></p><h4><span style="font-weight: bold;">Descuento del 30% con la tarjeta turística Gijón Card</span></h4><span style="font-weight: bold;"></span><ul><li>Ofrecen <a href="http://www.gijon.info/page/14654-promocion-golf-2015" title="Ir a http://www.gijon.info/page/14654-promocion-golf-2015">precios especiales</a> a clientes de determinados hoteles de Gijón, con la promoción &quot;Días con Sal&quot;, con el programa &quot;Escapadas&quot; (para clientes con licencia federativa) y para los cruceristas que lleguen a la ciudad.</li></ul>","Camín de la Isla, nº 1.176. Castiello de Bernueces. <br/>33394 Gijón. Autovía A-8, salida 385. En la rotonda tomar dirección Universidad, luego mantenerse a la derecha y en el cruce a la izquierda dirección Deva.  <span style="font-weight: bold;"><br/>Coordenadas:</span> N 43º 31‘ 06 “ – W 5º 37’ 44”","43.519334 -5.629935","Campos de Golf, Gijón, Gijón Card, Gijón card. Tarjeta turística, Deporte"
"http://www.gijon.es/directorios/show/366-real-grupo-de-cultura-covadonga","366","es","fecha-actualizacion2017-03-28 12:23:54 +0200","http://www.gijon.es/data/images/f6/6376/160x52_v1_DirectoriovariosRGCC.gif","Real Grupo de Cultura Covadonga","985 195 720 , 985 181 080 (Cajero)","985 366 110","navbar@rgcc.es","Lunes a Domingos: 8:00-22:00h.","El Real Grupo de Cultura Covadonga fue fundado oficialmente el 10 de Mayo de 1938. Fue creado para la dedicación de los socios a la cultura física y hoy en día es una de las mejores sociedades polideportivas europeas.Ha tenido 14 presidentes a lo largo de 64 años de vida, y entre sus filas cuenta con Campeones del Mundo y de Europa, además de numerosas participaciones olímpicas.Está ubicado en una zona de fácil acceso y cuenta con parking con capacidad para 250 coches y una zona para bicicletas y motocicletas, con zona cubierta.","Avda. Jesús Revuelta, s/n.","43.533247 -5.63762","Ocio, Otros Espacios Deportivos, Cultura y Ocio, Deporte"
"http://www.gijon.es/directorios/show/364-club-de-natacion-santa-olaya","364","es","fecha-actualizacion2017-03-28 12:23:24 +0200","Club de Natación Santa Olaya","985 323 108   /116 , 985 181 080 (Cajero)","985 323 112","cnso@cnsantaolaya.org","Tiene un equipo de natación está considerado entre los mejores de España, con nadadores Campeones de España, Subcampeones de Europa Júnior, en posesión de Records Absolutos de España y Mejores Marcas Nacionales de Edades, participantes en el último Campeonato del Mundo de Roma, hasta llegar a los Juegos Olímpicos de Atlanta, donde tres de nuestros representantes participaron con el Equipo Nacional.Cuenta con las siguientes instalaciones: Instalaciones acuáticas: Piscinas climatizadas de 50 y 25 m. y piscina exterior. Salas: Polivalentes, ajedrez, lectura, ludoteca y salón de actos. Instalaciones al aire libre: Tenis, polivalentes, polideportivas, frontenis, atléticas exteriores, juego de llave, ping-pong y juegos infantiles. Gimnasio y otras instalaciones cubiertas: Gimnasio: de musculación, cardiovascular y equipo de natación, Pistas de squash, sauna y jacuzzi, vestuarios: generales, discapacitados y cursillistas, punto de información,sala de espera/descanso, cafetería, sala de rayos U.V.A. y clínica deportiva.","C/Camino del Lucero, s/n.","43.541942 -5.690145","Ocio, Otros Espacios Deportivos, 2010, Gijón, Cultura y Ocio, Deporte"
"http://www.gijon.es/directorios/show/332-complejo-deportivo-universidad-laboral","332","es","fecha-actualizacion2016-06-09 09:06:36 +0200","http://www.gijon.es/data/images/f0/f4/45788/436x327_v1_c.duniversidadlaboral.jpg","Complejo Deportivo Universidad Laboral","985 181 729","m@gijon.es","http://deporte.gijon.es/page/95-pagina-de-inicio","<a title="Ir a Horarios de apertura de las instalaciones deportivas" href="http://deporte.gijon.es/page/11880-horarios-de-apertura-de-las-instalaciones-deportivas" rel="external">Horarios generales de IDM</a>","Complejo deportivo inaugurado el 01/02/2002 y que cuenta con las siguientes instalaciones deportivas:<br/><ul><li>1 campos de fútbol de hierba natural con iluminación artificial. </li><li>1 campo de beisbol de hierba natural con iluminación artificial. </li><li>1 campo de hockey hierba sintética con iluminación artificial. </li><li>1 campo de rugby de hierba natural con iluminación artificial. </li><li>1 pista de atletismo.</li></ul><p style="TEXT-ALIGN: center"><img class="nicedit_sin-alinear" alt="general" src="/data/images/f0/f4/45792/650x143_v1_c.universidalaboral.jpg" height="143" width="650" width="650" height="143"/><br/></p>","<p>C/ Jose Luis Álvarez Margaride, s/n 1459. </p><p><strong>Coordenadas:</strong> W 5º 37' 15''- N 43º 31' 30''</p>","43.52231 -5.615247","Complejos Deportivos, Gijón, Deporte, Deporte"
"http://www.gijon.es/directorios/show/331-complejo-deportivo-pumarin-gijon-sur","331","es","fecha-actualizacion2014-01-22 12:02:27 +0100","http://www.gijon.es/data/images/f6/6421/250x188_v1_DirectorioedificiosmunicipalesCMI-gijonsur.jpg","Complejo Deportivo Pumarín "Gijón Sur"","985 181 654","m@gijon.es","http://deporte.gijon.es/page/95-pagina-de-inicio","<a title="Ir a Horarios de apertura de las instalaciones deportivas" href="http://deporte.gijon.es/page/11880-horarios-de-apertura-de-las-instalaciones-deportivas" rel="external">Horarios Generales de IDM</a>","<ul><li>Complejo Deportivo integrado en el Centro Municipal Integrado Gijón Sur, inaugurado el 31-07-2002 </li><li>Dotado con las siguientes instalaciones: un pabellón, una piscina climatizada, dos pistas de squash, una sala de musculación y una sauna.</li></ul><h4><b>Descuento del 40% con la tarjeta turística Gijón Card</b></h4><p><span style="FONT-WEIGHT: bold">+ Info:</span><br/></p><ul><li><a title="Ir a precios públicos del pdm" href="http://deporte.gijon.es/page/11897-precios-publicos-del-pdm">Precios públicos del PDM</a> </li><li><a title="Ir a normativa y aforos de las instalaciones deportivas municipales" href="http://deporte.gijon.es/page/11898-normativa-y-aforos-de-las-instalaciones-deportivas-municipales">Normativa aplicable y aforos</a></li></ul><p><img class="nicedit_sin-alinear" alt="Pabellon gijon sur" src="/data/images/f0/f4/45768/640x141_v1_GSRPabellon640x141.jpg" width="640" height="141" width="640" height="141"/><br/></p>","<p>C/Ramón Areces, 7. </p><p><strong>Coordenadas:</strong> W 5º 40' 41''- N 43º 31' 29''</p>","43.524842 -5.678161","Complejos Deportivos, Gijón, Deporte, 2012, Deporte, Gijón card. Tarjeta turística, Gijón Card"
"http://www.gijon.es/directorios/show/329-complejo-deportivo-las-mestas","329","es","fecha-actualizacion2014-06-09 15:35:24 +0200","http://www.gijon.es/data/images/f0/f4/47124/250x187_v1_DSCF1622250x187.jpg","Complejo Deportivo Las Mestas"," 985 181 758 ( Pista de Atletismo); 985 181 026/029 (<a title="Ir a http://hipico.gijon.es/private/80-prsuarez/page/11043-contacto" href="http://hipico.gijon.es/page/11043-contacto" rel="external">Concurso Hípico</a>,  Telf. operativo durante el concurso)","m@gijon.es","http://deporte.gijon.es/page/95-pagina-de-inicio","<a title="Ir a Horarios de apertura de las instalaciones deportivas" href="http://deporte.gijon.es/page/11880-horarios-de-apertura-de-las-instalaciones-deportivas" rel="external">Horarios generales de las IDM</a>","Fecha de inauguración : 1/1/1986<br/>El Complejo Deportivo cuenta con dos zonas claramente diferenciadas:<br/><span style="FONT-WEIGHT: bold"><br/></span><div style="TEXT-ALIGN: justify"><span style="FONT-WEIGHT: bold">Zona Sur: </span><span style="TEXT-DECORATION: underline">Estadio de Atletismo Jose Luis Rubio</span> instalación dotada con pista de atletismo homolaga según la normativa de la Real Federación Española, un módulo cubierto de atletismo y una sala de musculación. Además cuenta con una grada para albergar a 3.000 espectadores.<br/><span style="FONT-WEIGHT: bold"></span><br/></div><p style="TEXT-ALIGN: center"><img class="nicedit_sin-alinear" alt="las mestas" src="/data/images/f0/f4/48555/652x295_v1_CROSS50652x295.jpg" height="295" width="652" width="652" height="295"/><span style="FONT-WEIGHT: bold"><br/></span></p><p style="TEXT-ALIGN: justify"><span style="FONT-WEIGHT: bold">Zona Norte: </span>donde se encuentra ubicado un campo de rugby, un campo de fútbol americano, una pista de saltos hípicos<span style="TEXT-DECORATION: underline"></span>, un velódromo, un anillo acuático, dos pistas pistas polideportiva, una sala de musculación, una pista de hípico de entrenamiento de arena, tres naves de boxes para alojar caballos, así como una zona de aparcamientos.  <br/></p><p style="TEXT-ALIGN: justify">Recinto donde no solo se puede disfrutar del <a style="FONT-WEIGHT: bold" title="Ir a http://hipico.gijon.es/" href="http://hipico.gijon.es/" rel="external">concurso hípico</a> cada verano sino que durante todo el año es lugar de encuentro y competición para ciclistas, patinadores, jugadores de rugby y palistas, entre otros. En ocasiones es también escenario de conciertos multitudinarios ya que tiene la capacidad de albergar 15.000 personas. Instalación dotada con dos tribunas con 3.000 localidades con asiento. <br/></p><p style="TEXT-ALIGN: justify">Durante los días de Concurso se instalan en Las Mestas distintos servicios de hostelería, con varias zonas de cafetería, cervecería y restauración, incluido un restaurante panorámico situado a pie de pista, dos completas zona de ocio infantil gratuitas que incluyen juegos hinchables, ludoteca para los más pequeños y pony-park a la que se añaden zonas de stands comerciales y exposición. (<span style="FONT-WEIGHT: bold">+ información en <a title="Ir a http://hipico.gijon.es/" href="http://hipico.gijon.es/" rel="external">hipico.gijon.es</a></span>).</p><p style="TEXT-ALIGN: justify"><br/></p><p style="TEXT-ALIGN: center"><img class="nicedit_sin-alinear" alt="pista de saltos" src="/data/images/f0/f4/48227/712x230_v1_juegosdesiempre.jpg" height="230" width="712" width="712" height="230"/><br/></p><h3>Accesos:</h3><ul><li><span style="FONT-WEIGHT: bold">Acceso peatonal y de vehiculos a la zona Sur </span>( Estadio de Atletismo Jose Luis Rubio) por Paseo Arqueólogo M. Fernández-Miranda Fernández<span style="FONT-WEIGHT: bold">. Coordenadas: </span>W 5º 38' 22,08''- N 43º 31' 42,26''</li><li><span style="FONT-WEIGHT: bold">Acceso peatonal y de vehiculos autorizados a la zona Norte</span> ( campo de rugby, pista de saltos, velódromo ...) por C/ Jesús Revuelta. <span style="FONT-WEIGHT: bold">Coordenadas:</span> W 5º 38' 22,08'' - N 43º 31' 42,26'' N</li><li><span style="FONT-WEIGHT: bold">Acceso de vehículos a las zonas de boxes</span> por C/ Albert Einstein. Coordenadas: W 5º 38' 15,97''-  N43º 31'' 41,29''</li></ul>","Avda. Jesús Revuelta s/n.<br/><span style="FONT-WEIGHT: bold">Coordenadas:</span> W 5º 38' 09''- N 43º 31' 57''.","43.530089 -5.639605","Complejos Deportivos, Gijón, Deporte, Hípico, Deporte"
"http://www.gijon.es/directorios/show/327-patinodromo-c-d-moreda-natahoyo","327","es","fecha-actualizacion2014-01-22 12:02:27 +0100","http://www.gijon.es/data/images/f0/f4/48288/438x292_v1_patineje.jpg","Patinódromo | C.D. Moreda-Natahoyo","985 181 418","http://deporte.gijon.es/page/11261-complejo-deportivo-moreda-natahoyo","<a title="Ir a Horarios de apertura de las instalaciones deportivas" href="http://deporte.gijon.es/page/11880-horarios-de-apertura-de-las-instalaciones-deportivas" rel="external">Horarios generales de IDM</a>","Patinódromo cubierto con 200 metros de cuerda y con grada con una capacidad de 300 personas.<br/><br/><span style="font-weight: bold;">Normas específicas:</span><br/><br/><ul><li>Está dedicada exclusivamente a la práctica del patinaje, el acceso al mismo será libre dentro del horario disponible para ello.</li><li>Para acceder al patinódromo es impresicindible estar federado<br/></li><li>Las solicitudes de utilización por parte de los Clubes se realizará en las oficinas del P.D.M. respetándose el horario asignado a cada uno de ellos.</li><li>Se deberá utilizar obligatoriamente casco protector.</li><li>El sentido de giro habitual, será siempre el antihorario.</li><li>En entrenamiento de Clubes o Federación, será siempre el responsable de los mismos quien pueda variarlo.</li><li>El número máximo de usuarios en utilización no concertada, será de 30 personas.<br/></li></ul><br/><span style="FONT-WEIGHT: bold">+ Info:</span><br/><ul><li><a title="Ir a precios públicos del pdm" href="http://deporte.gijon.es/page/11897-precios-publicos-del-pdm">Precios públicos del PDM</a></li><li><a title="Ir a normativa y aforos de las instalaciones deportivas municipales" href="http://deporte.gijon.es/page/11898-normativa-y-aforos-de-las-instalaciones-deportivas-municipales">Normativa aplicable y aforos</a></li><li><a href="http://deporte.gijon.es/page/11261-complejo-deportivo-moreda-natahoyo" title="Ir a Complejo Deportivo Moreda - Natahoyo" rel="external">C.D. de Moreda-Natahoyo</a><br/></li></ul><br/><br/><br/><div style="TEXT-ALIGN: center"><img class="nicedit_sin-alinear" alt="patinodromo" src="/data/images/f0/f4/45752/608x280_v1_patinodromo.jpg" width="608" height="280"/><br/></div>","Complejo deportivo Moreda.Natahoyo - Avda. Juan Carlos I, s/n. <strong>Coordenadas:</strong> N 5º 41' 09'' - W 43º 32' 11''","43.536338 -5.686219","Gijón, Deporte, 2012, Otros Espacios Deportivos, Deporte"
"http://www.gijon.es/directorios/show/326-complejo-deportivo-la-calzada","326","es","fecha-actualizacion2014-01-22 12:02:27 +0100","http://www.gijon.es/data/images/f0/f4/42490/253x189_v1_lacalzada.jpg","Complejo Deportivo La Calzada","985 181 415","m@gijon.es","/page/6910-contacto","<a title="Ir a Horarios de apertura de las instalaciones deportivas" href="http://deporte.gijon.es/page/11880-horarios-de-apertura-de-las-instalaciones-deportivas" rel="external">Horarios generales de las IDM</a>","Complejo Deportivo insaugurado el 1/5/2002 que cuenta con pistas de tenis, pistas de padel, sauna y piscina climatizada.<br/><span style="FONT-WEIGHT: bold">+ Info:</span><br/><ul><li><a title="Ir a Precios Públicos del PDM" href="http://deporte.gijon.es/page/11897-precios-publicos-del-pdm" rel="external">Precios públicos del PDM</a> </li><li><a title="Ir a Normativa y aforos de las Instalaciones Deportivas Municipales" href="http://deporte.gijon.es/page/11898-normativa-y-aforos-de-las-instalaciones-deportivas-municipales" rel="external">Normativa aplicable y aforos</a></li></ul>","<p>C/Simón Bolivar, s/n.</p><p><strong>Coordenadas:</strong> W 5º 41' 09''- N 43º 32' 09''</p>","43.535981 -5.699549","Complejos Deportivos, Gijón, Deporte, 2012, Deporte"
"http://www.gijon.es/directorios/show/325-complejo-deportivo-el-llano-contrueces","325","es","fecha-actualizacion2014-01-22 12:02:27 +0100","http://www.gijon.es/data/images/f0/f4/48439/200x136_v1_Llano.jpg","Complejo Deportivo El Llano - Contrueces","985 181 417","m@gijon.es","/page/6910-contacto","<a title="Ir a Horarios de apertura de las instalaciones deportivas" href="http://deporte.gijon.es/page/11880-horarios-de-apertura-de-las-instalaciones-deportivas" rel="external">Horarios generales de IDM</a>","Complejo deportivo inauguradoel 01/03/1994 dotado con un pabellón, cuatro pistas de tenis, dos pistas de pádel y un frontón.<br/><br/><span style="FONT-WEIGHT: bold">+ Info:</span><br/><ul><li><a title="Ir a precios públicos del pdm" href="http://deporte.gijon.es/page/11897-precios-publicos-del-pdm">Precios públicos del PDM</a> </li><li><a title="Ir a normativa y aforos de las instalaciones deportivas municipales" href="http://deporte.gijon.es/page/11898-normativa-y-aforos-de-las-instalaciones-deportivas-municipales">Normativa aplicable y aforos</a></li></ul>","Avda. de El Llano, 71.<br style="FONT-WEIGHT: bold"/><span style="FONT-WEIGHT: bold">Coordenadas:</span> W 5º 39' 44''- N 43º 31' 34''","43.525939 -5.662336","Complejos Deportivos, Gijón, Deporte, Deporte"
"http://www.gijon.es/directorios/show/187-oficina-central-de-atencion-a-la-ciudadania","187","es","fecha-actualizacion2016-06-06 10:53:59 +0200","http://www.gijon.es/data/images/f6/6122/200x150_v1_OAC_central.jpg","Oficina central de atención a la ciudadanía","010. Si llama desde fuera del municipio de Gijón: 984 847 970.","985 181 182","http://www.gijon.es","Invierno: Lunes a Viernes: 8:30-17:00h.Sábado: 9:00-13:00h.Verano (julio y agosto) Lunes a viernes: 8:30-14:00h. Sábado: 9:00-13:00h.","C/Cabrales, 2 - 33201","43.544656 -5.661931","Edificios Municipales, Servicio Atención a la Ciudadanía, Servicios Municipales, Mediatecas, Piscinas Municipales, Lineas de autobuses urbanos, Servicios municipales, Administración, Comunicaciones, Deporte, Movilidad, Turismo"
"http://www.gijon.es/directorios/show/10-centro-municipal-integrado-de-gijon-sur","10","es","fecha-actualizacion2017-07-12 09:58:07 +0200","http://www.gijon.es/data/images/f2/2545/250x188_v1_CMI-gijonsur.jpg","Centro Municipal Integrado de Gijón-Sur","+ 34 985 181 640","<strong></strong>+ 34 985 181 639","cmigijonsur@gijon.es","http://www.gijon.es","Lunes a sábados: 8:00 a 22:00 horas. Domingos de 8:00 a 15:00 horas.","<p style="text-align: justify;">El nacimiento de este centro integrado supuso dotar a la zona Sur de un conjunto de equipamientos que demandaba por su gran crecimiento urbanístico y rejuvenecimiento demográfico. Su arquitectura demuestra a las claras la noción de integración, pues comparte, en el mismo edificio, usos administrativos, deportivos (con pabellón y piscina) y socioculturales, en un gran complejo cívico que es ya una referencia para el barrio y, en algunos servicios, para toda la ciudad. Nuevamente la idea de coordinar y acercar a cualquier residencia todos los servicios descentralizados por el ayuntamiento, visibles en una destacada arquitectura</p><p style="text-align: justify;">Dispone de: oficina de atención a la ciudadanía, concejalía de distrito, Servicios Sociales, biblioteca, Mediateca (12 puestos), sala de estudio (60 puestos), salón de actos, aulas, salas polivalentes, sala de exposiciones, pabellón deportivo, piscina, sauna, gimnasio, canchas de squash y cajero ciudadano</p><p style="text-align: justify;" align="center"><img src="/data/images/f0/f4/42494/640x407_v1_GijonSurteatro.JPG" alt="suteatro" class="nicedit_sin-alinear magnify" height="407" width="640" width="640" height="407"/><br/></p><p><b><a href="http://issuu.com/agendasdeloscentrosintegrados/docs/red_de_centros_municipales_integrad" title="Ir a http://issuu.com/agendasdeloscentrosintegrados/docs/red_de_centros_municipales_integrad" rel="external">Espacios del Centro Municipal Integrado Gijón-Sur (ver espacios).</a></b><br/></p><div style="text-align: center;"><br/></div><table><thead><tr><th style="text-align: center;">Espacio<br/></th><th style="text-align: center;">Puestos y aforo<br/></th></tr></thead><tbody><tr><td>Salón de actos<br/></td><td style="text-align: right;">350</td></tr><tr><td>Aulas 1 a 5<br/></td><td style="text-align: right;">20</td></tr><tr><td>Aula 6/7<br/></td><td style="text-align: right;">70<br/></td></tr><tr><td>Sala de estudio<br/></td><td style="text-align: right;">60<br/></td></tr><tr><td>Biblioteca<br/></td><td style="text-align: right;">Adultos: 25<br/>Infantil: 25<br/>Lectura de prensa: 32<br/></td></tr><tr><td>Mediateca<br/></td><td style="text-align: right;">12<br/></td></tr><tr><td style="vertical-align: top;">Sala de exposiciones<br/></td><td style="vertical-align: top; text-align: right;">180 m2<br/></td></tr><tr><td>Piscina<br/></td><td style="text-align: right;">Vaso grande: 104 usuarios máximo.<br/>Vaso pequeño: 25 usuarios máximo.<br/>No hay graderío.<br/></td></tr><tr><td>Polideportivo<br/></td><td style="text-align: right;">Grada: 300.<br/>Pista: en caso de eventos en pista hasta 700.<br/></td></tr><tr><td style="vertical-align: top;">Gimnasio<br/></td><td style="vertical-align: top; text-align: right;">26<br/></td></tr><tr><td style="vertical-align: top;">Sauna<br/></td><td style="vertical-align: top; text-align: right;">4<br/></td></tr><tr><td style="vertical-align: top;">Canchas de Squash<br/></td><td style="vertical-align: top; text-align: right;">4 (2 pistas)<br/></td></tr></tbody></table>","C/ Ramón Areces, 7. 33211 Gijón","43.524769 -5.678161","Edificios Municipales, Cajeros Ciudadanos, Servicio Atención a la Ciudadanía, Servicios Municipales, Servicios Sociales, Bibliotecas, Teatro, Sala de Exposiciones, Complejos Deportivos, Pabellones, Piscinas Municipales, Pistas Polideportivas, Servicios municipales, Centros culturales, Zona Wifi, Otras salas de congresos, Administración, Comunicaciones, Cultura y Ocio, Deporte, Turismo"
